{
"type": "FeatureCollection",
"name": "SL_ART_MNMT",
"crs": { "type": "name", "properties": { "name": "urn:ogc:def:crs:OGC:1.3:CRS84" } },
"features": [
{ "type": "Feature", "properties": { "OBJECTID": 1, "NAME": "COMPANY GARDENS PLAQUE", "DSTR": "Table Bay", "HRTG_STS": "None", "MTVT": "Commemorates the first gardeners of the Dutch East India Company who stated the fruit and vegetable garden in the Company’s garden.", "LCTN": "Company Gardens, Tape Town", "RGNL_PSTN": null, "MDM_MTRL": "Bronze plaque in concrete base set in sandstone boulder", "DATE_PRDC": "Unknown", "PAID_BY": null, "ARTS": "Unknown" }, "geometry": { "type": "Point", "coordinates": [ 18.41875, -33.925833332999957 ] } },
{ "type": "Feature", "properties": { "OBJECTID": 2, "NAME": "SIR GEORGE GREY", "DSTR": "Table Bay", "HRTG_STS": "Provincial Heritage site (former National Monument)", "MTVT": "Commemorates the role of Sir George Grey in the Cape and his association with the South African Library", "LCTN": "Company Gardens, in front of the south African Library on the SA museum and SA library axis.", "RGNL_PSTN": null, "MDM_MTRL": "Marble statue on Cape granite pedestal", "DATE_PRDC": "unknown", "PAID_BY": null, "ARTS": "Designer: Marshall W. Calder R.A (1813-1893) Builder: unknown" }, "geometry": { "type": "Point", "coordinates": [ 18.418533333000028, -33.925633332999951 ] } },
{ "type": "Feature", "properties": { "OBJECTID": 3, "NAME": "JAPANESE LANTERN", "DSTR": "Table Bay", "HRTG_STS": "Provincial Heritage site (former national monument)", "MTVT": "Gift of appreciation from the Japanese Government", "LCTN": "Company Gardens, Cape Town", "RGNL_PSTN": null, "MDM_MTRL": "Granite lantern on circular stone chip ground surface", "DATE_PRDC": "Aug-32", "PAID_BY": null, "ARTS": "Unknown" }, "geometry": { "type": "Point", "coordinates": [ 18.418283333000034, -33.926416666999955 ] } },
{ "type": "Feature", "properties": { "OBJECTID": 4, "NAME": "TEMPERANCE MEMORIAL", "DSTR": "Table Bay", "HRTG_STS": "Provincial Heritage site (former National Monument)", "MTVT": "Life and work of Howson Rutherford", "LCTN": "Company Gardens, Tuynhuis - Victoria Street axis at the iron gates entrance from Queen Victoria street", "RGNL_PSTN": null, "MDM_MTRL": "Marble and granite", "DATE_PRDC": "1861", "PAID_BY": null, "ARTS": "Wells Brothers, South London" }, "geometry": { "type": "Point", "coordinates": [ 18.41675, -33.926416666999955 ] } },
{ "type": "Feature", "properties": { "OBJECTID": 5, "NAME": "SLAVE BELL", "DSTR": "Table Bay", "HRTG_STS": "None", "MTVT": "Commemorate the association of the Company’s Gardens with slavery", "LCTN": "Company’s Gardens, next to the bird avery, Cape Town", "RGNL_PSTN": null, "MDM_MTRL": "Brick, plaster and metal", "DATE_PRDC": "Built in 1911/12", "PAID_BY": null, "ARTS": "C and G Meads of London" }, "geometry": { "type": "Point", "coordinates": [ 18.416516667000053, -33.927816666999945 ] } },
{ "type": "Feature", "properties": { "OBJECTID": 6, "NAME": "AIDS MEMORIAL", "DSTR": "Table Bay", "HRTG_STS": "Provincial Heritage site (former National Monument)5", "MTVT": "AIDS awareness", "LCTN": "Rose garden, Company Gardens, Cape Town", "RGNL_PSTN": null, "MDM_MTRL": "Marble base and metal AIDS emblem", "DATE_PRDC": "Considered 20026", "PAID_BY": null, "ARTS": "Unknown" }, "geometry": { "type": "Point", "coordinates": [ 18.416516667000053, -33.927816666999945 ] } },
{ "type": "Feature", "properties": { "OBJECTID": 7, "NAME": "CECIL JOHN RHODES STATUE", "DSTR": "Table Bay", "HRTG_STS": "Provincial Heritage site (former National Monument)", "MTVT": "Commemoration of the role of Rhodes as an important statesman in South Africa", "LCTN": "Company Gardens, SA Museum-South African Library axis, Cape Town", "RGNL_PSTN": null, "MDM_MTRL": "Granite base and a bronze statue", "DATE_PRDC": "1908", "PAID_BY": null, "ARTS": "Sculptor: Henry Pegrem ARA (1862-1937) Designer: Sir Herbert Baker Builder: Henry Pegrem A.R.A." }, "geometry": { "type": "Point", "coordinates": [ 18.417316667000023, -33.926816666999969 ] } },
{ "type": "Feature", "properties": { "OBJECTID": 8, "NAME": "MAJOR-GENERAL SIR HENRY TIMSON LUKIN", "DSTR": "Table Bay", "HRTG_STS": "Provincial Heritage Site (former National Monument)", "MTVT": "Commemorate the military role of Major General Sir Henry Timson Lukin", "LCTN": "Company Gardens, Delville Wood Memorial axis, Cape Town", "RGNL_PSTN": null, "MDM_MTRL": "Granite base with a bronze sculptor", "DATE_PRDC": "1932", "PAID_BY": null, "ARTS": "Architect: Kendall & Mansergh Sculptor: Anton van Wouw (1862-1945 Builder: Anton Van Wouw" }, "geometry": { "type": "Point", "coordinates": [ 18.41565, -33.927866666999932 ] } },
{ "type": "Feature", "properties": { "OBJECTID": 9, "NAME": "DELVILLE WOOD MEMORIAL", "DSTR": "Table Bay", "HRTG_STS": "Provincial Heritage Site (former National Monument)", "MTVT": "Commemorates the service of the South Africans who fought at Delville wood France; Commemorates the servicemen who died in the World War One and World War Two", "LCTN": "Company Gardens, Deville Wood Memorial axis, Cape Town", "RGNL_PSTN": null, "MDM_MTRL": "Stone base and Bronze statue’s", "DATE_PRDC": "1930 Unveiled 3 November 1930", "PAID_BY": null, "ARTS": "Tempietto: Herbert Baker Sculpture: Alfred Turner" }, "geometry": { "type": "Point", "coordinates": [ 18.415966667000077, -33.9281 ] } },
{ "type": "Feature", "properties": { "OBJECTID": 10, "NAME": "ARTILLERYMEN’S MEMORIAL", "DSTR": "Table Bay", "HRTG_STS": "Provincial Heritage Site (former National Monument)", "MTVT": "Memorial to the soldiers who died for their country", "LCTN": "Company Gardens, Delville Wood Memorial axis", "RGNL_PSTN": null, "MDM_MTRL": "Canon on an inscribed granite stone base with bronze? plaques", "DATE_PRDC": "Unknown", "PAID_BY": null, "ARTS": "Unknown" }, "geometry": { "type": "Point", "coordinates": [ 18.416283333000024, -33.928316666999933 ] } },
{ "type": "Feature", "properties": { "OBJECTID": 11, "NAME": "GENERAL JAN CHRISTIAN SMUTS MEMORIAL", "DSTR": "Table Bay", "HRTG_STS": "Provincial Heritage Site (former National Monument)", "MTVT": "Commemoration of Jan Christian Smuts as prominent statesman", "LCTN": "Company's Gardens, on axis of the National Gallery and Queen Victoria street at junction of Government Avenue", "RGNL_PSTN": null, "MDM_MTRL": "Single cube of granite as a base with bronze sculpture", "DATE_PRDC": "Unveiled on the 29th of May 1964 by Dr Louise Smuts (granddaughter)", "PAID_BY": null, "ARTS": "Sculptor: Sydney Harpley (British) Architect: Norman Eaton (South African)" }, "geometry": { "type": "Point", "coordinates": [ 18.4165, -33.928466666999952 ] } },
{ "type": "Feature", "properties": { "OBJECTID": 12, "NAME": "NUMINOUS BEAST", "DSTR": "Table Bay", "HRTG_STS": "None", "MTVT": "Iziko public sculpture competition winner", "LCTN": "Right in front of the National Gallery, Company’s Garden, Cape Town", "RGNL_PSTN": null, "MDM_MTRL": "Granite base and steel statue", "DATE_PRDC": "1978", "PAID_BY": null, "ARTS": "Bruce Arnott" }, "geometry": { "type": "Point", "coordinates": [ 18.416983333000076, -33.928866666999966 ] } },
{ "type": "Feature", "properties": { "OBJECTID": 13, "NAME": "STAINLESS STEEL 7000 x 5000 x 2350", "DSTR": "Table Bay", "HRTG_STS": "None", "MTVT": "Iziko public sculpture competition winner Abstract formalist work that can also be walked through", "LCTN": "On grassed area outside the Iziko National Gallery, Company Gardens, Cape Town", "RGNL_PSTN": null, "MDM_MTRL": "Stainless steel", "DATE_PRDC": "1982", "PAID_BY": null, "ARTS": "Ian Redelinghuys" }, "geometry": { "type": "Point", "coordinates": [ 18.416983333000076, -33.929016666999928 ] } },
{ "type": "Feature", "properties": { "OBJECTID": 14, "NAME": "MAN RUNNING FROM LION", "DSTR": "Table Bay", "HRTG_STS": "None", "MTVT": "Humorous play on Toys, Curios", "LCTN": "In front of National Gallery, Company Gardens, Cape Town", "RGNL_PSTN": null, "MDM_MTRL": "Metal and coloured plastics", "DATE_PRDC": "Unknown", "PAID_BY": null, "ARTS": "Mark O’Donovan" }, "geometry": { "type": "Point", "coordinates": [ 18.4168, -33.929 ] } },
{ "type": "Feature", "properties": { "OBJECTID": 15, "NAME": "FOSSILISED TREE", "DSTR": "Table Bay", "HRTG_STS": "None", "MTVT": "Exhibit of a natural fossilised object", "LCTN": "Outside National Museum, Company Gardens, Cape Town", "RGNL_PSTN": null, "MDM_MTRL": "Wood", "DATE_PRDC": "? Missing plaque", "PAID_BY": null, "ARTS": "Unknown" }, "geometry": { "type": "Point", "coordinates": [ 18.415483333000054, -33.928616666999972 ] } },
{ "type": "Feature", "properties": { "OBJECTID": 16, "NAME": "THE KNOT", "DSTR": "Table Bay", "HRTG_STS": "None", "MTVT": "Public Sculpture", "LCTN": "On a public square adjacent to the City of Cape Town Civic Centre building, Herzog Boulevard Avenue Cape Town", "RGNL_PSTN": null, "MDM_MTRL": "Painted steel", "DATE_PRDC": "Unkonwn", "PAID_BY": null, "ARTS": "Eduardo Villa commissioned in 1981 by the City of Cape Town" }, "geometry": { "type": "Point", "coordinates": [ 18.4277, -33.92053333299998 ] } },
{ "type": "Feature", "properties": { "OBJECTID": 17, "NAME": "ABSTRACT", "DSTR": "Table Bay", "HRTG_STS": "None", "MTVT": "A commission awarded by the City of Cape Town", "LCTN": "On elevated podium between the Civic centre City of Cape town and ArtScape", "RGNL_PSTN": null, "MDM_MTRL": "Polished metal", "DATE_PRDC": "1981", "PAID_BY": null, "ARTS": "Johan van Heerden" }, "geometry": { "type": "Point", "coordinates": [ 18.42915, -33.92055 ] } },
{ "type": "Feature", "properties": { "OBJECTID": 18, "NAME": "CISSIE GOOL MEMORIAL", "DSTR": "Table Bay", "HRTG_STS": "None", "MTVT": "To commemorate the life and achievements of Cissie Gool", "LCTN": "Longmarket Pedestrian Mall, between Buitenkant and Plein Streets, Cape Town", "RGNL_PSTN": null, "MDM_MTRL": "Concrete, inscribed painted plaster", "DATE_PRDC": "2006", "PAID_BY": null, "ARTS": "Ruth Sack" }, "geometry": { "type": "Point", "coordinates": [ 18.424533333000056, -33.926466666999943 ] } },
{ "type": "Feature", "properties": { "OBJECTID": 19, "NAME": "ABDULLAH IBRAHIM MEMORIAL", "DSTR": "Table Bay", "HRTG_STS": "None", "MTVT": "Commemorate the jazz anthem Mannenberg", "LCTN": "21 Bloem Street, Cape Town", "RGNL_PSTN": null, "MDM_MTRL": "Stainless Steel", "DATE_PRDC": "2006", "PAID_BY": null, "ARTS": "Mark O’Donovan and Francois Venter" }, "geometry": { "type": "Point", "coordinates": [ 18.415516667000077, -33.92526666699996 ] } },
{ "type": "Feature", "properties": { "OBJECTID": 20, "NAME": "RACE CLASSIFICATION BOARD", "DSTR": "Table Bay", "HRTG_STS": "None", "MTVT": "Commemorates the building (current High Court Annex) where the formal hearings of the Populations Registration Acts were held", "LCTN": "High Court Annex, Queen Victoria Street, Cape Town", "RGNL_PSTN": null, "MDM_MTRL": "Wood, concrete, paint, varnish", "DATE_PRDC": "2007", "PAID_BY": null, "ARTS": "Roderick Sauls Roderick Sauls was born in District Six, Cape Town, his most enduring and intimate subject. He grew up on the Cape Flats" }, "geometry": { "type": "Point", "coordinates": [ 18.417383333000032, -33.92585 ] } },
{ "type": "Feature", "properties": { "OBJECTID": 21, "NAME": "THE PURPLE MARCH", "DSTR": "Table Bay", "HRTG_STS": "None", "MTVT": "Commemorates the event “Purple March” on 2nd of September 1989", "LCTN": "Corner of Burg and Church Streets, Cape Town", "RGNL_PSTN": null, "MDM_MTRL": "Metal support poles and printed image on plastic", "DATE_PRDC": "2006", "PAID_BY": null, "ARTS": "Conrad Botes" }, "geometry": { "type": "Point", "coordinates": [ 18.419633333000036, -33.92345 ] } },
{ "type": "Feature", "properties": { "OBJECTID": 22, "NAME": "MEMORIAL TO THE MEMBERS OF THE RIFLE BRIGADE", "DSTR": "Table Bay", "HRTG_STS": "None", "MTVT": "Memorial to the members of the rifle brigade", "LCTN": "Wale Street, Corner of Queen Victoria Street, Cape Town", "RGNL_PSTN": null, "MDM_MTRL": "Face brick base, painted metal sub base, missing upper portion (unknown material)", "DATE_PRDC": "Unkonwn", "PAID_BY": null, "ARTS": "Unknown" }, "geometry": { "type": "Point", "coordinates": [ 18.419116667000026, -33.924366666999958 ] } },
{ "type": "Feature", "properties": { "OBJECTID": 23, "NAME": "BARTHOLOMEU DIAS", "DSTR": "Table Bay", "HRTG_STS": "None", "MTVT": "Commemorates Bartholomeu Dias, a Portuguese explorer who landed at the Cape in 1488", "LCTN": "Vehicular traffic island at intersection of Heerengracht and Coen Steytler, Cape Town", "RGNL_PSTN": null, "MDM_MTRL": "Rustenberg granite pedestal with bronze statue", "DATE_PRDC": "1960", "PAID_BY": null, "ARTS": "Designer: Fernandes de Sa Sculptor: Professor Barato Feyo Builder: Unknown" }, "geometry": { "type": "Point", "coordinates": [ 18.4272, -33.917533332999938 ] } },
{ "type": "Feature", "properties": { "OBJECTID": 24, "NAME": "BARTHOLOMEU DIAS VOYAGE ROTARY CLUB MEMORIAL", "DSTR": "Table Bay", "HRTG_STS": "None", "MTVT": "Commemorates the 1988 re-enactment voyage Bartholomeu Dias voyage around the Cape in 1488", "LCTN": "Edge of Heerengracht central traffic island, Cape Town opposite traffic circle at Heerengracht and Coen Steyler intersection (opposite Bartholomeu Dias memorial on traffic circle)", "RGNL_PSTN": null, "MDM_MTRL": "Bronze plaque fixed to a tapered pedestal of rough Rustenburg granite carbon setts, set into concrete. Relief of caravel and rotary international emblem.", "DATE_PRDC": "1988 (uncertain)", "PAID_BY": null, "ARTS": "Unknown" }, "geometry": { "type": "Point", "coordinates": [ 18.427633333000074, -33.9178 ] } },
{ "type": "Feature", "properties": { "OBJECTID": 25, "NAME": "JAN VAN RIEBEECK", "DSTR": "Table Bay", "HRTG_STS": "General protection as it is older than 60 years", "MTVT": "Commemorates Jan van Riebeek the first Dutch Governor of the Cape", "LCTN": "Heerengracht central island opposite traffic island at Hans Strijdom intersection, Cape Town", "RGNL_PSTN": null, "MDM_MTRL": "Granite base and bronze statue", "DATE_PRDC": "Commissioned in 1895 Unveiled on 18 May 1899, by Thomas Ball, Mayor of Cape Town", "PAID_BY": null, "ARTS": "Designed by Detmar Jellings Blow and sculptured by John Tweed, student of Rodin For source material, Tweed painted a portrait of van Riebeek in 1895 from the original by Dirk Craey painted in 1650" }, "geometry": { "type": "Point", "coordinates": [ 18.425933333000046, -33.9197 ] } },
{ "type": "Feature", "properties": { "OBJECTID": 26, "NAME": "MARIA DE LA QUELLERIE", "DSTR": "Table Bay", "HRTG_STS": "General protection as it is older than 60 years", "MTVT": "Commemorates Maria de la Quellerie", "LCTN": "Heerengracht central island opposite traffic island at Hans Strijdom intersection, Cape Town", "RGNL_PSTN": null, "MDM_MTRL": "Granite Base and bronze statue", "DATE_PRDC": "Unveiled in 1952 by HRH Prince Benhard of Netherlands", "PAID_BY": "Commissioned and paid for by the Nederlandse van Riebeek Commitee de heeren Zeventien", "ARTS": "Dirk Wolbers (designer) Sculptor unknown" }, "geometry": { "type": "Point", "coordinates": [ 18.42595, -33.920366666999939 ] } },
{ "type": "Feature", "properties": { "OBJECTID": 27, "NAME": "THE OLDUVAI", "DSTR": "Table Bay", "HRTG_STS": "None", "MTVT": "Sculpture is inspired by the 5,000km long Rift Valley and the Great Lakes of East Africa: one of the most important prehistoric sites in the world. It attests to human endeavour, global commerce, travel and Africa’s centrality in human evolution.", "LCTN": "Adjacent to the eastern facade of the Cape Town Convention Centre (CTCC), intersection of Heerengracht and Coen Steytler Avenue Cape Town", "RGNL_PSTN": null, "MDM_MTRL": "Painted steel", "DATE_PRDC": "Unveiled in December 2008 by Mayor Helen Zille", "PAID_BY": null, "ARTS": "Gavin Young" }, "geometry": { "type": "Point", "coordinates": [ 18.42803333300003, -33.917533332999938 ] } },
{ "type": "Feature", "properties": { "OBJECTID": 28, "NAME": "EX CADET SHIP GENERAL BOTHA", "DSTR": "Table Bay", "HRTG_STS": "None", "MTVT": "Honouring the servicemen who died in the World War One and Two and Korean War", "LCTN": "Central island of Hertzog Boulevard adjacent to Heerengracht", "RGNL_PSTN": null, "MDM_MTRL": "Bronze plaques and granite structure", "DATE_PRDC": "1924", "PAID_BY": null, "ARTS": "Unknown" }, "geometry": { "type": "Point", "coordinates": [ 18.427566667000065, -33.91915 ] } },
{ "type": "Feature", "properties": { "OBJECTID": 29, "NAME": "SCOTT MEMORIAL", "DSTR": "Table Bay", "HRTG_STS": "General protection as memorial older than 60 years", "MTVT": "Commemorates Robert Falcon who with four companions from the Terra Nova perished March 1912 in returning from the South Pole", "LCTN": "Heerengracht road reserve (northern) at intersection with Hans Stijdom Avenue, Cape Town", "RGNL_PSTN": null, "MDM_MTRL": "Granite pedestal with bronze sculptor", "DATE_PRDC": "Original on 15 May 1916 and replica in 1950s", "PAID_BY": null, "ARTS": "Sculptor: Joseph M Solomon Pedestal carved by: Benjamin Smith Replica: Ivan Mitford-Barberton" }, "geometry": { "type": "Point", "coordinates": [ 18.4251, -33.91993333299996 ] } },
{ "type": "Feature", "properties": { "OBJECTID": 30, "NAME": "PIER PLACE SCULPTURE (MAN 1)", "DSTR": "Table Bay", "HRTG_STS": "None", "MTVT": "Upgrade the public Open space with the contribution of sculpture", "LCTN": "Pier Place Heerengragt, Cape Town", "RGNL_PSTN": null, "MDM_MTRL": "Bronze sculpture on wood and steel bench", "DATE_PRDC": "2007", "PAID_BY": null, "ARTS": "Egon Tania" }, "geometry": { "type": "Point", "coordinates": [ 18.427033333000054, -33.918333332999964 ] } },
{ "type": "Feature", "properties": { "OBJECTID": 31, "NAME": "PIER PLACE SCULPTURE (MAN 2)", "DSTR": "Table Bay", "HRTG_STS": "None", "MTVT": "Upgrade the public Open space with the contribution of sculpture", "LCTN": "Pier Place, Heerengragt Cape Town", "RGNL_PSTN": null, "MDM_MTRL": "Bronze", "DATE_PRDC": "2007", "PAID_BY": null, "ARTS": "Egon Tania" }, "geometry": { "type": "Point", "coordinates": [ 18.426333333000059, -33.918266666999955 ] } },
{ "type": "Feature", "properties": { "OBJECTID": 32, "NAME": "PIER PLACE SCULPTURE (MAN 3)", "DSTR": "Table Bay", "HRTG_STS": "None", "MTVT": "Upgrade the public Open space with the contribution of sculpture", "LCTN": "Pier Place Heerengragt, Cape Town", "RGNL_PSTN": null, "MDM_MTRL": "Bronze", "DATE_PRDC": "2007", "PAID_BY": null, "ARTS": "Egon Tania" }, "geometry": { "type": "Point", "coordinates": [ 18.426366667000025, -33.918266666999955 ] } },
{ "type": "Feature", "properties": { "OBJECTID": 33, "NAME": "PIER PLACE SCULPTURE (Woman 1)", "DSTR": "Table Bay", "HRTG_STS": "None", "MTVT": "Upgrade the public Open space with the contribution of sculpture", "LCTN": "Pier Place Heerengragt, Cape Town", "RGNL_PSTN": null, "MDM_MTRL": "Bronze", "DATE_PRDC": "2007", "PAID_BY": null, "ARTS": "Egon Tania" }, "geometry": { "type": "Point", "coordinates": [ 18.426233333000027, -33.91815 ] } },
{ "type": "Feature", "properties": { "OBJECTID": 34, "NAME": "PIER PLACE SCULPTURE (CHILD AND SCOOTER)", "DSTR": "Table Bay", "HRTG_STS": "None", "MTVT": "Upgrade the public Open space with the contribution of sculpture", "LCTN": "Pier Place Heerengragt, Cape Town", "RGNL_PSTN": null, "MDM_MTRL": "Bronze", "DATE_PRDC": "2007", "PAID_BY": null, "ARTS": "Egon Tania" }, "geometry": { "type": "Point", "coordinates": [ 18.425916667000024, -33.918116666999936 ] } },
{ "type": "Feature", "properties": { "OBJECTID": 35, "NAME": "PIER PLACE SCULPTURE (OLD WOMAN)", "DSTR": "Table Bay", "HRTG_STS": "None", "MTVT": "Upgrade the public Open Space with the contribution of sculptures", "LCTN": "Pier Place Heerengragt, Cape Town", "RGNL_PSTN": null, "MDM_MTRL": "Bronze", "DATE_PRDC": "2007", "PAID_BY": null, "ARTS": "Egon Tania" }, "geometry": { "type": "Point", "coordinates": [ 18.426133333000053, -33.91795 ] } },
{ "type": "Feature", "properties": { "OBJECTID": 36, "NAME": "SHARKS", "DSTR": "Table Bay", "HRTG_STS": "None", "MTVT": "Upgrade the public Open Space with the contribution of sculptures", "LCTN": "St Georges Mall, near Pier Place Square, Cape Town", "RGNL_PSTN": null, "MDM_MTRL": "Steel fish with concrete poles supporting them in the air", "DATE_PRDC": "2007", "PAID_BY": null, "ARTS": "Adam van Niewenhuizen (City of Cape Town project manager) and Ralph Borland (Artist)" }, "geometry": { "type": "Point", "coordinates": [ 18.425316667000061, -33.918 ] } },
{ "type": "Feature", "properties": { "OBJECTID": 37, "NAME": "COLONIAL MUTUAL BUILDING CLOCK", "DSTR": "Table Bay", "HRTG_STS": "None", "MTVT": "Commemorate the centenary of Colonial Mutual in South Africa", "LCTN": "St Georges Mall between Pier Place and Hans Stijdom Avenue", "RGNL_PSTN": null, "MDM_MTRL": "Brick, concrete, sandstone blocks and steel", "DATE_PRDC": "Nov-83", "PAID_BY": null, "ARTS": "Colonial Mutual" }, "geometry": { "type": "Point", "coordinates": [ 18.42455, -33.919066666999981 ] } },
{ "type": "Feature", "properties": { "OBJECTID": 38, "NAME": "MYTHLOGICAL LADSCAPE” A CELEBRATION OF DIVERSITY", "DSTR": "Table Bay", "HRTG_STS": "None", "MTVT": "Result of a public competition", "LCTN": "Thibault Square", "RGNL_PSTN": null, "MDM_MTRL": "Core-ten steel and bronze", "DATE_PRDC": "01-Jun-94", "PAID_BY": null, "ARTS": "John Skotness" }, "geometry": { "type": "Point", "coordinates": [ 18.42365, -33.91955 ] } },
{ "type": "Feature", "properties": { "OBJECTID": 39, "NAME": "AFRICA", "DSTR": "Table Bay", "HRTG_STS": "None", "MTVT": "Competition held by the Association of Arts in conjunction with the City of Cape Town", "LCTN": "St Georges Mall at the Waterkant Street intersection", "RGNL_PSTN": null, "MDM_MTRL": "Bronze with various yellow heads", "DATE_PRDC": "26-May-00", "PAID_BY": null, "ARTS": "Brett Murray" }, "geometry": { "type": "Point", "coordinates": [ 18.423116667000045, -33.92105 ] } },
{ "type": "Feature", "properties": { "OBJECTID": 40, "NAME": "FLOOR PLAQUE (ST. GEORGE’S MALL)", "DSTR": "Table Bay", "HRTG_STS": "None", "MTVT": "Commemorates the Fourth phase Pedestrian network of St Georges Mall and Shortmarket Mall", "LCTN": "St Georges Mall, Cape Town", "RGNL_PSTN": null, "MDM_MTRL": "Bronze plaque", "DATE_PRDC": "26th of November 1991 Unveiled by the Mayor Frank van der Velde", "PAID_BY": null, "ARTS": "unknown" }, "geometry": { "type": "Point", "coordinates": [ 18.42085, -33.924366666999958 ] } },
{ "type": "Feature", "properties": { "OBJECTID": 41, "NAME": "COME TO PASS", "DSTR": "Table Bay", "HRTG_STS": "None", "MTVT": "Competition held by the Association of Arts in conjunction with the City of Cape Town", "LCTN": "St. George’s Mall at the Short Market Street intersection", "RGNL_PSTN": null, "MDM_MTRL": "Bronze, paving, stainless steel and glass", "DATE_PRDC": "30th of January 2004", "PAID_BY": null, "ARTS": "Fritha Langerman and Katherine Bull" }, "geometry": { "type": "Point", "coordinates": [ 18.42093333300005, -33.917983332999938 ] } },
{ "type": "Feature", "properties": { "OBJECTID": 42, "NAME": "BISHOP ROBERT GRAY MEMORIAL", "DSTR": "Table Bay", "HRTG_STS": "General protection, older than 60 years", "MTVT": "Commemorate Bishop Robert Grey", "LCTN": "St Georges Mall, close to the intersection of Wale street and adjacent to St George’s Cathedral", "RGNL_PSTN": null, "MDM_MTRL": "Stone and marble", "DATE_PRDC": "Unknown unveiled date Altered and dismantled and reassembled in 1992 at the time of the pedestrianisation of St George’s Mall", "PAID_BY": null, "ARTS": "Designer: William Butterworth (Stone carved in England and brought to the Cape in 1876)" }, "geometry": { "type": "Point", "coordinates": [ 18.41945, -33.924166666999952 ] } },
{ "type": "Feature", "properties": { "OBJECTID": 43, "NAME": "GENERAL JAN CHRISTIAN SMUTS MEMORIAL(2)", "DSTR": "Table Bay", "HRTG_STS": "Provincial Heritage site (former National Monument)", "MTVT": "Commemorate the Life of General JC Smuts in a realistic manner different to the sculpture by Norman Eaton and Sydney Harpley", "LCTN": "Adderley Street; southern end adjav]cent to entry of Slave Lodge, Cape Town", "RGNL_PSTN": null, "MDM_MTRL": "Granite stone base and bronze statue", "DATE_PRDC": "1973", "PAID_BY": null, "ARTS": "Ivan Mitford-Barberton" }, "geometry": { "type": "Point", "coordinates": [ 18.420166667000046, -33.925066666999953 ] } },
{ "type": "Feature", "properties": { "OBJECTID": 44, "NAME": "GENERAL LOUIS BOTHA MEMORIAL", "DSTR": "Table Bay", "HRTG_STS": "General protection, older than 60 years", "MTVT": "Commemorate the Life of General Louis Botha", "LCTN": "Stal Plein, Roeland Street axis, Cape Town", "RGNL_PSTN": null, "MDM_MTRL": "Granite base with bronze statue", "DATE_PRDC": "02-Feb-31", "PAID_BY": null, "ARTS": "Sculptor: Romano R. Romanelli (1882-1958); Designer of pedestal: Kendall & Mansbergh; Foundry Builder: Fonria G Vignali, Florence" }, "geometry": { "type": "Point", "coordinates": [ 18.4193, -33.927833332999967 ] } },
{ "type": "Feature", "properties": { "OBJECTID": 45, "NAME": "ANGLO BOER WAR MEMORIAL", "DSTR": "Table Bay", "HRTG_STS": "Provincial Heritage Site (former National Monument)", "MTVT": "Honour those who fought in the Anglo Boer war fro Britain", "LCTN": "Grand Parade, SE corner, Cape Town", "RGNL_PSTN": null, "MDM_MTRL": "Course granite stone base and marble figure", "DATE_PRDC": "Unkonwn", "PAID_BY": null, "ARTS": "Sir William Goscombe John ARA, London" }, "geometry": { "type": "Point", "coordinates": [ 18.425966667000068, -33.924833332999981 ] } },
{ "type": "Feature", "properties": { "OBJECTID": 46, "NAME": "KING EDWARD VII", "DSTR": "Table Bay", "HRTG_STS": "Provincial Heritage Site (former National Monument)", "MTVT": "Reign of King Edward VII (early 1901 – 1954)", "LCTN": "Grand Parade, Darling Street, on City Hall axis Erf 4651 Cape Town", "RGNL_PSTN": null, "MDM_MTRL": "Dressed granite pedestal and base with marble statue", "DATE_PRDC": "1904 by unknown", "PAID_BY": null, "ARTS": "Designer: Sir William Goscombe John ARA, London Builder and sculptor: unknown" }, "geometry": { "type": "Point", "coordinates": [ 18.42426666700004, -33.924833332999981 ] } },
{ "type": "Feature", "properties": { "OBJECTID": 47, "NAME": "JAN HENDRIK HOFMEYER", "DSTR": "Table Bay", "HRTG_STS": "None", "MTVT": "Political and cultural role of JH Hofmeyer in the Cape", "LCTN": "Church Square, Cape Town", "RGNL_PSTN": null, "MDM_MTRL": "Granite pedestal with bronze sculpture", "DATE_PRDC": "Unknown", "PAID_BY": null, "ARTS": "Sculpted by Anton Van Wouw Builder unknown" }, "geometry": { "type": "Point", "coordinates": [ 18.421383333000051, -33.925116666999941 ] } },
{ "type": "Feature", "properties": { "OBJECTID": 48, "NAME": "THE CAPE TOWN MEMORIAL TO THE ENSLAVED", "DSTR": "Table Bay", "HRTG_STS": "None", "MTVT": "Commemoration of the contribution of slaves to Cape Town", "LCTN": "Church Square, corner Spin and Parliament Streets Cape Town", "RGNL_PSTN": null, "MDM_MTRL": "Concrete cubes clad in inscribed granite", "DATE_PRDC": "Unveiled on the 24th of September 2008 by Mayor Helen Zille", "PAID_BY": null, "ARTS": "Wilma Cruise and Gavin Young" }, "geometry": { "type": "Point", "coordinates": [ 18.42125, -33.9252 ] } },
{ "type": "Feature", "properties": { "OBJECTID": 49, "NAME": "SLAVE TREE", "DSTR": "Table Bay", "HRTG_STS": "None", "MTVT": "Commemoration of the former “Old Slave Tree” which was positioned near this current tree. Slaves were sold at the4 ‘Old Slave Tree’", "LCTN": "Traffic Island on Spin Street near intersection to Parliament street, Cape Town", "RGNL_PSTN": null, "MDM_MTRL": "Tree planted in centre of brick surfaced traffic island Plaque was of brass on stone Turkish Oak", "DATE_PRDC": "Unknown", "PAID_BY": null, "ARTS": "Not applicable" }, "geometry": { "type": "Point", "coordinates": [ 18.42145, -33.925433332999944 ] } },
{ "type": "Feature", "properties": { "OBJECTID": 50, "NAME": "TRAM TRACKS PLAQUE", "DSTR": "Table Bay", "HRTG_STS": "None", "MTVT": "Record the position f the tram tracks that travelled to the Atlantic seaboard from the city", "LCTN": "St Andrew’s Square, corner Buitengragt, Waterkant and Riebeek streets Cape Town", "RGNL_PSTN": null, "MDM_MTRL": "Metal and a boulder", "DATE_PRDC": "2007 at the time of the building of the Prestwich memorial and the upgrade of St Andrew’s Sqaure", "PAID_BY": null, "ARTS": "Heritage Resources Section, City of Cape Town" }, "geometry": { "type": "Point", "coordinates": [ 18.41945, -33.916783332999955 ] } },
{ "type": "Feature", "properties": { "OBJECTID": 51, "NAME": "PRESTWICH MEMORIAL GARDEN OSSUARY PLAQUES(1)", "DSTR": "Table Bay", "HRTG_STS": "None", "MTVT": "Commemoration of the Prestwich memorial and Ossuary within St Andrew’s Square", "LCTN": "St Andrew’s Square Buitengragt, Riebeek, Chiapinni and Waterkant streets, Cape Town", "RGNL_PSTN": null, "MDM_MTRL": "Stainless steel plaque on granite boulder", "DATE_PRDC": "2007", "PAID_BY": null, "ARTS": "Heritage Resources Section, City of Cape Town" }, "geometry": { "type": "Point", "coordinates": [ 18.419816667000077, -33.91775 ] } },
{ "type": "Feature", "properties": { "OBJECTID": 52, "NAME": "PRESTWICH MEMORIAL GARDEN OSSUARY PLAQUES(2)", "DSTR": "Table Bay", "HRTG_STS": "None", "MTVT": "Commemoration of the Prestwich memorial and Ossuary within St Andrew’s Square", "LCTN": "St Andrew’s Square Buitengragt, Riebeek, Chiapinni and Waterkant streets, Cape Town", "RGNL_PSTN": null, "MDM_MTRL": "Stainless steel plaque on granite boulder", "DATE_PRDC": "2007", "PAID_BY": null, "ARTS": "Heritage Resources Section, City of Cape Town" }, "geometry": { "type": "Point", "coordinates": [ 18.419633333000036, -33.918016666999961 ] } },
{ "type": "Feature", "properties": { "OBJECTID": 53, "NAME": "PRESTWICH MEMORIAL AND OSSUARY", "DSTR": "Table Bay", "HRTG_STS": "None", "MTVT": "To commemorate the people buried in the area (former District One of Cape Town) in the 18th and 19th century and to create an ossuary to hold the remains of certain burial discovered in 2005 in Prestwich street Green Point", "LCTN": "St Andrew’s Square Buitengragt, Riebeek, Chiapinni and Waterkant streets, Cape Town", "RGNL_PSTN": null, "MDM_MTRL": "Face brick and stone walls, aluminium window and door frames, glazing", "DATE_PRDC": "2007", "PAID_BY": null, "ARTS": "Lucien le Grange Architect and Urban Designer" }, "geometry": { "type": "Point", "coordinates": [ 18.419716667000046, -33.91748333299995 ] } },
{ "type": "Feature", "properties": { "OBJECTID": 54, "NAME": "ST ANDREW’S CHURCH PLAQUE", "DSTR": "Table Bay", "HRTG_STS": "None", "MTVT": "Provide interpretive signage within a Public Open Space for the public information", "LCTN": "St Andrew’s Square, Buitengragt, Riebeek, Chiapinni and Waterkant streets Cape Town", "RGNL_PSTN": null, "MDM_MTRL": "Aluminium plaque situated on a granite boulder", "DATE_PRDC": "2007", "PAID_BY": null, "ARTS": "City of Cape Town" }, "geometry": { "type": "Point", "coordinates": [ 18.41915, -33.917683332999957 ] } },
{ "type": "Feature", "properties": { "OBJECTID": 55, "NAME": "QUEEN VICTORIA MEMORIAL FOUNTAIN", "DSTR": "Table Bay", "HRTG_STS": "None", "MTVT": "Commemorate the completion of the sixtieth year of the reign of Queen Victoria in June 1897", "LCTN": "Corner Main and Regent roads Sea Point", "RGNL_PSTN": null, "MDM_MTRL": "Painted Steel", "DATE_PRDC": "1897", "PAID_BY": null, "ARTS": "Unknown" }, "geometry": { "type": "Point", "coordinates": [ 18.38725, -33.918666666999968 ] } },
{ "type": "Feature", "properties": { "OBJECTID": 56, "NAME": "SEA POINT GEOLOGICAL MEMORIAL", "DSTR": "Table Bay", "HRTG_STS": "None", "MTVT": "Commemorate the geological rock formation of the environs", "LCTN": "Beach road Sea Point", "RGNL_PSTN": null, "MDM_MTRL": "Concrete, steel", "DATE_PRDC": "Unknown", "PAID_BY": null, "ARTS": "Geological society of South Africa" }, "geometry": { "type": "Point", "coordinates": [ 18.37735, -33.922116666999955 ] } },
{ "type": "Feature", "properties": { "OBJECTID": 57, "NAME": "CAMPS BAY WORLD WAR ONE MEMORIAL", "DSTR": "Table Bay", "HRTG_STS": "None", "MTVT": "Honour the people from camps Bay that died during the World War One", "LCTN": "Corner of Victoria Road and Links Street Camps Bay", "RGNL_PSTN": null, "MDM_MTRL": "Sandstone, timber and bronze", "DATE_PRDC": "Unknown", "PAID_BY": null, "ARTS": "Camps Bay Residents" }, "geometry": { "type": "Point", "coordinates": [ 18.37675, -33.954883332999941 ] } },
{ "type": "Feature", "properties": { "OBJECTID": 58, "NAME": "OBSERVATORY WAR MEMORIAL", "DSTR": "Table Bay", "HRTG_STS": "General protection under the Nation Heritage Resources Act, No. 25 of 1999 as the memorial is older than 60 years", "MTVT": "To commemorate people who lost their lives during World War One", "LCTN": "Currently situated on road reserve in between De Waal Drive and Anzio Road, to the west of Groote Schuur Hospital (original building)10.", "RGNL_PSTN": null, "MDM_MTRL": "Table Mountain Sandstone (quarried nearby)", "DATE_PRDC": "Unveiled on 3 August 1924 by Brigadier-General W. E. C. Tanner (the same day as the Adderley Street cenotaph was unveiled by the Governor General, the Earl of Athlone)", "PAID_BY": null, "ARTS": "Designed by F K Kendall and James Morris" }, "geometry": { "type": "Point", "coordinates": [ 18.46025, -33.94303333299996 ] } },
{ "type": "Feature", "properties": { "OBJECTID": 59, "NAME": "SMUTS FAMILY MEMORIAL", "DSTR": "Table Bay", "HRTG_STS": "None", "MTVT": "Commemoration of the Smuts family, of whom some (identified) were initially interred in the Nederouits Cereformeede Kerk cemetery, Mowbray, which now forms part of the Groote Schuur hospital site.", "LCTN": "Anzio Road Mowbray (west of original Groote Schuur Hospital building)", "RGNL_PSTN": null, "MDM_MTRL": "Granite", "DATE_PRDC": "unknown", "PAID_BY": null, "ARTS": "Smuts family" }, "geometry": { "type": "Point", "coordinates": [ 18.4602, -33.9429 ] } },
{ "type": "Feature", "properties": { "OBJECTID": 60, "NAME": "LANGA HERITAGE MEMORIALS", "DSTR": "Table Bay", "HRTG_STS": "None", "MTVT": "A component of the Langa heritage project which aims to promote the identified heritage of Langa", "LCTN": "Washington Drive at junction of Lerotholi Avenue Langa", "RGNL_PSTN": null, "MDM_MTRL": "Concrete columns with mosaic ceramic tile and glass with mortar inlay", "DATE_PRDC": "2005", "PAID_BY": null, "ARTS": "Design: Fiona Beresford Mosaic implementation: Fiona Beresford with local residents Builder of structures implemented by the Urban Design Branch, City of Cape Town" }, "geometry": { "type": "Point", "coordinates": [ 18.525116667000077, -33.943966666999984 ] } },
{ "type": "Feature", "properties": { "OBJECTID": 61, "NAME": "MENDI SQUARE MEMORIAL", "DSTR": "Table Bay", "HRTG_STS": "None", "MTVT": "Erection of a base for future memorial on Mendi Square", "LCTN": "Mendi Square, Public Open Space, corner Washington and Lerotholi Avenue Langa", "RGNL_PSTN": null, "MDM_MTRL": "Concrete block base and low walls. Base covered on mosaic of ceramic tiles and glass with mortar", "DATE_PRDC": "2005", "PAID_BY": null, "ARTS": "City of Cape Town" }, "geometry": { "type": "Point", "coordinates": [ 18.525783333000049, -33.94356666699997 ] } },
{ "type": "Feature", "properties": { "OBJECTID": 62, "NAME": "GARDEN OF REMEMBRANCE ENTRANCE", "DSTR": "Table Bay", "HRTG_STS": "None", "MTVT": "To commemorate the soldiers from Pinelands who were killed in World War Two", "LCTN": "Garden of Remembrance, Central Square, central Square road, Pinelands", "RGNL_PSTN": null, "MDM_MTRL": "Stone, bronze and concrete", "DATE_PRDC": "Opened by his Worship the Mayor C.U.R V.A.Hill on the 12th August 1960", "PAID_BY": null, "ARTS": "Unknown" }, "geometry": { "type": "Point", "coordinates": [ 18.498083333000068, -33.939 ] } },
{ "type": "Feature", "properties": { "OBJECTID": 63, "NAME": "PINELANDS MEMORIAL GARDEN", "DSTR": "Table Bay", "HRTG_STS": "None", "MTVT": "Unknown", "LCTN": "Garden of Remembrance, Central Square, Central Square road, Pinelands", "RGNL_PSTN": null, "MDM_MTRL": "Square elevated rock garden with trees surrounded by stone walls", "DATE_PRDC": "Unknown", "PAID_BY": null, "ARTS": "Unknown" }, "geometry": { "type": "Point", "coordinates": [ 18.497416667000039, -33.939516666999964 ] } },
{ "type": "Feature", "properties": { "OBJECTID": 64, "NAME": "PINELANDS STONE", "DSTR": "Table Bay", "HRTG_STS": "General protection, memorial is older than 60 years", "MTVT": "Commemorate the founding of Pinelands, the first garden suburb in Cape Town", "LCTN": "Garden of Remembrance, Central Square, Central Square Road, Pinelands", "RGNL_PSTN": null, "MDM_MTRL": "Granite bases paving stones with inscribed memorial sandstone", "DATE_PRDC": "5 May1923 Unveiled by Lieutenant General, the Right Honourable Jan Christian Smuts", "PAID_BY": null, "ARTS": "unknown" }, "geometry": { "type": "Point", "coordinates": [ 18.497916667000027, -33.93998333299993 ] } },
{ "type": "Feature", "properties": { "OBJECTID": 65, "NAME": "SOUTHERN FLOE STONE", "DSTR": "Table Bay", "HRTG_STS": "None", "MTVT": "Commemorates the crew of the H.M.S.A.S. Southern Floe who died on the 11 February 1941 and to the veterans of Southern Floe shell hole", "LCTN": "Garden of Remembrance, Central Square, Central Square road, Pinelands", "RGNL_PSTN": null, "MDM_MTRL": "Granite plaque set on granite column on granite base", "DATE_PRDC": "unknown", "PAID_BY": null, "ARTS": "unknown" }, "geometry": { "type": "Point", "coordinates": [ 18.4969, -33.9396 ] } },
{ "type": "Feature", "properties": { "OBJECTID": 66, "NAME": "THE MEAD AND THE MEADWAY MEMORIAL", "DSTR": "Table Bay", "HRTG_STS": "Provincial Heritage Site (formerly National Monument)", "MTVT": "Commemoration of the Mead and Meadway in Pinelands (Provincial Heritage sites) and the influence of the town planning of Pinelands on subsequent planning and legislation in South Africa.", "LCTN": "Road reserve in between the Meadway, Pinelands", "RGNL_PSTN": null, "MDM_MTRL": "Stone base and memorial with bronze plaques", "DATE_PRDC": "1982", "PAID_BY": null, "ARTS": "National Monuments Council (South African Heritage Resources Agency)" }, "geometry": { "type": "Point", "coordinates": [ 18.497183333000066, -33.94145 ] } },
{ "type": "Feature", "properties": { "OBJECTID": 67, "NAME": "PLAQUE TO JR DE VILLIERS", "DSTR": "Blaauwberg", "HRTG_STS": "None", "MTVT": "Honour the service of JR de Villiers as the first Mayor of Blaauwberg", "LCTN": "Adjacent to Stadler road and Bokkombaai beach Blaauberg", "RGNL_PSTN": null, "MDM_MTRL": "Granite base and bronze plaque", "DATE_PRDC": "Unknown", "PAID_BY": null, "ARTS": "Unknown" }, "geometry": { "type": "Point", "coordinates": [ 18.461416667000037, -33.803133332999948 ] } },
{ "type": "Feature", "properties": { "OBJECTID": 68, "NAME": "PLAQUE TO HEATHER BAM", "DSTR": "Blaauwberg", "HRTG_STS": "None", "MTVT": "Commemorate the life of Heather bam who drowned", "LCTN": "Adjacent to Stadler road and Kleinbaai beach Blaauberg", "RGNL_PSTN": null, "MDM_MTRL": "Wooden cross and life buoy with bronze plaques", "DATE_PRDC": "Unknown", "PAID_BY": null, "ARTS": "Unknown" }, "geometry": { "type": "Point", "coordinates": [ 18.45805, -33.799483332999955 ] } },
{ "type": "Feature", "properties": { "OBJECTID": 69, "NAME": "PLAQUE TO FORMER MILNERTON RAILWAY STATION", "DSTR": "Blaauwberg", "HRTG_STS": "None", "MTVT": "To commemorate the site of the former Milnerton railway station", "LCTN": "Between Marine Drive and Union road in vicinity of at Jansen Road Milnerton", "RGNL_PSTN": null, "MDM_MTRL": "Stone and cement base", "DATE_PRDC": "Unknown", "PAID_BY": null, "ARTS": "Unknown" }, "geometry": { "type": "Point", "coordinates": [ 18.4914, -33.8845 ] } },
{ "type": "Feature", "properties": { "OBJECTID": 70, "NAME": "VOORTREKKER MEMORIAL", "DSTR": "Northern", "HRTG_STS": "None", "MTVT": "Commemorate the trek undertaken by the descendants of the Voortrekkers on 9 August 1938", "LCTN": null, "RGNL_PSTN": null, "MDM_MTRL": "Stone base with bronze plaque", "DATE_PRDC": "Unknown", "PAID_BY": null, "ARTS": "Unknown" }, "geometry": { "type": "Point", "coordinates": [ 18.647, -33.832633332999933 ] } },
{ "type": "Feature", "properties": { "OBJECTID": 71, "NAME": "MEMORIAL TO SECURITY FORCES", "DSTR": "Tygerberg", "HRTG_STS": "None", "MTVT": "Commemorate the armed and security forces of the Apartheid Government", "LCTN": "Voortrekker Road, Parow, in front of CCT Municipal offices", "RGNL_PSTN": null, "MDM_MTRL": "Concrete, stone and granite", "DATE_PRDC": "Unknown", "PAID_BY": null, "ARTS": "Unknown" }, "geometry": { "type": "Point", "coordinates": [ 18.58125, -33.90625 ] } },
{ "type": "Feature", "properties": { "OBJECTID": 72, "NAME": "CAPTAIN PAROW MEMORIAL", "DSTR": "Tygerberg", "HRTG_STS": "None ? depending on age", "MTVT": "Commemorate Captain Parow after whom the suburb is named", "LCTN": "Voortekker road, Parow, outside the CCT Municipal offices", "RGNL_PSTN": null, "MDM_MTRL": "Bronze sculpture and face brick base", "DATE_PRDC": "Unknown", "PAID_BY": null, "ARTS": "Unknown" }, "geometry": { "type": "Point", "coordinates": [ 18.580866667000066, -33.906583332999958 ] } },
{ "type": "Feature", "properties": { "OBJECTID": 73, "NAME": "INGRID JONKER MEMORIAL", "DSTR": "Eastern", "HRTG_STS": "None", "MTVT": "Commemorate the life of Ingrid Jonker", "LCTN": "Beach road near intersection of Cilliers Lane, Gordon’s Bay", "RGNL_PSTN": null, "MDM_MTRL": "Steel", "DATE_PRDC": "2006", "PAID_BY": null, "ARTS": "Tyrone Apollis" }, "geometry": { "type": "Point", "coordinates": [ 18.867515157000071, -34.160873988999981 ] } },
{ "type": "Feature", "properties": { "OBJECTID": 74, "NAME": "GENERAL BOTHA NAUTICAL COLLEGE MONUMENT", "DSTR": "Eastern", "HRTG_STS": "None", "MTVT": "Commemorate the General Botha Nautical College which occupied premises in the Gordon’s Bay Harbour environs.", "LCTN": "Beach Road Gordon’s Bay, adjacent to beach", "RGNL_PSTN": null, "MDM_MTRL": "Bronze plaque on concrete base", "DATE_PRDC": "2008", "PAID_BY": null, "ARTS": "SATS GENERAL BOTHA Old Boys Association" }, "geometry": { "type": "Point", "coordinates": [ 18.868066667000051, -34.1603 ] } },
{ "type": "Feature", "properties": { "OBJECTID": 75, "NAME": "18th CENTURY CANON", "DSTR": "Eastern", "HRTG_STS": "None", "MTVT": "Celebrates the cannon which was used in the 18th century to notify the population of significant events in Table Bay", "LCTN": "Beach Road Gordon’s Bay", "RGNL_PSTN": null, "MDM_MTRL": "Steel, wood", "DATE_PRDC": "Canon from 18th century Unknown date of position in Gordon’s Bay", "PAID_BY": null, "ARTS": "Restorers: Jannie du Toit, John O’Donovan, Martin Bester and Diempie Steyn" }, "geometry": { "type": "Point", "coordinates": [ 18.868083333000072, -34.16025 ] } },
{ "type": "Feature", "properties": { "OBJECTID": 76, "NAME": "CLARENCE DRIVE MEMORIALS", "DSTR": "Eastern", "HRTG_STS": "None", "MTVT": "The older memorial commemorates the man who had the vision for the road and newer memorial commemorates the upgrade of the road", "LCTN": "Clarence Drive, Gordon’s Bay", "RGNL_PSTN": null, "MDM_MTRL": "Sandstone, inscribed granite plaques", "DATE_PRDC": "Unknown: older memorial Upgrading memorial: Mr Gerald Morkel, Premier of the Western Province on 29 May 1988", "PAID_BY": null, "ARTS": "Unknown" }, "geometry": { "type": "Point", "coordinates": [ 18.83355, -34.2073 ] } },
{ "type": "Feature", "properties": { "OBJECTID": 77, "NAME": "DIRKIE UYS VOORTREKKER MONUMENT", "DSTR": "Eastern", "HRTG_STS": "None", "MTVT": "Commemorates Dirkie Uys, a Voortrekker who made a journey in an ox wagon from the Cape Colony into the interior of the country", "LCTN": "Predikantsplein, Lourens Street Somerset West", "RGNL_PSTN": null, "MDM_MTRL": "Concrete, sandstone", "DATE_PRDC": "Unlnown", "PAID_BY": null, "ARTS": "Unknown" }, "geometry": { "type": "Point", "coordinates": [ 18.837583333000055, -34.087583332999941 ] } },
{ "type": "Feature", "properties": { "OBJECTID": 78, "NAME": "AIDS MEMORIAL(2)", "DSTR": "Mitchells Plain / Khayelitsha", "HRTG_STS": "None", "MTVT": "A memorial in memory of all those who have died of AIDS", "LCTN": "Corner of Baden Powell Drive and Eisleben road, Mitchells Plain", "RGNL_PSTN": null, "MDM_MTRL": "Granite and concrete", "DATE_PRDC": "Unveiled by Executive Mayor Helen Zille on 1 December 2007", "PAID_BY": null, "ARTS": "City of Cape Town Health Department, late Dr Ivan Toms, Soraya Elloker Ward Councillor: D Christians Urban renewal: Ivan Anthony City of Cape Town Parks Branch: Roland Williams, Benjamin Solomon, Sylvia Maart" }, "geometry": { "type": "Point", "coordinates": [ 18.617433333000065, -34.0704 ] } },
{ "type": "Feature", "properties": { "OBJECTID": 79, "NAME": "ROBERT WATERWITCH AND COLINE WILLIAMS MEMORIAL", "DSTR": "Klipfontein / False Bay", "HRTG_STS": "None", "MTVT": "Commemorate the service and lives of Colleen Williams and Robert Waterwich to the liberation struggle against the Apartheid Government", "LCTN": "Old Klipfontein road, Athlone adjacent to the public toilets and opposite the Magistrates Court, Athlone", "RGNL_PSTN": null, "MDM_MTRL": "Bronze sculpture and bronze plaque", "DATE_PRDC": "16 December 2005 by the Mayor of Cape Town, Alderman Nomaindia Mfeketo", "PAID_BY": null, "ARTS": "Egon Tania and Guy de Toit" }, "geometry": { "type": "Point", "coordinates": [ 18.505966667000052, -33.961233332999939 ] } },
{ "type": "Feature", "properties": { "OBJECTID": 80, "NAME": "TROJAN HORSE MEMORIAL", "DSTR": "Klipfontein / False Bay", "HRTG_STS": "None", "MTVT": "Commemorate the lives of Michael Miranda (age 11 years), Shaun Magmoed (age 16 years) and Jonathan Claasen who were killed by the South African security forces on the 15th October 1985", "LCTN": "Thornton road, Athlone near intersection of St Simon’s Road", "RGNL_PSTN": null, "MDM_MTRL": "Steel, existing vibracrete wall and bronze plaques", "DATE_PRDC": "24 September 2006 by Premier Rassool, Premier of the Western Cape", "PAID_BY": null, "ARTS": "Human Rights Media Centre & ACG Architects" }, "geometry": { "type": "Point", "coordinates": [ 18.505966667000052, -33.961233332999939 ] } },
{ "type": "Feature", "properties": { "OBJECTID": 81, "NAME": "SAS SOMERSET SPARE PROPELLER", "DSTR": "Southern (excluding False Bay)", "HRTG_STS": "None", "MTVT": "Commemorate the vessel SAS Somerset", "LCTN": "Jubilee Square, St. George’s Street Simons Town", "RGNL_PSTN": "Jubilee Square, St. George’s Street Simons Town", "MDM_MTRL": "Steel", "DATE_PRDC": "Unknown", "PAID_BY": null, "ARTS": "Unknown" }, "geometry": { "type": "Point", "coordinates": [ 18.432983333000038, -34.192966666999951 ] } },
{ "type": "Feature", "properties": { "OBJECTID": 82, "NAME": "PLAQUE OF IMPORTANT DATES IN SIMON’S TOWN HISTORY", "DSTR": "Southern (excluding False Bay)", "HRTG_STS": "None", "MTVT": "Commemorates the important occurrences in Simon’s Town", "LCTN": "Jubilee Square, St. George’s Street Simons Town", "RGNL_PSTN": null, "MDM_MTRL": "Bronze", "DATE_PRDC": "Unknown", "PAID_BY": null, "ARTS": "Simon’s Town Historical Society" }, "geometry": { "type": "Point", "coordinates": [ 18.433033333000026, -34.1931 ] } },
{ "type": "Feature", "properties": { "OBJECTID": 83, "NAME": "JUST NUISANCE SCULPTURE", "DSTR": "Southern (excluding False Bay)", "HRTG_STS": "None", "MTVT": "Honour the dog that was well known in the SA Royal Navy and in Simon’s Town during World War Two", "LCTN": "Jubilee Square, Simons Town", "RGNL_PSTN": null, "MDM_MTRL": "Rock base with bronze statue", "DATE_PRDC": "12-Jul-85", "PAID_BY": null, "ARTS": "Jean Doyle (1984)" }, "geometry": { "type": "Point", "coordinates": [ 18.433183333000045, -34.193016666999938 ] } },
{ "type": "Feature", "properties": { "OBJECTID": 84, "NAME": "QUEEN VICTORIA FOUNTAIN", "DSTR": "Southern (excluding False Bay)", "HRTG_STS": "General protection , older than 60 years", "MTVT": "Commemorates the reign of Queen Victoria", "LCTN": "Jubilee Square. It was originally erected opposite the Mast house, St George’s street, Simon’s Town", "RGNL_PSTN": null, "MDM_MTRL": "Metal and concrete", "DATE_PRDC": "1897. Mounted in 1899 and moved to Jubilee Square in 1930", "PAID_BY": null, "ARTS": "Unknown" }, "geometry": { "type": "Point", "coordinates": [ 18.433316667000042, -34.193016666999938 ] } },
{ "type": "Feature", "properties": { "OBJECTID": 85, "NAME": "BOTHA SHIP MEMORIAL PLAQUE", "DSTR": "Southern (excluding False Bay)", "HRTG_STS": "None", "MTVT": "Commemorates the training ship, General Botha", "LCTN": "Jubilee Square, St George’s Street, Simons Town", "RGNL_PSTN": null, "MDM_MTRL": "Concrete base with bronze plaque", "DATE_PRDC": "1987", "PAID_BY": null, "ARTS": "SATS General Botha Old Boys Association" }, "geometry": { "type": "Point", "coordinates": [ 18.43335, -34.193 ] } },
{ "type": "Feature", "properties": { "OBJECTID": 86, "NAME": "PLAQUE COMMEMORATING THE DEATHS OF THE GERMAN NAVY SAILING TEAM IN 1997", "DSTR": "Southern (excluding False Bay)", "HRTG_STS": "None", "MTVT": "Honour the German Navy sailing team who died in an airplane crash in 1997 while travelling to a sailing regatta in the Cape.", "LCTN": "Jubilee Square, St George’s Street Simons Town", "RGNL_PSTN": null, "MDM_MTRL": "Bronze", "DATE_PRDC": "Unknown", "PAID_BY": null, "ARTS": "Unknown" }, "geometry": { "type": "Point", "coordinates": [ 18.4332, -34.193 ] } },
{ "type": "Feature", "properties": { "OBJECTID": 87, "NAME": "BLUBBER POT (WHALING TRY POT)", "DSTR": "Southern (excluding False Bay)", "HRTG_STS": "General Protection, over 60 years", "MTVT": "Historic object from the whaling trade", "LCTN": "Jubilee Square, Simons Town", "RGNL_PSTN": null, "MDM_MTRL": "Cast iron pot with temporary laminated paper plaque", "DATE_PRDC": "Unknown", "PAID_BY": null, "ARTS": "Simon’s Town Historical Society" }, "geometry": { "type": "Point", "coordinates": [ 18.4336, -34.193266666999932 ] } },
{ "type": "Feature", "properties": { "OBJECTID": 88, "NAME": "ANCHOR", "DSTR": "Southern (excluding False Bay)", "HRTG_STS": "General Protection, older than 60 years", "MTVT": "Display a historic anchor, from a sailing ship, that was found in Simon’s Bay", "LCTN": "Jubilee Square, St George’s Street Simons Town", "RGNL_PSTN": null, "MDM_MTRL": "Metal", "DATE_PRDC": "1990", "PAID_BY": null, "ARTS": "Simon’s Town Historical Society" }, "geometry": { "type": "Point", "coordinates": [ 18.43280039800004, -34.193369722999932 ] } },
{ "type": "Feature", "properties": { "OBJECTID": 89, "NAME": "PLAQUE COMMEMORATING ORGANISATIONS", "DSTR": "Southern (excluding False Bay)", "HRTG_STS": "None", "MTVT": "Commemorating the planting of eleven Palm trees and the organisations involved", "LCTN": "Jubilee Square, Simons Town", "RGNL_PSTN": null, "MDM_MTRL": "Copper", "DATE_PRDC": "1973", "PAID_BY": null, "ARTS": "Simon’s Town Historical Society" }, "geometry": { "type": "Point", "coordinates": [ 18.43345, -34.193266666999932 ] } },
{ "type": "Feature", "properties": { "OBJECTID": 90, "NAME": "SIMON’S TOWN MUNICIPALITY PLAQUE", "DSTR": "Southern (excluding False Bay)", "HRTG_STS": "None", "MTVT": "Commemorates the establishment of the First Battalion Cape Corps in Simon’s Town - October December 1915", "LCTN": "Jubilee Square, Simons Town", "RGNL_PSTN": null, "MDM_MTRL": "Metal", "DATE_PRDC": "3 November 1973 by Gordon Wilson , the Mayor Councillor", "PAID_BY": null, "ARTS": "Gordon Wilson" }, "geometry": { "type": "Point", "coordinates": [ 18.43345, -34.193266666999932 ] } },
{ "type": "Feature", "properties": { "OBJECTID": 91, "NAME": "TWINS SCULPTURE", "DSTR": "Southern (excluding False Bay)", "HRTG_STS": "None", "MTVT": "Positioning of a sculpture that was cast by the Bronze Age Foundry in Simon’s Town", "LCTN": "Jubilee Square St George’s Street, Simon’s Town", "RGNL_PSTN": null, "MDM_MTRL": null, "DATE_PRDC": null, "PAID_BY": null, "ARTS": "Speelman Makwa Mahlangu" }, "geometry": { "type": "Point", "coordinates": [ 18.433233333000032, -34.19335 ] } },
{ "type": "Feature", "properties": { "OBJECTID": 92, "NAME": "SIMON’S TOWN CENTENARY PLAQUE", "DSTR": "Southern (excluding False Bay)", "HRTG_STS": "None", "MTVT": "Plaque commemorating the celebration of Simon’s Town centenary", "LCTN": "Jubilee Square St. George’s Street, Simon’s town", "RGNL_PSTN": null, "MDM_MTRL": "Bronze", "DATE_PRDC": "28-Feb-83", "PAID_BY": null, "ARTS": "Simon’s Town Historical Society" }, "geometry": { "type": "Point", "coordinates": [ 18.43308333300007, -34.193216666999945 ] } },
{ "type": "Feature", "properties": { "OBJECTID": 93, "NAME": "VRYSTAAT (FREE STATE) ANCHOR", "DSTR": "Southern (excluding False Bay)", "HRTG_STS": "General Protection, older than 60 years", "MTVT": "Historic anchor exhibited", "LCTN": "Jubilee Square St. George’s Street, Simon’s Town", "RGNL_PSTN": null, "MDM_MTRL": "Metal", "DATE_PRDC": "Unknown", "PAID_BY": null, "ARTS": "Unknown" }, "geometry": { "type": "Point", "coordinates": [ 18.432783333000032, -34.193383332999929 ] } },
{ "type": "Feature", "properties": { "OBJECTID": 94, "NAME": "FORCED REMOVALS MEMORIAL", "DSTR": "Southern (excluding False Bay)", "HRTG_STS": "None", "MTVT": "Commemorates the forced removal of a section of the Simon’s Town community due to legislation at the time of removal", "LCTN": "St. George’s Street just before Jubilee Square, Simon’s Town", "RGNL_PSTN": null, "MDM_MTRL": "Sandstone and bronze", "DATE_PRDC": "Unknown", "PAID_BY": null, "ARTS": "Unknown" }, "geometry": { "type": "Point", "coordinates": [ 18.432783333000032, -34.193383332999929 ] } },
{ "type": "Feature", "properties": { "OBJECTID": 95, "NAME": "6 – POUNDER HOTCHKISS DUAL PURPOSE GUN", "DSTR": "Southern (excluding False Bay)", "HRTG_STS": "General protection, older than 60 years", "MTVT": "Exhibition of historic war object", "LCTN": "Main road, sea side, Simons Town", "RGNL_PSTN": null, "MDM_MTRL": "Genuine gun in concrete base", "DATE_PRDC": "Unknown", "PAID_BY": null, "ARTS": "Simon’s Town Historical Society" }, "geometry": { "type": "Point", "coordinates": [ 18.432616667000048, -34.193333332999941 ] } },
{ "type": "Feature", "properties": { "OBJECTID": 96, "NAME": "ALABAMA PLAQUE", "DSTR": "Southern (excluding False Bay)", "HRTG_STS": "None", "MTVT": "Interpretive signage on a historic ship visiting Simon’s Town", "LCTN": "St. George’s Street mounted on dockyard wall, Simons Town", "RGNL_PSTN": null, "MDM_MTRL": "Bronze", "DATE_PRDC": null, "PAID_BY": null, "ARTS": "Simon’s Town Historical Society" }, "geometry": { "type": "Point", "coordinates": [ 18.431633333000036, -34.1932 ] } },
{ "type": "Feature", "properties": { "OBJECTID": 97, "NAME": "RUDYARD KIPLING PLAQUE", "DSTR": "Southern (excluding False Bay)", "HRTG_STS": "None", "MTVT": "Commemorates the poet and writer R Kipling who visited Simon’s Town", "LCTN": "St. George’s Street, mounted on dockyard wall, Simons Town", "RGNL_PSTN": null, "MDM_MTRL": "Bronze", "DATE_PRDC": "Unknown", "PAID_BY": null, "ARTS": "Simon’s Town Historical Society" }, "geometry": { "type": "Point", "coordinates": [ 18.431533333000061, -34.19311666699997 ] } },
{ "type": "Feature", "properties": { "OBJECTID": 98, "NAME": "VICE ADMIRAL LORD HORATION NELSON PLAQUE", "DSTR": "Southern (excluding False Bay)", "HRTG_STS": "None", "MTVT": "Commemorates the Vice Admiral Lord Nelson and his visit to Simon’s Town", "LCTN": "St. George’s Street, mounted on dockyard wall, Simons Town", "RGNL_PSTN": null, "MDM_MTRL": "Bronze", "DATE_PRDC": "Unknown", "PAID_BY": null, "ARTS": "Simon’s Town Historical Society" }, "geometry": { "type": "Point", "coordinates": [ 18.431516667000039, -34.19311666699997 ] } },
{ "type": "Feature", "properties": { "OBJECTID": 99, "NAME": "THE SLIPWAY PLAQUE", "DSTR": "Southern (excluding False Bay)", "HRTG_STS": "None", "MTVT": "Commemorates the Slipway", "LCTN": "St. George’s Street, mounted onto the dockyard wall, Simon’s Town", "RGNL_PSTN": null, "MDM_MTRL": "Bronze", "DATE_PRDC": "Unknown", "PAID_BY": null, "ARTS": "Unknown" }, "geometry": { "type": "Point", "coordinates": [ 18.431366667000077, -34.193 ] } },
{ "type": "Feature", "properties": { "OBJECTID": 100, "NAME": "HOOF POORT WESWERF (WEST DOCK YARD GATES) PLAQUE", "DSTR": "Southern (excluding False Bay)", "HRTG_STS": "None", "MTVT": "Commemorates the Hoof Poort Weswerf (West Dockyard Gates)", "LCTN": "St. George’s Street, attached to dockyard wall, Simon’s Town", "RGNL_PSTN": null, "MDM_MTRL": "Bronze", "DATE_PRDC": null, "PAID_BY": null, "ARTS": "Unknown" }, "geometry": { "type": "Point", "coordinates": [ 18.43116666700007, -34.19311666699997 ] } },
{ "type": "Feature", "properties": { "OBJECTID": 101, "NAME": "DIE SKEEPSWERF POORT (EAST DOCKYARD GATES) PLAQUE", "DSTR": "Southern (excluding False Bay)", "HRTG_STS": "None", "MTVT": "Commemorates the Skeepswerf Poort (East dockyard gates)", "LCTN": "St. George’s Street, attached to Navy wall, Simons Town", "RGNL_PSTN": null, "MDM_MTRL": "Bronzed aluminium", "DATE_PRDC": "Unknown", "PAID_BY": null, "ARTS": "Simon’s Town Historical Society" }, "geometry": { "type": "Point", "coordinates": [ 18.430316667000056, -34.193083332999947 ] } },
{ "type": "Feature", "properties": { "OBJECTID": 102, "NAME": "THE WATERING PLACE PLAQUE", "DSTR": "Southern (excluding False Bay)", "HRTG_STS": "None", "MTVT": "Commemorates the watering place used by the ships in the 18th century", "LCTN": "St. George’s Street Simons Town, mounted on dockyard wall", "RGNL_PSTN": null, "MDM_MTRL": "Bronze", "DATE_PRDC": null, "PAID_BY": null, "ARTS": "Simon’s Town Historical Society" }, "geometry": { "type": "Point", "coordinates": [ 18.429466667000042, -34.193016666999938 ] } },
{ "type": "Feature", "properties": { "OBJECTID": 103, "NAME": "DIE PAKHUIS (STORE) PLAQUE", "DSTR": "Southern (excluding False Bay)", "HRTG_STS": "None", "MTVT": "Commemorates the building used as a store for the Dutch and later the English", "LCTN": "St George’s Street Simons Town, mounted onto dockyard wall", "RGNL_PSTN": null, "MDM_MTRL": "Bronze", "DATE_PRDC": "Unknown", "PAID_BY": null, "ARTS": "Unknown" }, "geometry": { "type": "Point", "coordinates": [ 18.42871666700006, -34.192666666999969 ] } },
{ "type": "Feature", "properties": { "OBJECTID": 104, "NAME": "SERGEANT JOHN KENDRICK MEMORIAL", "DSTR": "Southern (excluding False Bay)", "HRTG_STS": "None", "MTVT": "Commemorates Sergeant J Kendrick", "LCTN": "St George’s Street Simon’s Town, diagonally opposite the Mast House Clock next to the Shell garage", "RGNL_PSTN": null, "MDM_MTRL": "Stone and steel", "DATE_PRDC": "1978", "PAID_BY": null, "ARTS": "Unknown" }, "geometry": { "type": "Point", "coordinates": [ 18.427883333000068, -34.192366666999931 ] } },
{ "type": "Feature", "properties": { "OBJECTID": 105, "NAME": "NAVAL RESIDENCES NO’S 44, 45 & 46 PLAQUE", "DSTR": "Southern (excluding False Bay)", "HRTG_STS": "None", "MTVT": "Commemorates the buildings that were used as naval Residences", "LCTN": "St George’s Street Simon’s Town, attached to the dockyard wall", "RGNL_PSTN": null, "MDM_MTRL": "Bronze", "DATE_PRDC": "Unknown", "PAID_BY": null, "ARTS": "Simon’s Town Historical Society" }, "geometry": { "type": "Point", "coordinates": [ 18.4277, -34.19195 ] } },
{ "type": "Feature", "properties": { "OBJECTID": 106, "NAME": "THE RESIDENCY PLAQUE", "DSTR": "Southern (excluding False Bay)", "HRTG_STS": "None", "MTVT": "Commemorates and gives public information on the building, The Residency", "LCTN": "St George’s Street Simons Town, mounted on dockyard wall", "RGNL_PSTN": null, "MDM_MTRL": "Bronzed aluminium", "DATE_PRDC": "Unknown", "PAID_BY": null, "ARTS": "Simon’s Town Historical Society" }, "geometry": { "type": "Point", "coordinates": [ 18.427483333000055, -34.19025 ] } },
{ "type": "Feature", "properties": { "OBJECTID": 107, "NAME": "DIE RESIDENCIE (RESIDENCE) PLAQUE", "DSTR": "Southern (excluding False Bay)", "HRTG_STS": "None", "MTVT": "Commemorates the building, The Residency and gives an outline of its uses over time.", "LCTN": "St George’s Street, Simons Town, mounted on dockyard wall", "RGNL_PSTN": null, "MDM_MTRL": "Bronze", "DATE_PRDC": "Unknown", "PAID_BY": null, "ARTS": "Unknown" }, "geometry": { "type": "Point", "coordinates": [ 18.427383333000023, -34.19145 ] } },
{ "type": "Feature", "properties": { "OBJECTID": 108, "NAME": "THE TOLL GATE MEMORIAL", "DSTR": "Southern (excluding False Bay)", "HRTG_STS": "None", "MTVT": "Commemorates the position of the former Simon’s Town Toll gate", "LCTN": "Corner of St George’s Street and Jubilee Street Simons Town", "RGNL_PSTN": null, "MDM_MTRL": "Stone and bronzed aluminium", "DATE_PRDC": null, "PAID_BY": null, "ARTS": "Simon’s Town Historical Society" }, "geometry": { "type": "Point", "coordinates": [ 18.425933333000046, -34.189416666999932 ] } },
{ "type": "Feature", "properties": { "OBJECTID": 109, "NAME": "EAST FORT TRAVERSING GUN", "DSTR": "Southern (excluding False Bay)", "HRTG_STS": "None", "MTVT": "Commemorate the east Fort Traversing Gun", "LCTN": "East fort, Chapman’s Peak Drive Hout Bay", "RGNL_PSTN": null, "MDM_MTRL": "Inscribed anodised aluminium plaque on sandstone base", "DATE_PRDC": "Unknown", "PAID_BY": null, "ARTS": "Hout Bayand Llandudno Heritage Trust" }, "geometry": { "type": "Point", "coordinates": [ 18.363266667000062, -34.05525 ] } },
{ "type": "Feature", "properties": { "OBJECTID": 110, "NAME": "THREE MISSING PLAQUES BENEATH THE ROW OF CANONS", "DSTR": "Southern (excluding False Bay)", "HRTG_STS": "None", "MTVT": "Unknown", "LCTN": "East fort, Chapman’s Peak drive, Hout Bay", "RGNL_PSTN": null, "MDM_MTRL": "Exposing aggregate frame on concrete surface (plaques missing)", "DATE_PRDC": "Unknown", "PAID_BY": null, "ARTS": "Hout Bay and Llandudno Heritage Trust" }, "geometry": { "type": "Point", "coordinates": [ 18.355066667000074, -34.05545 ] } },
{ "type": "Feature", "properties": { "OBJECTID": 111, "NAME": "EAST FORT BATTERY PLAQUE", "DSTR": "Southern (excluding False Bay)", "HRTG_STS": "None", "MTVT": "Direction plaque to East fort", "LCTN": "East fort, Chapman’s Peak Drive, Hout Bay", "RGNL_PSTN": null, "MDM_MTRL": "Inscribed anodised aluminium plaque with exposed aggregate frame on concrete base", "DATE_PRDC": "Unknown", "PAID_BY": null, "ARTS": "Hout Bay and Llandudno Heritage Trust" }, "geometry": { "type": "Point", "coordinates": [ 18.363716667000062, -34.055183332999945 ] } },
{ "type": "Feature", "properties": { "OBJECTID": 112, "NAME": "EAST FORT PLAQUE", "DSTR": "Southern (excluding False Bay)", "HRTG_STS": "None", "MTVT": "Commemorates the roles of East Fort between the 18th and 20th centuries", "LCTN": "East Fort, Chapman’s Peak Drive, Hout Bay", "RGNL_PSTN": null, "MDM_MTRL": "Inscribed anodised aluminium plaque with exposed aggregate frame on concrete base", "DATE_PRDC": "Unknown", "PAID_BY": null, "ARTS": "Hout Bay and Llandudno Heritage Trust" }, "geometry": { "type": "Point", "coordinates": [ 18.363716667000062, -34.055183332999945 ] } },
{ "type": "Feature", "properties": { "OBJECTID": 113, "NAME": "FYNBOS GARDEN PLAQUE", "DSTR": "Southern (excluding False Bay)", "HRTG_STS": "None", "MTVT": "Commemorates all the people who gave or dedicated their lives to the process of building South Africa", "LCTN": "East Fort, Chapman’s Peak Drive, Hout Bay", "RGNL_PSTN": null, "MDM_MTRL": "Clay", "DATE_PRDC": "11-Nov-02", "PAID_BY": null, "ARTS": "Hout Bay and Llandudno Heritage Trust" }, "geometry": { "type": "Point", "coordinates": [ 18.363783333000072, -34.055066666999949 ] } },
{ "type": "Feature", "properties": { "OBJECTID": 114, "NAME": "PETER R. GIBB MEMORIAL", "DSTR": "Southern (excluding False Bay)", "HRTG_STS": "None", "MTVT": "Commemorate R Gibb", "LCTN": "East Fort, Chapman’s Peak Drive, Hout Bay", "RGNL_PSTN": null, "MDM_MTRL": "Stone, cement and canon balls", "DATE_PRDC": "Unknown", "PAID_BY": null, "ARTS": "Hout Bay and Llandudno Heritage Trust" }, "geometry": { "type": "Point", "coordinates": [ 18.355483333000052, -34.054933332999951 ] } },
{ "type": "Feature", "properties": { "OBJECTID": 115, "NAME": "PLAQUE(1)", "DSTR": "Southern (excluding False Bay)", "HRTG_STS": "None", "MTVT": "Unknown", "LCTN": "East Fort, Chapman’s Peak Drive, Hout Bay", "RGNL_PSTN": null, "MDM_MTRL": "Sandstone paver surrounds to concrete square, unknown plaque material", "DATE_PRDC": "Unknown", "PAID_BY": null, "ARTS": "Hout bay and Llandudno Heritage Society" }, "geometry": { "type": "Point", "coordinates": [ 18.356, -34.05536666699993 ] } },
{ "type": "Feature", "properties": { "OBJECTID": 116, "NAME": "PLAQUE(2)", "DSTR": "Southern (excluding False Bay)", "HRTG_STS": "None", "MTVT": "Unknown", "LCTN": "East Fort, Chapman’s Peak Drive, Hout Bay", "RGNL_PSTN": null, "MDM_MTRL": "Sandstone paver surrounds to concrete square, unknown plaque material Plaque missing", "DATE_PRDC": "Unknown", "PAID_BY": null, "ARTS": "Hout bay and Llandudno Heritage Society" }, "geometry": { "type": "Point", "coordinates": [ 18.364333333000047, -34.055516666999949 ] } },
{ "type": "Feature", "properties": { "OBJECTID": 117, "NAME": "VIEW OF EAST FORT LOOKING SOUTH AND 3 OTHER MISSING PLAQUES", "DSTR": "Southern (excluding False Bay)", "HRTG_STS": "None", "MTVT": "Interpretive signage on the East Fort", "LCTN": "East fort, Chapman’s Peak Drive, Hout Bay", "RGNL_PSTN": null, "MDM_MTRL": null, "DATE_PRDC": null, "PAID_BY": null, "ARTS": "Hout Bay and Llandudno Heritage Society" }, "geometry": { "type": "Point", "coordinates": [ 18.3645, -34.05565 ] } },
{ "type": "Feature", "properties": { "OBJECTID": 118, "NAME": "ANCHORS", "DSTR": "Southern (excluding False Bay)", "HRTG_STS": "None", "MTVT": "Exhibition of historic anchors", "LCTN": "Hout Bay main road, Hout Bay in front of Kronendal Primary School", "RGNL_PSTN": null, "MDM_MTRL": "Steel", "DATE_PRDC": "Unknown", "PAID_BY": null, "ARTS": "Unknown" }, "geometry": { "type": "Point", "coordinates": [ 18.359416667000062, -34.040733332999935 ] } },
{ "type": "Feature", "properties": { "OBJECTID": 119, "NAME": "THOMAS BAINES", "DSTR": "Southern (excluding False Bay)", "HRTG_STS": "None", "MTVT": "Commemorate T Baines", "LCTN": "Victoria road Hout Bay", "RGNL_PSTN": null, "MDM_MTRL": "Stone base and paving with marble plaque set on concrete fixed to side Plaque missing on top", "DATE_PRDC": "Unknown", "PAID_BY": null, "ARTS": "Unknown" }, "geometry": { "type": "Point", "coordinates": [ 18.345966667000027, -34.004333332999977 ] } },
{ "type": "Feature", "properties": { "OBJECTID": 120, "NAME": "CIVIL ENGINEERS MEMORIAL TO THOMAS BANES", "DSTR": "Southern (excluding False Bay)", "HRTG_STS": "None", "MTVT": "Commemorate the works of Thomas Baines", "LCTN": "Hout Bay, on the original Victoria Road (presently the small road off Victoria road towards Suikerbossie restaurant)", "RGNL_PSTN": null, "MDM_MTRL": "Sandstone base with brass plaque", "DATE_PRDC": "29-Sep-96", "PAID_BY": null, "ARTS": "South African Institute of Civil Engineers and the Institute of Professional Land Surveyors of the Western Cape" }, "geometry": { "type": "Point", "coordinates": [ 18.350083333000043, -34.011583332999976 ] } },
{ "type": "Feature", "properties": { "OBJECTID": 121, "NAME": "FORMER VICTORIA ROAD", "DSTR": "Southern (excluding False Bay)", "HRTG_STS": "None", "MTVT": "Commemorate the former position of Victoria Road", "LCTN": "Hout Bay, on the original Victoria Road (presently the small road off Victoria road towards Suikerbossie restaurant)", "RGNL_PSTN": null, "MDM_MTRL": "Anodised aluminium plaques set within pavers fixed to sandstone cairns", "DATE_PRDC": "Unknown", "PAID_BY": null, "ARTS": "Hout bay and Llandudno Heritage Trust" }, "geometry": { "type": "Point", "coordinates": [ 18.350316667000072, -34.011516666999967 ] } },
{ "type": "Feature", "properties": { "OBJECTID": 122, "NAME": "GEOLOGICAL SOCIETY OF SOUTH AFRICA C5", "DSTR": "Southern (excluding False Bay)", "HRTG_STS": "None", "MTVT": "Interpretive signage on the geological formation in the environs", "LCTN": "Harbour road on Mariners Wharf, Hout Bay", "RGNL_PSTN": null, "MDM_MTRL": "Steel plaque fixed to granite base", "DATE_PRDC": "Unknown", "PAID_BY": null, "ARTS": "Geological Society of South Africa" }, "geometry": { "type": "Point", "coordinates": [ 18.348416667000038, -34.04715 ] } },
{ "type": "Feature", "properties": { "OBJECTID": 123, "NAME": "MAYNARDVILLE ENTRANCE GATES PLAQUE", "DSTR": "Southern (excluding False Bay)", "HRTG_STS": "None", "MTVT": "Commemorate the 25th anniversary of the founding of the Open air theatre", "LCTN": "Maynardville Park, corner of Wolf and Church streets Wynberg", "RGNL_PSTN": null, "MDM_MTRL": "Concrete, iron, brass", "DATE_PRDC": "1980", "PAID_BY": null, "ARTS": "unknown" }, "geometry": { "type": "Point", "coordinates": [ 18.46381666700006, -34.0046 ] } },
{ "type": "Feature", "properties": { "OBJECTID": 124, "NAME": "SHAKESPEARE STATUE", "DSTR": "Southern (excluding False Bay)", "HRTG_STS": "None", "MTVT": "Commemorates Shakespeare", "LCTN": "Maynardville Park, corner of Wolf and Church streets Wynberg, adjacent to the seating areas of the open air theatre", "RGNL_PSTN": null, "MDM_MTRL": "Concrete", "DATE_PRDC": "Unknown", "PAID_BY": null, "ARTS": "unknown" }, "geometry": { "type": "Point", "coordinates": [ 18.464416667000023, -34.005366666999976 ] } },
{ "type": "Feature", "properties": { "OBJECTID": 125, "NAME": "PLAQUE OUTSIDE MAYNARDVILLE THEATRE", "DSTR": "Southern (excluding False Bay)", "HRTG_STS": "None", "MTVT": "Information regarding g the open air theatre", "LCTN": "Maynardville Park, corner of Wolf and Church streets Wynberg", "RGNL_PSTN": null, "MDM_MTRL": "Clay plaque set into plastered wall", "DATE_PRDC": "Unknown", "PAID_BY": null, "ARTS": "unknown" }, "geometry": { "type": "Point", "coordinates": [ 18.4641, -34.005266666999944 ] } },
{ "type": "Feature", "properties": { "OBJECTID": 126, "NAME": "MAYNARD VILLA PLAQUE", "DSTR": "Southern (excluding False Bay)", "HRTG_STS": "None", "MTVT": "Commemorates the previous residence that was positioned in the present Park", "LCTN": "Maynardville Park, Wynberg", "RGNL_PSTN": null, "MDM_MTRL": "Facebrick base with plastered and painted upper surface on which a hand painted clay tile plaque is fixed", "DATE_PRDC": null, "PAID_BY": null, "ARTS": "unknown" }, "geometry": { "type": "Point", "coordinates": [ 18.463983333000044, -34.0057 ] } },
{ "type": "Feature", "properties": { "OBJECTID": 127, "NAME": "FIRST TRANS-AFRICA FLIGHT MEMORIAL", "DSTR": "Southern (excluding False Bay)", "HRTG_STS": "None", "MTVT": "Commemorate the first trans-Africa flight from London to Cape Town by Pierre van Ryneveld and Quintin Brand. The plane touched down at Youngsfield, Wynberg on March 20 1920.", "LCTN": "Prince George Drive, Wynberg, Cape Town", "RGNL_PSTN": null, "MDM_MTRL": "Corten steel", "DATE_PRDC": "2007?", "PAID_BY": null, "ARTS": "Strijdom Van Der Merwe" }, "geometry": { "type": "Point", "coordinates": [ 18.480383333000077, -34.011466666999979 ] } },
{ "type": "Feature", "properties": { "OBJECTID": 128, "NAME": "JAN VAN RIEBEEK HEDGE", "DSTR": "Southern (excluding False Bay)", "HRTG_STS": "The hedge is a Provincial Heritage Site (former national monument) –not the memorial", "MTVT": "Commemorate the wild almond hedge planted by Jan van Riebeek", "LCTN": "Klaassens road Constantia, west of Gloucester Avenue", "RGNL_PSTN": null, "MDM_MTRL": "Plastered and painted brickwork base with brass plaque", "DATE_PRDC": "Unknown", "PAID_BY": null, "ARTS": "South African Heritage Resources Agency" }, "geometry": { "type": "Point", "coordinates": [ 18.440667, -33.995833 ] } },
{ "type": "Feature", "properties": { "OBJECTID": 129, "NAME": "OLIVE SCHREINER MEMORIAL", "DSTR": "Southern (excluding False Bay)", "HRTG_STS": "None", "MTVT": "Commemorates the contribution of Olive Schreiner", "LCTN": "Main road Kalk Bay", "RGNL_PSTN": null, "MDM_MTRL": "Concrete, plaster and metal", "DATE_PRDC": "2006", "PAID_BY": null, "ARTS": "Barbara Wildenboer" }, "geometry": { "type": "Point", "coordinates": [ 18.452083333000076, -34.12431666699996 ] } },
{ "type": "Feature", "properties": { "OBJECTID": 130, "NAME": "‘FROLIC’ STATUE", "DSTR": "Southern (excluding False Bay)", "HRTG_STS": "None", "MTVT": "Associated with the recreational nature of the Fish Hoek beach", "LCTN": "Beach road, at the vehicular entrance to Fish Hoek beach", "RGNL_PSTN": null, "MDM_MTRL": "Brick base with bronze sculpture", "DATE_PRDC": "Unknown", "PAID_BY": null, "ARTS": "Unknown" }, "geometry": { "type": "Point", "coordinates": [ 18.43135, -34.140816666999967 ] } },
{ "type": "Feature", "properties": { "OBJECTID": 131, "NAME": "DOLPHINE SCULPTURE", "DSTR": "Southern (excluding False Bay)", "HRTG_STS": "None", "MTVT": "Commemorate the life of Cedryn Greenland (1904 – 1985) owner and editor of the Fish Hoek Echo (1963 – 1978)", "LCTN": "Beside the lawn play area on Fish Hoek beach", "RGNL_PSTN": null, "MDM_MTRL": "Brick base with bronze sculpture", "DATE_PRDC": "Nov-00", "PAID_BY": null, "ARTS": "Sculptor: Ernest Lodge Responsible: family and friends of Cedryn Greenland" }, "geometry": { "type": "Point", "coordinates": [ 18.431933333000075, -34.140783332999945 ] } },
{ "type": "Feature", "properties": { "OBJECTID": 132, "NAME": "ETERNAL FLAME MEMORIAL", "DSTR": "Southern (excluding False Bay)", "HRTG_STS": "None", "MTVT": "MOTHS memorial to commemorate the soldiers who fought in World War One (WW1)and World war Two (WW2)", "LCTN": "Remembrance garden, Kommetjie Road (near intersection of 1st Avenue) Fish Hoek", "RGNL_PSTN": null, "MDM_MTRL": "Brick, cement and a light (eternal flame)", "DATE_PRDC": "Unknown", "PAID_BY": null, "ARTS": "Unknown" }, "geometry": { "type": "Point", "coordinates": [ 18.4286, -34.141383332999965 ] } },
{ "type": "Feature", "properties": { "OBJECTID": 133, "NAME": "SOAP BOXES", "DSTR": "Table Bay", "HRTG_STS": "None", "MTVT": "The first of four innovative projects selected by Iziko for the Public Arts Commission The boxes are public platforms for anybody to use. A camera records the boxes and people or objects around them and transmits it live into the Gallery where it is shown on a monitor.", "LCTN": "Situated on the lawn In front of Iziko National Gallery, Company Gardens, Cape Town", "RGNL_PSTN": null, "MDM_MTRL": "Bronzed cardboard boxes", "DATE_PRDC": "2005", "PAID_BY": null, "ARTS": "Rosenclaire (Rose Shakinovsky and Claire Gavronsky)" }, "geometry": { "type": "Point", "coordinates": [ 18.416983333000076, -33.928683332999981 ] } },
{ "type": "Feature", "properties": { "OBJECTID": 134, "NAME": "GUGULETHU 7 MEMORIAL", "DSTR": "Klipfontein / False Bay", "HRTG_STS": "None", "MTVT": "Commemorate the lives of 7 men that were shot and killed by the Apartheid Government security forces on the 15th October 1985", "LCTN": "Corner of NY 1 and NY 121 Gugulethu", "RGNL_PSTN": null, "MDM_MTRL": "Concrete, granite and bronze", "DATE_PRDC": "0", "PAID_BY": null, "ARTS": "Donovan Ward and Paul Hendricks" }, "geometry": { "type": "Point", "coordinates": [ 18.567883333000054, -33.9674 ] } },
{ "type": "Feature", "properties": { "OBJECTID": 135, "NAME": "TERRAIN VAN DIE KOMPANJIESTAL (PLACE OF THE COMPANY’S STABLE) PLAQUE", "DSTR": "Southern (excluding False Bay)", "HRTG_STS": "None", "MTVT": "Commemorates the history of a Dutch East India Company’s building which was originally used as a stable in the 18th century and later as a hospital by the British. In 1820 the building was unused before it was used as a Church. On 9-9-1824 the roof collapsed and the building was demolished.", "LCTN": "St George’s Street Simons Town, mounted onto dockland wall", "RGNL_PSTN": null, "MDM_MTRL": "Bronze", "DATE_PRDC": "Unknown", "PAID_BY": null, "ARTS": "Unknown" }, "geometry": { "type": "Point", "coordinates": [ 18.428166667000028, -34.192416666999975 ] } },
{ "type": "Feature", "properties": { "OBJECTID": 136, "NAME": "THE CENOTAPH WAR MEMORIAL", "DSTR": "Table Bay", "HRTG_STS": "General Protection as it is older than 60 years", "MTVT": "Commemorate the soldiers who died in World War One , World War Two and the Korean War\r\n", "LCTN": "Adderley Street adjacent to the intersection of Riebeek Street, Cape Town", "RGNL_PSTN": "Street widening in 1959 necessitated moving (by 8 meters ) and re-orientating the memorial", "MDM_MTRL": "Sandstone base and columns with bronze statues and plaques", "DATE_PRDC": "3 August 1924, then again on the 8 November 1959 after Adderley Street was widened and additional inscriptions to commemorate World War Two and the Korean War were fixed", "PAID_BY": null, "ARTS": "Designer: Vernon March Sculptor unknown" }, "geometry": { "type": "Point", "coordinates": [ 18.424733333000063, -33.920616666999933 ] } }
]
}
