{
"type": "FeatureCollection",
"name": "Public_Toilets",
"crs": { "type": "name", "properties": { "name": "urn:ogc:def:crs:OGC:1.3:CRS84" } },
"features": [
{ "type": "Feature", "properties": { "OBJECTID": 501, "FCLT_NAME": "Aberdeen Public Toilets", "FLCT_CTGR": "Public Toilet", "FLCT_RSPL_DSLN": "Horticultural", "FCLT_ACS_ADR": "Aberdeen Street", "PNT_X": 18.45021439, "PNT_Y": -33.92939583 }, "geometry": { "type": "Point", "coordinates": [ 18.450214388861742, -33.929395830995723 ] } },
{ "type": "Feature", "properties": { "OBJECTID": 502, "FCLT_NAME": "Aden Avenue Public Toilet", "FLCT_CTGR": "Public Toilet", "FLCT_RSPL_DSLN": "Recreational", "FCLT_ACS_ADR": "Birdwood Street", "PNT_X": -46011.2166, "PNT_Y": -3759621.3590500001 }, "geometry": { "type": "Point", "coordinates": [ 18.502181719913374, -33.962570550042372 ] } },
{ "type": "Feature", "properties": { "OBJECTID": 504, "FCLT_NAME": "Station Road Park Public Toilet (Observatory PT)", "FLCT_CTGR": "Public Toilet", "FLCT_RSPL_DSLN": "Horticultural", "FCLT_ACS_ADR": "cnr Station Road & Arnold Street", "PNT_X": 18.46802195, "PNT_Y": -33.93835408 }, "geometry": { "type": "Point", "coordinates": [ 18.468021954531856, -33.938354077523215 ] } },
{ "type": "Feature", "properties": { "OBJECTID": 505, "FCLT_NAME": "Queens Park Public Toilet", "FLCT_CTGR": "Public Toilet", "FLCT_RSPL_DSLN": "Horticultural", "FCLT_ACS_ADR": "50 Queens Park Avenue", "PNT_X": 18.45456719, "PNT_Y": -33.93572892 }, "geometry": { "type": "Point", "coordinates": [ 18.454567187735332, -33.935728921183312 ] } },
{ "type": "Feature", "properties": { "OBJECTID": 506, "FCLT_NAME": "Spoon Street Park Public Toilet", "FLCT_CTGR": "Public Toilet", "FLCT_RSPL_DSLN": "Horticultural", "FCLT_ACS_ADR": "Spoon Street", "PNT_X": 18.45588941, "PNT_Y": -34.08836638 }, "geometry": { "type": "Point", "coordinates": [ 18.455889405648563, -34.088366384141715 ] } },
{ "type": "Feature", "properties": { "OBJECTID": 507, "FCLT_NAME": "Moulle Point Lighthouse Public Toilet", "FLCT_CTGR": "Public Toilet", "FLCT_RSPL_DSLN": "Horticultural", "FCLT_ACS_ADR": "Beach Road 60 Lighthouse", "PNT_X": 18.39924804, "PNT_Y": -33.9017949 }, "geometry": { "type": "Point", "coordinates": [ 18.399248042848399, -33.901794900898381 ] } },
{ "type": "Feature", "properties": { "OBJECTID": 508, "FCLT_NAME": "Noll Avenue Park Public Toilet", "FLCT_CTGR": "Public Toilet", "FLCT_RSPL_DSLN": "Horticultural", "FCLT_ACS_ADR": "Noll Avenue", "PNT_X": 18.53410949, "PNT_Y": -33.97872185 }, "geometry": { "type": "Point", "coordinates": [ 18.534109492492675, -33.978721854705235 ] } },
{ "type": "Feature", "properties": { "OBJECTID": 509, "FCLT_NAME": "Brockhurst Park Public Toilet", "FLCT_CTGR": "Public Toilet", "FLCT_RSPL_DSLN": "Horticultural", "FCLT_ACS_ADR": "Brockhurst Road", "PNT_X": 18.49858079, "PNT_Y": -33.9913968 }, "geometry": { "type": "Point", "coordinates": [ 18.498580794732142, -33.991396802258031 ] } },
{ "type": "Feature", "properties": { "OBJECTID": 511, "FCLT_NAME": "Dolphin Beach (Marine Drive) Public Toilet ", "FLCT_CTGR": "Public Toilet", "FLCT_RSPL_DSLN": "Horticultural", "FCLT_ACS_ADR": "Marine Drive, Table View", "PNT_X": 18.47975799, "PNT_Y": -33.82730721 }, "geometry": { "type": "Point", "coordinates": [ 18.479757985836034, -33.8273072105411 ] } },
{ "type": "Feature", "properties": { "OBJECTID": 512, "FCLT_NAME": "The Camp / The Drive  Public Toilet", "FLCT_CTGR": "Public Toilet", "FLCT_RSPL_DSLN": "Horticultural", "FCLT_ACS_ADR": "The Drive", "PNT_X": 18.38002779, "PNT_Y": -33.95266834 }, "geometry": { "type": "Point", "coordinates": [ 18.380027794790283, -33.952668338788648 ] } },
{ "type": "Feature", "properties": { "OBJECTID": 514, "FCLT_NAME": "Pine Road Park Public Toilet", "FLCT_CTGR": "Public Toilet", "FLCT_RSPL_DSLN": "Horticultural", "FCLT_ACS_ADR": "Pine Road", "PNT_X": 18.5282868, "PNT_Y": -33.97215456 }, "geometry": { "type": "Point", "coordinates": [ 18.528286799933763, -33.97215456229403 ] } },
{ "type": "Feature", "properties": { "OBJECTID": 515, "FCLT_NAME": "De Waal Park Public Toilet", "FLCT_CTGR": "Public Toilet", "FLCT_RSPL_DSLN": "Horticultural", "FCLT_ACS_ADR": "Upper Orange", "PNT_X": 18.41367936, "PNT_Y": -33.93648365 }, "geometry": { "type": "Point", "coordinates": [ 18.413679355716674, -33.936483647962135 ] } },
{ "type": "Feature", "properties": { "OBJECTID": 516, "FCLT_NAME": "Camps Bay Tidal Pool Public Toilet", "FLCT_CTGR": "Public Toilet", "FLCT_RSPL_DSLN": "Recreational", "FCLT_ACS_ADR": "Victoria Road", "PNT_X": -57651.536475000001, "PNT_Y": -3758811.98325 }, "geometry": { "type": "Point", "coordinates": [ 18.376298429251939, -33.954700366830608 ] } },
{ "type": "Feature", "properties": { "OBJECTID": 517, "FCLT_NAME": "Camps Bay Pump Station Public Toilet", "FLCT_CTGR": "Public Toilet", "FLCT_RSPL_DSLN": "Horticultural", "FCLT_ACS_ADR": "Victoria Road", "PNT_X": 18.37692513, "PNT_Y": -33.95311462 }, "geometry": { "type": "Point", "coordinates": [ 18.376925133256808, -33.953114624284261 ] } },
{ "type": "Feature", "properties": { "OBJECTID": 518, "FCLT_NAME": "Upper Searle Street Park Public Toilet (Vandalized)", "FLCT_CTGR": "Public Toilet", "FLCT_RSPL_DSLN": "Horticultural", "FCLT_ACS_ADR": "Searle Street", "PNT_X": 18.44007357, "PNT_Y": -33.93331029 }, "geometry": { "type": "Point", "coordinates": [ 18.440073573920127, -33.9333102882104 ] } },
{ "type": "Feature", "properties": { "OBJECTID": 519, "FCLT_NAME": "Jurgens (Burnside Road Park) Public Toilet", "FLCT_CTGR": "Public Toilet", "FLCT_RSPL_DSLN": "Horticultural", "FCLT_ACS_ADR": "cnr Burnside Road and Upper Buitengraght Street", "PNT_X": 18.40789534, "PNT_Y": -33.92925248 }, "geometry": { "type": "Point", "coordinates": [ 18.407895341608921, -33.929252484882312 ] } },
{ "type": "Feature", "properties": { "OBJECTID": 520, "FCLT_NAME": "Garlandale Park Public Toilet", "FLCT_CTGR": "Public Toilet", "FLCT_RSPL_DSLN": "Horticultural", "FCLT_ACS_ADR": "Cressy Road", "PNT_X": 18.49943607, "PNT_Y": -33.96175859 }, "geometry": { "type": "Point", "coordinates": [ 18.499436069617296, -33.961758589236119 ] } },
{ "type": "Feature", "properties": { "OBJECTID": 521, "FCLT_NAME": "Kromboom Park Public Toilet", "FLCT_CTGR": "Public Toilet", "FLCT_RSPL_DSLN": "Horticultural", "FCLT_ACS_ADR": "Kromboom Road", "PNT_X": 18.50622882, "PNT_Y": -33.97358439 }, "geometry": { "type": "Point", "coordinates": [ 18.506228816846342, -33.973584388971048 ] } },
{ "type": "Feature", "properties": { "OBJECTID": 522, "FCLT_NAME": "Zandvlei District Park Public Toilet 2", "FLCT_CTGR": "Public Toilet", "FLCT_RSPL_DSLN": "Horticultural", "FCLT_ACS_ADR": "Promenade Road opp Brandwood", "PNT_X": 18.46748339, "PNT_Y": -34.09337373 }, "geometry": { "type": "Point", "coordinates": [ 18.467483389815701, -34.093373732071157 ] } },
{ "type": "Feature", "properties": { "OBJECTID": 523, "FCLT_NAME": "Zandvlei District  Park Public Toilet 1", "FLCT_CTGR": "Public Toilet", "FLCT_RSPL_DSLN": "Horticultural", "FCLT_ACS_ADR": "Promenade Road opp Orient Road", "PNT_X": 18.46794187, "PNT_Y": -34.09564348 }, "geometry": { "type": "Point", "coordinates": [ 18.467941874218074, -34.095643480391175 ] } },
{ "type": "Feature", "properties": { "OBJECTID": 524, "FCLT_NAME": "Companies Gardens (Queen Victoria) Public Toilet", "FLCT_CTGR": "Public Toilet", "FLCT_RSPL_DSLN": "Recreational", "FCLT_ACS_ADR": "Queen Victoria Road", "PNT_X": -53811.18005, "PNT_Y": -3755544.0211749999 }, "geometry": { "type": "Point", "coordinates": [ 18.418043764390134, -33.925443395588452 ] } },
{ "type": "Feature", "properties": { "OBJECTID": 525, "FCLT_NAME": "Prieska Road Park Public Toilet", "FLCT_CTGR": "Public Toilet", "FLCT_RSPL_DSLN": "Horticultural", "FCLT_ACS_ADR": "Prieska Road", "PNT_X": 18.50034435, "PNT_Y": -33.95696113 }, "geometry": { "type": "Point", "coordinates": [ 18.500344354759171, -33.9569611308007 ] } },
{ "type": "Feature", "properties": { "OBJECTID": 570, "FCLT_NAME": "Choochoo Park Public Toilet", "FLCT_CTGR": "Public Toilet", "FLCT_RSPL_DSLN": "Horticultural", "FCLT_ACS_ADR": "Belvedere Road", "PNT_X": 18.48337624, "PNT_Y": -33.97800662 }, "geometry": { "type": "Point", "coordinates": [ 18.483376240247832, -33.978006616135175 ] } },
{ "type": "Feature", "properties": { "OBJECTID": 571, "FCLT_NAME": "Rondebosch Park Public Toilet", "FLCT_CTGR": "Public Toilet", "FLCT_RSPL_DSLN": "Horticultural", "FCLT_ACS_ADR": "Sandown Road", "PNT_X": 18.47693942, "PNT_Y": -33.96400092 }, "geometry": { "type": "Point", "coordinates": [ 18.476939416346568, -33.96400092000237 ] } },
{ "type": "Feature", "properties": { "OBJECTID": 572, "FCLT_NAME": "Purley Park Public Toilet", "FLCT_CTGR": "Public Toilet", "FLCT_RSPL_DSLN": "Horticultural", "FCLT_ACS_ADR": "Purley Street", "PNT_X": 18.47484211, "PNT_Y": -33.99126623 }, "geometry": { "type": "Point", "coordinates": [ 18.474842108690382, -33.99126623123761 ] } },
{ "type": "Feature", "properties": { "OBJECTID": 573, "FCLT_NAME": "Victoria Walk (Golders Green) Public Toilet ", "FLCT_CTGR": "Public Toilet", "FLCT_RSPL_DSLN": "Horticultural", "FCLT_ACS_ADR": "Victoria Walk", "PNT_X": 18.44820577, "PNT_Y": -33.93207034 }, "geometry": { "type": "Point", "coordinates": [ 18.448205770406272, -33.932070335039562 ] } },
{ "type": "Feature", "properties": { "OBJECTID": 574, "FCLT_NAME": "Princess Vlei Pos Public Toilet (Fish Market)", "FLCT_CTGR": "Public Toilet", "FLCT_RSPL_DSLN": "Horticultural", "FCLT_ACS_ADR": "Prince George Drive", "PNT_X": 18.48628177, "PNT_Y": -34.04756027 }, "geometry": { "type": "Point", "coordinates": [ 18.486281770761614, -34.04756027104991 ] } },
{ "type": "Feature", "properties": { "OBJECTID": 575, "FCLT_NAME": "Wilmar Street Park Public Toilet", "FLCT_CTGR": "Public Toilet", "FLCT_RSPL_DSLN": "Horticultural", "FCLT_ACS_ADR": "Wilmar Street", "PNT_X": 18.48164741, "PNT_Y": -34.07257962 }, "geometry": { "type": "Point", "coordinates": [ 18.481647406898254, -34.072579618075331 ] } },
{ "type": "Feature", "properties": { "OBJECTID": 576, "FCLT_NAME": "Westridge Gardens Public Toilet", "FLCT_CTGR": "Public Toilet", "FLCT_RSPL_DSLN": "Horticultural", "FCLT_ACS_ADR": "Morgenster Road", "PNT_X": 18.59983902, "PNT_Y": -34.04616724 }, "geometry": { "type": "Point", "coordinates": [ 18.599839020270291, -34.0461672375285 ] } },
{ "type": "Feature", "properties": { "OBJECTID": 577, "FCLT_NAME": "Highgrove Park Public Toilet", "FLCT_CTGR": "Public Toilet", "FLCT_RSPL_DSLN": "Horticultural", "FCLT_ACS_ADR": "Highgrove Road", "PNT_X": 18.50497077, "PNT_Y": -33.99693755 }, "geometry": { "type": "Point", "coordinates": [ 18.504970771001446, -33.996937549393749 ] } },
{ "type": "Feature", "properties": { "OBJECTID": 578, "FCLT_NAME": "Raleigh Park Public Toilet", "FLCT_CTGR": "Public Toilet", "FLCT_RSPL_DSLN": "Horticultural", "FCLT_ACS_ADR": "Raleigh & Lancaster Road", "PNT_X": 18.48368754, "PNT_Y": -33.94617443 }, "geometry": { "type": "Point", "coordinates": [ 18.483687535073628, -33.946174425773783 ] } },
{ "type": "Feature", "properties": { "OBJECTID": 579, "FCLT_NAME": "Kuils River Cemetery Public Toilet (Demolished)", "FLCT_CTGR": "Public Toilet", "FLCT_RSPL_DSLN": "Horticultural", "FCLT_ACS_ADR": "Van Riebeeck Road", "PNT_X": 18.68797295, "PNT_Y": -33.94011895 }, "geometry": { "type": "Point", "coordinates": [ 18.687972947427809, -33.940118950806514 ] } },
{ "type": "Feature", "properties": { "OBJECTID": 580, "FCLT_NAME": "Palmboom  Park Public Toilet", "FLCT_CTGR": "Public Toilet", "FLCT_RSPL_DSLN": "Horticultural", "FCLT_ACS_ADR": "Palmboom Road", "PNT_X": 18.45931292, "PNT_Y": -33.9741126 }, "geometry": { "type": "Point", "coordinates": [ 18.459312923336782, -33.974112604346864 ] } },
{ "type": "Feature", "properties": { "OBJECTID": 581, "FCLT_NAME": "Bellville Library (Elizabeth Park) Public Toilet", "FLCT_CTGR": "Public Toilet", "FLCT_RSPL_DSLN": "Horticultural", "FCLT_ACS_ADR": "Carl Van Aswegen  A J West & Voortrekker & Durban", "PNT_X": 18.62583142, "PNT_Y": -33.90204012 }, "geometry": { "type": "Point", "coordinates": [ 18.625831415502496, -33.902040124665383 ] } },
{ "type": "Feature", "properties": { "OBJECTID": 582, "FCLT_NAME": "Fifth Street Park Public Toilet", "FLCT_CTGR": "Public Toilet", "FLCT_RSPL_DSLN": "Horticultural", "FCLT_ACS_ADR": "Fifth Street", "PNT_X": 18.5021413, "PNT_Y": -33.91785915 }, "geometry": { "type": "Point", "coordinates": [ 18.502141298313383, -33.917859148402314 ] } },
{ "type": "Feature", "properties": { "OBJECTID": 583, "FCLT_NAME": "Quarry (Upper Strand Street) Public Toilet (vandalized)", "FLCT_CTGR": "Public Toilet", "FLCT_RSPL_DSLN": "Horticultural", "FCLT_ACS_ADR": "Strand Street", "PNT_X": 18.41619148, "PNT_Y": -33.91728225 }, "geometry": { "type": "Point", "coordinates": [ 18.416191478592655, -33.917282253817419 ] } },
{ "type": "Feature", "properties": { "OBJECTID": 584, "FCLT_NAME": "Arderne Gardens Public Toilet", "FLCT_CTGR": "Public Toilet", "FLCT_RSPL_DSLN": "Horticultural", "FCLT_ACS_ADR": "Main Rd & Harfield Rd", "PNT_X": 18.46597099, "PNT_Y": -33.98651771 }, "geometry": { "type": "Point", "coordinates": [ 18.465970992575233, -33.986517705449423 ] } },
{ "type": "Feature", "properties": { "OBJECTID": 585, "FCLT_NAME": "Maynardville Park Public Toilet (Piers Road)", "FLCT_CTGR": "Public Toilet", "FLCT_RSPL_DSLN": "Horticultural", "FCLT_ACS_ADR": "Piers Road", "PNT_X": 18.46642682, "PNT_Y": -34.00687743 }, "geometry": { "type": "Point", "coordinates": [ 18.466426818459244, -34.006877431282938 ] } },
{ "type": "Feature", "properties": { "OBJECTID": 586, "FCLT_NAME": "Trovato Link Road Public Toilet", "FLCT_CTGR": "Public Toilet", "FLCT_RSPL_DSLN": "Horticultural", "FCLT_ACS_ADR": "Trovato Link Road", "PNT_X": 18.45092081, "PNT_Y": -34.00181211 }, "geometry": { "type": "Point", "coordinates": [ 18.450920810187679, -34.001812112417973 ] } },
{ "type": "Feature", "properties": { "OBJECTID": 587, "FCLT_NAME": "Ottery Cemetery Public Toilets", "FLCT_CTGR": "Public Toilet", "FLCT_RSPL_DSLN": "Horticultural", "FCLT_ACS_ADR": "Ottery Road", "PNT_X": 18.53146941, "PNT_Y": -34.02514362 }, "geometry": { "type": "Point", "coordinates": [ 18.531469407824144, -34.025143622794758 ] } },
{ "type": "Feature", "properties": { "OBJECTID": 588, "FCLT_NAME": "Kloof street park Public Toilet", "FLCT_CTGR": "Public Toilet", "FLCT_RSPL_DSLN": "Horticultural", "FCLT_ACS_ADR": "Kloof Street", "PNT_X": 18.40586515, "PNT_Y": -33.93497481 }, "geometry": { "type": "Point", "coordinates": [ 18.405865153642022, -33.934974812023057 ] } },
{ "type": "Feature", "properties": { "OBJECTID": 589, "FCLT_NAME": "Nantes Park Public Toilet", "FLCT_CTGR": "Public Toilet", "FLCT_RSPL_DSLN": "Horticultural", "FCLT_ACS_ADR": "Loerie Road", "PNT_X": 18.52605135, "PNT_Y": -33.96049798 }, "geometry": { "type": "Point", "coordinates": [ 18.526051351128139, -33.960497983125904 ] } },
{ "type": "Feature", "properties": { "OBJECTID": 590, "FCLT_NAME": "Camps Bay Main Beach Public Toilet (Demolished)", "FLCT_CTGR": "Public Toilet", "FLCT_RSPL_DSLN": "Horticultural", "FCLT_ACS_ADR": "Victoria Road", "PNT_X": 18.37876121, "PNT_Y": -33.94864995 }, "geometry": { "type": "Point", "coordinates": [ 18.378761209367322, -33.948649951984358 ] } },
{ "type": "Feature", "properties": { "OBJECTID": 591, "FCLT_NAME": "Rocklands Avenue Park Public Toilet", "FLCT_CTGR": "Public Toilet", "FLCT_RSPL_DSLN": "Horticultural", "FCLT_ACS_ADR": "Rocklands Avenue Deer Park Drive", "PNT_X": 18.42036114, "PNT_Y": -33.94193586 }, "geometry": { "type": "Point", "coordinates": [ 18.420361143827222, -33.941935859229211 ] } },
{ "type": "Feature", "properties": { "OBJECTID": 592, "FCLT_NAME": "Bryant Street Park Public Toilet", "FLCT_CTGR": "Public Toilet", "FLCT_RSPL_DSLN": "Horticultural", "FCLT_ACS_ADR": "Bryant Street", "PNT_X": 18.41227192, "PNT_Y": -33.92415232 }, "geometry": { "type": "Point", "coordinates": [ 18.412271924719949, -33.92415232219944 ] } },
{ "type": "Feature", "properties": { "OBJECTID": 593, "FCLT_NAME": "Rompe  Park Public Toilet", "FLCT_CTGR": "Public Toilet", "FLCT_RSPL_DSLN": "Horticultural", "FCLT_ACS_ADR": "Rompe Street", "PNT_X": 18.50460618, "PNT_Y": -33.99299792 }, "geometry": { "type": "Point", "coordinates": [ 18.504606179506666, -33.992997921261512 ] } },
{ "type": "Feature", "properties": { "OBJECTID": 594, "FCLT_NAME": "Monwabisi Picnic Site Toilet", "FLCT_CTGR": "Public Toilet", "FLCT_RSPL_DSLN": "Recreational", "FCLT_ACS_ADR": "Baden Powell", "PNT_X": -29154.71705, "PNT_Y": -3771794.9517000001 }, "geometry": { "type": "Point", "coordinates": [ 18.684151254846, -34.072919817983546 ] } },
{ "type": "Feature", "properties": { "OBJECTID": 595, "FCLT_NAME": "Monwabisi Braai Area Toilet 1", "FLCT_CTGR": "Public Toilet", "FLCT_RSPL_DSLN": "Recreational", "FCLT_ACS_ADR": "Baden Powell", "PNT_X": -29309.60095, "PNT_Y": -3771815.13265 }, "geometry": { "type": "Point", "coordinates": [ 18.682472657927715, -34.073097426766218 ] } },
{ "type": "Feature", "properties": { "OBJECTID": 596, "FCLT_NAME": "Monwabisi Tidal Pool Toilet", "FLCT_CTGR": "Public Toilet", "FLCT_RSPL_DSLN": "Recreational", "FCLT_ACS_ADR": "Baden Powel", "PNT_X": -28946.92865, "PNT_Y": -3771818.60335 }, "geometry": { "type": "Point", "coordinates": [ 18.68640152302229, -34.073138804020196 ] } },
{ "type": "Feature", "properties": { "OBJECTID": 597, "FCLT_NAME": "Melkbos Ablution Public Toilet", "FLCT_CTGR": "Public Toilet", "FLCT_RSPL_DSLN": "Horticultural", "FCLT_ACS_ADR": "Off Beach Road", "PNT_X": 18.4383694, "PNT_Y": -33.72907907 }, "geometry": { "type": "Point", "coordinates": [ 18.438369398474777, -33.729079071739633 ] } },
{ "type": "Feature", "properties": { "OBJECTID": 598, "FCLT_NAME": "Market Square Public Toilet", "FLCT_CTGR": "Public Toilet", "FLCT_RSPL_DSLN": "Recreational", "FCLT_ACS_ADR": "Wesley Street", "PNT_X": -15847.842425000001, "PNT_Y": -3776596.947075 }, "geometry": { "type": "Point", "coordinates": [ 18.828223554533576, -34.116496392383908 ] } },
{ "type": "Feature", "properties": { "OBJECTID": 599, "FCLT_NAME": "Macassar Beach Public Toilet", "FLCT_CTGR": "Public Toilet", "FLCT_RSPL_DSLN": "Recreational", "FCLT_ACS_ADR": "Lucky bay Road", "PNT_X": -23174.969525, "PNT_Y": -3772193.5133250002 }, "geometry": { "type": "Point", "coordinates": [ 18.748921861235434, -34.076662315575504 ] } },
{ "type": "Feature", "properties": { "OBJECTID": 600, "FCLT_NAME": "Strand Jetty Ablution", "FLCT_CTGR": "Public Toilet", "FLCT_RSPL_DSLN": "Recreational", "FCLT_ACS_ADR": "Beach Road", "PNT_X": -15938.630925, "PNT_Y": -3776736.4787249998 }, "geometry": { "type": "Point", "coordinates": [ 18.827236934454067, -34.117752903861394 ] } },
{ "type": "Feature", "properties": { "OBJECTID": 601, "FCLT_NAME": "Ons Huisie Public Ablution", "FLCT_CTGR": "Public Toilet", "FLCT_RSPL_DSLN": "Recreational", "FCLT_ACS_ADR": "Stadler Road", "PNT_X": -50081.419725, "PNT_Y": -3741517.86075 }, "geometry": { "type": "Point", "coordinates": [ 18.459176482274287, -33.799180009095551 ] } },
{ "type": "Feature", "properties": { "OBJECTID": 602, "FCLT_NAME": "Big Bay Public Toilet (Sea Rescue)", "FLCT_CTGR": "Public Toilet", "FLCT_RSPL_DSLN": "Recreational", "FCLT_ACS_ADR": "Beach Estate", "PNT_X": -50259.773425, "PNT_Y": -3740850.8178249998 }, "geometry": { "type": "Point", "coordinates": [ 18.457288488808601, -33.793158021767468 ] } },
{ "type": "Feature", "properties": { "OBJECTID": 603, "FCLT_NAME": "SARS/Shoprite Public Toilet", "FLCT_CTGR": "Public Toilet", "FLCT_RSPL_DSLN": "Recreational", "FCLT_ACS_ADR": "Teddington", "PNT_X": -34291.352274999997, "PNT_Y": -3752620.065 }, "geometry": { "type": "Point", "coordinates": [ 18.629255650801429, -33.89989985575739 ] } },
{ "type": "Feature", "properties": { "OBJECTID": 604, "FCLT_NAME": "Nine Miles Beach Public Toilet", "FLCT_CTGR": "Public Toilet", "FLCT_RSPL_DSLN": "Recreational", "FCLT_ACS_ADR": "Lukannon Road Joan Road", "PNT_X": -40046.138424999997, "PNT_Y": -3773121.4301499999 }, "geometry": { "type": "Point", "coordinates": [ 18.566100211522123, -34.084518054789093 ] } },
{ "type": "Feature", "properties": { "OBJECTID": 605, "FCLT_NAME": "Blue Peter Public Toilet", "FLCT_CTGR": "Public Toilet", "FLCT_RSPL_DSLN": "Recreational", "FCLT_ACS_ADR": "Popham Street", "PNT_X": -50188.307175000002, "PNT_Y": -3741163.3698749999 }, "geometry": { "type": "Point", "coordinates": [ 18.458042404004892, -33.795979135908738 ] } },
{ "type": "Feature", "properties": { "OBJECTID": 606, "FCLT_NAME": "Buck Public Toilet (Transport)", "FLCT_CTGR": "Public Toilet", "FLCT_RSPL_DSLN": "Recreational", "FCLT_ACS_ADR": "Cnr Buck Sixth Street", "PNT_X": -44311.726725, "PNT_Y": -3768348.4024749999 }, "geometry": { "type": "Point", "coordinates": [ 18.520126530792936, -34.041317779347665 ] } },
{ "type": "Feature", "properties": { "OBJECTID": 607, "FCLT_NAME": "Busy Corner Public Toilet (Transport)", "FLCT_CTGR": "Public Toilet", "FLCT_RSPL_DSLN": "Recreational", "FCLT_ACS_ADR": "Cnr Victoria Fith Street", "PNT_X": -46502.15275, "PNT_Y": -3769184.3089000001 }, "geometry": { "type": "Point", "coordinates": [ 18.496361568337949, -34.048758518908876 ] } },
{ "type": "Feature", "properties": { "OBJECTID": 609, "FCLT_NAME": "Lagoon Beach Public Toilet", "FLCT_CTGR": "Public Toilet", "FLCT_RSPL_DSLN": "Recreational", "FCLT_ACS_ADR": "2 Lagoon Beach Road", "PNT_X": -47893.113825, "PNT_Y": -3751832.0439499998 }, "geometry": { "type": "Point", "coordinates": [ 18.482246308855146, -33.892265453289994 ] } },
{ "type": "Feature", "properties": { "OBJECTID": 610, "FCLT_NAME": "Kuils River Public Toilet", "FLCT_CTGR": "Public Toilet", "FLCT_RSPL_DSLN": "Horticultural", "FCLT_ACS_ADR": "Carinus Street", "PNT_X": 18.67738908, "PNT_Y": -33.92670837 }, "geometry": { "type": "Point", "coordinates": [ 18.677389079296457, -33.926708366534207 ] } },
{ "type": "Feature", "properties": { "OBJECTID": 611, "FCLT_NAME": "Kloofnek Public Toilet", "FLCT_CTGR": "Public Toilet", "FLCT_RSPL_DSLN": "Recreational", "FCLT_ACS_ADR": "Kloofnek Road", "PNT_X": -55932.146524999996, "PNT_Y": -3757416.6718000001 }, "geometry": { "type": "Point", "coordinates": [ 18.394987692609309, -33.942214635351867 ] } },
{ "type": "Feature", "properties": { "OBJECTID": 612, "FCLT_NAME": "Kensington Public Toilet ", "FLCT_CTGR": "Public Toilet", "FLCT_RSPL_DSLN": "Recreational", "FCLT_ACS_ADR": "Walrus Street", "PNT_X": -45263.84995, "PNT_Y": -3753648.4142 }, "geometry": { "type": "Point", "coordinates": [ 18.510575763149568, -33.908756430984894 ] } },
{ "type": "Feature", "properties": { "OBJECTID": 613, "FCLT_NAME": "Jack Muller park Public Toilet", "FLCT_CTGR": "Public Toilet", "FLCT_RSPL_DSLN": "Horticultural", "FCLT_ACS_ADR": "Frans Conradie Drive", "PNT_X": 18.62871116, "PNT_Y": -33.88996506 }, "geometry": { "type": "Point", "coordinates": [ 18.628711158120471, -33.88996506056052 ] } },
{ "type": "Feature", "properties": { "OBJECTID": 614, "FCLT_NAME": "Green Market Square Public Toilet", "FLCT_CTGR": "Public Toilet", "FLCT_RSPL_DSLN": "Recreational", "FCLT_ACS_ADR": "Green Market off Burg Street", "PNT_X": -53637.3471, "PNT_Y": -3755228.3667250001 }, "geometry": { "type": "Point", "coordinates": [ 18.41994293312445, -33.922606652623294 ] } },
{ "type": "Feature", "properties": { "OBJECTID": 615, "FCLT_NAME": "Gleemoor Park Public Toilet", "FLCT_CTGR": "Public Toilet", "FLCT_RSPL_DSLN": "Horticultural", "FCLT_ACS_ADR": "South Avenue", "PNT_X": 18.51210876, "PNT_Y": -33.96311549 }, "geometry": { "type": "Point", "coordinates": [ 18.512108757599716, -33.963115486771841 ] } },
{ "type": "Feature", "properties": { "OBJECTID": 616, "FCLT_NAME": "Eddie Thomas Drive Public Toilet", "FLCT_CTGR": "Public Toilet", "FLCT_RSPL_DSLN": "Recreational", "FCLT_ACS_ADR": "Dolfyn", "PNT_X": -14247.83215, "PNT_Y": -3778963.1426499998 }, "geometry": { "type": "Point", "coordinates": [ 18.84552738359077, -34.137850896297685 ] } },
{ "type": "Feature", "properties": { "OBJECTID": 617, "FCLT_NAME": "Dune Park Public Toilet", "FLCT_CTGR": "Public Toilet", "FLCT_RSPL_DSLN": "Horticultural", "FCLT_ACS_ADR": "Beach Street", "PNT_X": 18.81463294, "PNT_Y": -34.10185452 }, "geometry": { "type": "Point", "coordinates": [ 18.814632940052213, -34.101854523589346 ] } },
{ "type": "Feature", "properties": { "OBJECTID": 618, "FCLT_NAME": "Shoprite Public Toilet ", "FLCT_CTGR": "Public Toilet", "FLCT_RSPL_DSLN": "Recreational", "FCLT_ACS_ADR": "Third Avenue off Seventh Avenue", "PNT_X": -35104.10355, "PNT_Y": -3769152.9411749998 }, "geometry": { "type": "Point", "coordinates": [ 18.619805861402455, -34.048919482380718 ] } },
{ "type": "Feature", "properties": { "OBJECTID": 619, "FCLT_NAME": "Bay Road Public Toilet", "FLCT_CTGR": "Public Toilet", "FLCT_RSPL_DSLN": "Recreational", "FCLT_ACS_ADR": "Fritz Sonnenberg Road", "PNT_X": -54479.2955, "PNT_Y": -3753403.0664 }, "geometry": { "type": "Point", "coordinates": [ 18.410951393211267, -33.90610842122441 ] } },
{ "type": "Feature", "properties": { "OBJECTID": 620, "FCLT_NAME": "White Waters Public Toilet", "FLCT_CTGR": "Public Toilet", "FLCT_RSPL_DSLN": "Recreational", "FCLT_ACS_ADR": "Perlemoen Road & Otto du Plessis Drive 969 ", "PNT_X": -49585.5098, "PNT_Y": -3742225.2016750001 }, "geometry": { "type": "Point", "coordinates": [ 18.464491833743811, -33.805580193853615 ] } },
{ "type": "Feature", "properties": { "OBJECTID": 761, "FCLT_NAME": "Tollgate (Trafalgar Park) Public Toilet ", "FLCT_CTGR": "Public Toilet", "FLCT_RSPL_DSLN": "Horticultural", "FCLT_ACS_ADR": "Victoria Road", "PNT_X": 18.44098728, "PNT_Y": -33.92797998 }, "geometry": { "type": "Point", "coordinates": [ 18.440987275270995, -33.927979983616673 ] } },
{ "type": "Feature", "properties": { "OBJECTID": 762, "FCLT_NAME": "Strandfontein Pavillion Public Toilet No 13", "FLCT_CTGR": "Public Toilet", "FLCT_RSPL_DSLN": "Recreational", "FCLT_ACS_ADR": "Tidal Road Pavillion Road", "PNT_X": -41264.858775000001, "PNT_Y": -3773515.83825 }, "geometry": { "type": "Point", "coordinates": [ 18.55287703824461, -34.0880262706198 ] } },
{ "type": "Feature", "properties": { "OBJECTID": 763, "FCLT_NAME": "Bethel Public Toilet", "FLCT_CTGR": "Public Toilet", "FLCT_RSPL_DSLN": "Recreational", "FCLT_ACS_ADR": "Lukannon Road", "PNT_X": -35854.7905, "PNT_Y": -3772075.4227749999 }, "geometry": { "type": "Point", "coordinates": [ 18.611555538698912, -34.075240281980221 ] } },
{ "type": "Feature", "properties": { "OBJECTID": 764, "FCLT_NAME": "Die Kom (Kommetjie) Public Toilet", "FLCT_CTGR": "Public Toilet", "FLCT_RSPL_DSLN": "Recreational", "FCLT_ACS_ADR": "Van Imhoff Road", "PNT_X": -62309.38905, "PNT_Y": -3779582.775 }, "geometry": { "type": "Point", "coordinates": [ 18.324427110893776, -34.141675433201712 ] } },
{ "type": "Feature", "properties": { "OBJECTID": 765, "FCLT_NAME": "Taxi Rank Public Toilet", "FLCT_CTGR": "Public Toilet", "FLCT_RSPL_DSLN": "Recreational", "FCLT_ACS_ADR": "Charl Malan Street", "PNT_X": -34191.52315, "PNT_Y": -3753229.9684250001 }, "geometry": { "type": "Point", "coordinates": [ 18.630311211873714, -33.905401541529443 ] } },
{ "type": "Feature", "properties": { "OBJECTID": 766, "FCLT_NAME": "Sunset Beach Public Toilet", "FLCT_CTGR": "Public Toilet", "FLCT_RSPL_DSLN": "Recreational", "FCLT_ACS_ADR": "Beach Road", "PNT_X": -57360.745075, "PNT_Y": -3755052.027425 }, "geometry": { "type": "Point", "coordinates": [ 18.379690047772325, -33.920820738424879 ] } },
{ "type": "Feature", "properties": { "OBJECTID": 767, "FCLT_NAME": "Milton Beach Public Toilet", "FLCT_CTGR": "Public Toilet", "FLCT_RSPL_DSLN": "Recreational", "FCLT_ACS_ADR": "Beach Road Milton Road", "PNT_X": -56705.531674999998, "PNT_Y": -3754372.0477999998 }, "geometry": { "type": "Point", "coordinates": [ 18.386819204167328, -33.914726263452636 ] } },
{ "type": "Feature", "properties": { "OBJECTID": 768, "FCLT_NAME": "Harbour Island Public Toilet ", "FLCT_CTGR": "Public Toilet", "FLCT_RSPL_DSLN": "Recreational", "FCLT_ACS_ADR": "Breakwater Street", "PNT_X": -13050.293525, "PNT_Y": -3780542.4815500001 }, "geometry": { "type": "Point", "coordinates": [ 18.858487123309839, -34.152104398037714 ] } },
{ "type": "Feature", "properties": { "OBJECTID": 769, "FCLT_NAME": "Woltemade Public Toilet", "FLCT_CTGR": "Public Toilet", "FLCT_RSPL_DSLN": "Recreational", "FCLT_ACS_ADR": "Beach Road", "PNT_X": -16804.470875, "PNT_Y": -3775412.9864500002 }, "geometry": { "type": "Point", "coordinates": [ 18.817877477942663, -34.10580792494433 ] } },
{ "type": "Feature", "properties": { "OBJECTID": 770, "FCLT_NAME": "Witsand Public Ablution", "FLCT_CTGR": "Public Toilet", "FLCT_RSPL_DSLN": "Recreational", "FCLT_ACS_ADR": "Otto Duplessis", "PNT_X": -48830.65, "PNT_Y": -3743405.9153499999 }, "geometry": { "type": "Point", "coordinates": [ 18.472578465888748, -33.816259691318237 ] } },
{ "type": "Feature", "properties": { "OBJECTID": 771, "FCLT_NAME": "St Andrews square Public Toilet", "FLCT_CTGR": "Public Toilet", "FLCT_RSPL_DSLN": "Recreational", "FCLT_ACS_ADR": "Waterkant St & Rose St ", "PNT_X": -53705.7929, "PNT_Y": -3754693.3890999998 }, "geometry": { "type": "Point", "coordinates": [ 18.41923548914102, -33.91778035943031 ] } },
{ "type": "Feature", "properties": { "OBJECTID": 772, "FCLT_NAME": "Helipad Public Toilet", "FLCT_CTGR": "Public Toilet", "FLCT_RSPL_DSLN": "Horticultural", "FCLT_ACS_ADR": "Beach Road", "PNT_X": 18.86642085, "PNT_Y": -34.161225 }, "geometry": { "type": "Point", "coordinates": [ 18.86642085383442, -34.161225002891491 ] } },
{ "type": "Feature", "properties": { "OBJECTID": 773, "FCLT_NAME": "Rugley Road Park Public Toilet ?", "FLCT_CTGR": "Public Toilet", "FLCT_RSPL_DSLN": "Horticultural", "FCLT_ACS_ADR": "Rugley Road", "PNT_X": 18.41925832, "PNT_Y": -33.93798672 }, "geometry": { "type": "Point", "coordinates": [ 18.419258322834295, -33.937986716932627 ] } },
{ "type": "Feature", "properties": { "OBJECTID": 775, "FCLT_NAME": "Parow Public Toilet (Alexandra)", "FLCT_CTGR": "Public Toilet", "FLCT_RSPL_DSLN": "Horticultural", "FCLT_ACS_ADR": "Alexandra Road", "PNT_X": 18.57979704, "PNT_Y": -33.90858955 }, "geometry": { "type": "Point", "coordinates": [ 18.579797042889663, -33.908589553657684 ] } },
{ "type": "Feature", "properties": { "OBJECTID": 777, "FCLT_NAME": "Muizenberg Public Toilet 1 (Blue Flag)", "FLCT_CTGR": "Public Toilet", "FLCT_RSPL_DSLN": "Recreational", "FCLT_ACS_ADR": "Beach Road", "PNT_X": -48599.5364, "PNT_Y": -3775624.222575 }, "geometry": { "type": "Point", "coordinates": [ 18.473287561830659, -34.10671800394509 ] } },
{ "type": "Feature", "properties": { "OBJECTID": 778, "FCLT_NAME": "Muizenberg Public Toilet 2 (Putt Putt)", "FLCT_CTGR": "Public Toilet", "FLCT_RSPL_DSLN": "Recreational", "FCLT_ACS_ADR": "Beach Road", "PNT_X": -48485.695475, "PNT_Y": -3775568.5473750001 }, "geometry": { "type": "Point", "coordinates": [ 18.474524405295661, -34.106221388530273 ] } },
{ "type": "Feature", "properties": { "OBJECTID": 779, "FCLT_NAME": "Surfers Corner Public Toilet ", "FLCT_CTGR": "Public Toilet", "FLCT_RSPL_DSLN": "Recreational", "FCLT_ACS_ADR": "Beach Road", "PNT_X": -48851.99135, "PNT_Y": -3775808.6216500001 }, "geometry": { "type": "Point", "coordinates": [ 18.470541250373532, -34.10836855678739 ] } },
{ "type": "Feature", "properties": { "OBJECTID": 780, "FCLT_NAME": "St James Public Toilet", "FLCT_CTGR": "Public Toilet", "FLCT_RSPL_DSLN": "Recreational", "FCLT_ACS_ADR": "Maiin Road", "PNT_X": -49910.566724999997, "PNT_Y": -3777008.11405 }, "geometry": { "type": "Point", "coordinates": [ 18.458999993863628, -34.119131685250217 ] } },
{ "type": "Feature", "properties": { "OBJECTID": 781, "FCLT_NAME": "Blue waters Beach  Public Toilet 1 (Red Cross 6)", "FLCT_CTGR": "Public Toilet", "FLCT_RSPL_DSLN": "Recreational", "FCLT_ACS_ADR": "Lukannon Drive", "PNT_X": -38951.609924999997, "PNT_Y": -3772706.4470500001 }, "geometry": { "type": "Point", "coordinates": [ 18.57797769720634, -34.080818309235497 ] } },
{ "type": "Feature", "properties": { "OBJECTID": 782, "FCLT_NAME": "Blue waters Beach  Public Toilet 2 (Red Cross 8)", "FLCT_CTGR": "Public Toilet", "FLCT_RSPL_DSLN": "Recreational", "FCLT_ACS_ADR": "Lukannon Drive", "PNT_X": -38826.341, "PNT_Y": -3772755.0389 }, "geometry": { "type": "Point", "coordinates": [ 18.579332728691504, -34.081261016015773 ] } },
{ "type": "Feature", "properties": { "OBJECTID": 783, "FCLT_NAME": "Blue waters Beach  Public Toilet 3 (Red Cross 5)", "FLCT_CTGR": "Public Toilet", "FLCT_RSPL_DSLN": "Recreational", "FCLT_ACS_ADR": "Lukannon Drive", "PNT_X": -38660.150974999997, "PNT_Y": -3772701.6631 }, "geometry": { "type": "Point", "coordinates": [ 18.5811356552719, -34.08078598658976 ] } },
{ "type": "Feature", "properties": { "OBJECTID": 784, "FCLT_NAME": "Wireless (Klein Slangkop) Public toilet ", "FLCT_CTGR": "Public Toilet", "FLCT_RSPL_DSLN": "Recreational", "FCLT_ACS_ADR": "75A Wireless Road", "PNT_X": -61193.016225, "PNT_Y": -3778436.2514499999 }, "geometry": { "type": "Point", "coordinates": [ 18.336611132138813, -34.131406092724902 ] } },
{ "type": "Feature", "properties": { "OBJECTID": 785, "FCLT_NAME": "Riebeeck Square Public Toilet", "FLCT_CTGR": "Public Toilet", "FLCT_RSPL_DSLN": "Recreational", "FCLT_ACS_ADR": "Shortmarket Street", "PNT_X": -53863.324425, "PNT_Y": -3755029.164 }, "geometry": { "type": "Point", "coordinates": [ 18.417511450664342, -33.920799313542659 ] } },
{ "type": "Feature", "properties": { "OBJECTID": 786, "FCLT_NAME": "Thibault Square Public Toilet", "FLCT_CTGR": "Public Toilet", "FLCT_RSPL_DSLN": "Recreational", "FCLT_ACS_ADR": "Hans Strijdom Lower Burg Street", "PNT_X": -53231.736774999998, "PNT_Y": -3754856.8379000002 }, "geometry": { "type": "Point", "coordinates": [ 18.4243517075104, -33.919277912301979 ] } },
{ "type": "Feature", "properties": { "OBJECTID": 787, "FCLT_NAME": "Maiden's Cove Lower (Braai Area) Public Toilet", "FLCT_CTGR": "Public Toilet", "FLCT_RSPL_DSLN": "Horticultural", "FCLT_ACS_ADR": "Victoria Road", "PNT_X": 18.37351124, "PNT_Y": -33.94370089 }, "geometry": { "type": "Point", "coordinates": [ 18.373511239227614, -33.943700893131343 ] } },
{ "type": "Feature", "properties": { "OBJECTID": 788, "FCLT_NAME": "Maiden's Cove Middle (Braai Area) Public Toilet", "FLCT_CTGR": "Public Toilet", "FLCT_RSPL_DSLN": "Horticultural", "FCLT_ACS_ADR": "Off Victoria Road", "PNT_X": 18.37486305, "PNT_Y": -33.94473006 }, "geometry": { "type": "Point", "coordinates": [ 18.374863045792612, -33.944730062747134 ] } },
{ "type": "Feature", "properties": { "OBJECTID": 789, "FCLT_NAME": "Upper Maidens Cove Public Toilet", "FLCT_CTGR": "Public Toilet", "FLCT_RSPL_DSLN": "Horticultural", "FCLT_ACS_ADR": "Victoria Road", "PNT_X": 18.37611411, "PNT_Y": -33.94433355 }, "geometry": { "type": "Point", "coordinates": [ 18.376114109507718, -33.944333546068179 ] } },
{ "type": "Feature", "properties": { "OBJECTID": 791, "FCLT_NAME": "Maynardville Park Public Toilet (Gaurd room)", "FLCT_CTGR": "Public Toilet", "FLCT_RSPL_DSLN": "Horticultural", "FCLT_ACS_ADR": "Wolfe Street", "PNT_X": 18.46387166, "PNT_Y": -34.00602597 }, "geometry": { "type": "Point", "coordinates": [ 18.46387166022491, -34.006025965730828 ] } },
{ "type": "Feature", "properties": { "OBJECTID": 792, "FCLT_NAME": "Maynardville Park Public Toilet (Glaren Road)", "FLCT_CTGR": "Public Toilet", "FLCT_RSPL_DSLN": "Horticultural", "FCLT_ACS_ADR": "Glaren Road", "PNT_X": 18.46670573, "PNT_Y": -34.00566601 }, "geometry": { "type": "Point", "coordinates": [ 18.466705730403927, -34.00566600542188 ] } },
{ "type": "Feature", "properties": { "OBJECTID": 793, "FCLT_NAME": "Clifton 4th Beach Public Toilet (Lower)", "FLCT_CTGR": "Public Toilet", "FLCT_RSPL_DSLN": "Recreational", "FCLT_ACS_ADR": "Victoria Road", "PNT_X": -57821.49605, "PNT_Y": -3757325.1403000001 }, "geometry": { "type": "Point", "coordinates": [ 18.374557876513574, -33.941287370765821 ] } },
{ "type": "Feature", "properties": { "OBJECTID": 794, "FCLT_NAME": "Clifton 4th Beach Public Toilet (Upper)", "FLCT_CTGR": "Public Toilet", "FLCT_RSPL_DSLN": "Recreational", "FCLT_ACS_ADR": "Victoria Road  The ridge Street", "PNT_X": -57836.578, "PNT_Y": -3757402.3861750001 }, "geometry": { "type": "Point", "coordinates": [ 18.37438965303112, -33.941982902645158 ] } },
{ "type": "Feature", "properties": { "OBJECTID": 795, "FCLT_NAME": "Clifton 1st Beach Public Toilet", "FLCT_CTGR": "Public Toilet", "FLCT_RSPL_DSLN": "Recreational", "FCLT_ACS_ADR": "Victoria Road", "PNT_X": -57539.6603, "PNT_Y": -3756805.2755749999 }, "geometry": { "type": "Point", "coordinates": [ 18.377640374154037, -33.936616306732859 ] } },
{ "type": "Feature", "properties": { "OBJECTID": 796, "FCLT_NAME": "Bakoven Public Toilet", "FLCT_CTGR": "Public Toilet", "FLCT_RSPL_DSLN": "Recreational", "FCLT_ACS_ADR": "Cnr Brook Street Beta Road ", "PNT_X": -57932.565125000001, "PNT_Y": -3759760.49975 }, "geometry": { "type": "Point", "coordinates": [ 18.373195580733313, -33.963235642071631 ] } },
{ "type": "Feature", "properties": { "OBJECTID": 797, "FCLT_NAME": "Bikini Beach Public Toilet", "FLCT_CTGR": "Public Toilet", "FLCT_RSPL_DSLN": "Recreational", "FCLT_ACS_ADR": "Beach Road 160", "PNT_X": -12960.590975, "PNT_Y": -3782028.2081 }, "geometry": { "type": "Point", "coordinates": [ 18.859437631941997, -34.165499417788475 ] } },
{ "type": "Feature", "properties": { "OBJECTID": 798, "FCLT_NAME": "Brackenfell Public Toilet", "FLCT_CTGR": "Public Toilet", "FLCT_RSPL_DSLN": "Recreational", "FCLT_ACS_ADR": "William Dabbs Street", "PNT_X": -28845.136825000001, "PNT_Y": -3750458.901875 }, "geometry": { "type": "Point", "coordinates": [ 18.688208011798736, -33.88057936612789 ] } },
{ "type": "Feature", "properties": { "OBJECTID": 799, "FCLT_NAME": "Eikendal Public Toilet", "FLCT_CTGR": "Public Toilet", "FLCT_RSPL_DSLN": "Recreational", "FCLT_ACS_ADR": "Van Riebeeck Street", "PNT_X": -25698.030725000001, "PNT_Y": -3747411.381875 }, "geometry": { "type": "Point", "coordinates": [ 18.72231421267627, -33.853186125210847 ] } },
{ "type": "Feature", "properties": { "OBJECTID": 800, "FCLT_NAME": "Gatesville Public Toilet", "FLCT_CTGR": "Public Toilet", "FLCT_RSPL_DSLN": "Recreational", "FCLT_ACS_ADR": "Yusuf Gool Boulevard", "PNT_X": -42937.3105, "PNT_Y": -3760410.9458750002 }, "geometry": { "type": "Point", "coordinates": [ 18.535400145929366, -33.969818744760218 ] } },
{ "type": "Feature", "properties": { "OBJECTID": 801, "FCLT_NAME": "Glencairn Public Toilet", "FLCT_CTGR": "Public Toilet", "FLCT_RSPL_DSLN": "Recreational", "FCLT_ACS_ADR": "Cnr Main Road Glen Road", "PNT_X": -52453.5567, "PNT_Y": -3781560.6015 }, "geometry": { "type": "Point", "coordinates": [ 18.431161760606621, -34.160046311274954 ] } },
{ "type": "Feature", "properties": { "OBJECTID": 802, "FCLT_NAME": "Keurboom Park Public Toilet", "FLCT_CTGR": "Public Toilet", "FLCT_RSPL_DSLN": "Horticultural", "FCLT_ACS_ADR": "Keurboom Street Squirrels Way", "PNT_X": 18.47692971, "PNT_Y": -33.9734579 }, "geometry": { "type": "Point", "coordinates": [ 18.476929707790866, -33.973457904909367 ] } },
{ "type": "Feature", "properties": { "OBJECTID": 803, "FCLT_NAME": "Lansdowne Public Toilet", "FLCT_CTGR": "Public Toilet", "FLCT_RSPL_DSLN": "Recreational", "FCLT_ACS_ADR": "Cnr Rouxton Crecent Lansdowne Road", "PNT_X": -45797.605425000002, "PNT_Y": -3762652.4458 }, "geometry": { "type": "Point", "coordinates": [ 18.504334260860492, -33.989905150977791 ] } },
{ "type": "Feature", "properties": { "OBJECTID": 804, "FCLT_NAME": "Llandudno Public Toilet 1", "FLCT_CTGR": "Public Toilet", "FLCT_RSPL_DSLN": "Recreational", "FCLT_ACS_ADR": "Hargrave Avenue ", "PNT_X": -60819.891275000002, "PNT_Y": -3764614.6366499998 }, "geometry": { "type": "Point", "coordinates": [ 18.34162043383969, -34.006831366417352 ] } },
{ "type": "Feature", "properties": { "OBJECTID": 805, "FCLT_NAME": "Surf Way Public Toilet (Long Beach)", "FLCT_CTGR": "Public Toilet", "FLCT_RSPL_DSLN": "Recreational", "FCLT_ACS_ADR": "Surf Way", "PNT_X": -61963.566625, "PNT_Y": -3779094.0623 }, "geometry": { "type": "Point", "coordinates": [ 18.328211236879078, -34.137290512773788 ] } },
{ "type": "Feature", "properties": { "OBJECTID": 806, "FCLT_NAME": "Mowbray Public Toilet", "FLCT_CTGR": "Public Toilet", "FLCT_RSPL_DSLN": "Recreational", "FCLT_ACS_ADR": "Victoria Road 4B St Peters Street", "PNT_X": -48716.37685, "PNT_Y": -3758130.0287000001 }, "geometry": { "type": "Point", "coordinates": [ 18.47299719436851, -33.949004359837382 ] } },
{ "type": "Feature", "properties": { "OBJECTID": 807, "FCLT_NAME": "Simon's Town Public Toilet", "FLCT_CTGR": "Public Toilet", "FLCT_RSPL_DSLN": "Recreational", "FCLT_ACS_ADR": "ST Georges Street", "PNT_X": -52179.61395, "PNT_Y": -3785247.4874249999 }, "geometry": { "type": "Point", "coordinates": [ 18.433910526926773, -34.193295887929352 ] } },
{ "type": "Feature", "properties": { "OBJECTID": 808, "FCLT_NAME": "Dalebrook Public Toilet", "FLCT_CTGR": "Public Toilet", "FLCT_RSPL_DSLN": "Recreational", "FCLT_ACS_ADR": "Main Road ", "PNT_X": -50510.3671, "PNT_Y": -3777553.8696750002 }, "geometry": { "type": "Point", "coordinates": [ 18.452467072931377, -34.124022709869422 ] } },
{ "type": "Feature", "properties": { "OBJECTID": 809, "FCLT_NAME": "Windmill Public Toilet", "FLCT_CTGR": "Public Toilet", "FLCT_RSPL_DSLN": "Recreational", "FCLT_ACS_ADR": "Links Crescent Burgers Walk", "PNT_X": -50157.3716, "PNT_Y": -3786101.533 }, "geometry": { "type": "Point", "coordinates": [ 18.455799207549134, -34.201094042268387 ] } },
{ "type": "Feature", "properties": { "OBJECTID": 810, "FCLT_NAME": "Wynberg Plaza Public Toilet", "FLCT_CTGR": "Public Toilet", "FLCT_RSPL_DSLN": "Recreational", "FCLT_ACS_ADR": "Morom Road 3", "PNT_X": -48817.1844, "PNT_Y": -3764236.5145 }, "geometry": { "type": "Point", "coordinates": [ 18.471566241910345, -34.004049429100284 ] } },
{ "type": "Feature", "properties": { "OBJECTID": 811, "FCLT_NAME": "Night Shelter (Kalk Bay) Public Toilet ", "FLCT_CTGR": "Public Toilet", "FLCT_RSPL_DSLN": "Recreational", "FCLT_ACS_ADR": "Main Road off Windsor Road ", "PNT_X": -50907.18285, "PNT_Y": -3777986.9597999998 }, "geometry": { "type": "Point", "coordinates": [ 18.448140392662459, -34.127907638057522 ] } },
{ "type": "Feature", "properties": { "OBJECTID": 812, "FCLT_NAME": "Sunrise Beach Public Toilet", "FLCT_CTGR": "Public Toilet", "FLCT_RSPL_DSLN": "Recreational", "FCLT_ACS_ADR": "Access Road", "PNT_X": -47713.5272, "PNT_Y": -3775248.7655750001 }, "geometry": { "type": "Point", "coordinates": [ 18.482910203796852, -34.103374135864939 ] } },
{ "type": "Feature", "properties": { "OBJECTID": 813, "FCLT_NAME": "Shelley Road Public Toilet", "FLCT_CTGR": "Public Toilet", "FLCT_RSPL_DSLN": "Recreational", "FCLT_ACS_ADR": "Shelley Road", "PNT_X": -49724.3906, "PNT_Y": -3756433.5636499999 }, "geometry": { "type": "Point", "coordinates": [ 18.462189325868504, -33.933663564749004 ] } },
{ "type": "Feature", "properties": { "OBJECTID": 814, "FCLT_NAME": "Seaforth Public Toilet", "FLCT_CTGR": "Public Toilet", "FLCT_RSPL_DSLN": "Recreational", "FCLT_ACS_ADR": "Cnr Kleintuin Road Seaforth Road", "PNT_X": -51005.1193, "PNT_Y": -3785400.59075 }, "geometry": { "type": "Point", "coordinates": [ 18.44664291437137, -34.194734181968329 ] } },
{ "type": "Feature", "properties": { "OBJECTID": 815, "FCLT_NAME": "Saunder's Rock Public Toilet", "FLCT_CTGR": "Public Toilet", "FLCT_RSPL_DSLN": "Recreational", "FCLT_ACS_ADR": "Cnr Beach Road Saunders Seacliff Road", "PNT_X": -57558.1918, "PNT_Y": -3755475.8646749998 }, "geometry": { "type": "Point", "coordinates": [ 18.377527142465993, -33.924630812767091 ] } },
{ "type": "Feature", "properties": { "OBJECTID": 816, "FCLT_NAME": "The Pier Public Toilet", "FLCT_CTGR": "Public Toilet", "FLCT_RSPL_DSLN": "Recreational", "FCLT_ACS_ADR": "Wharf Street", "PNT_X": -52332.942325000004, "PNT_Y": -3785179.180675 }, "geometry": { "type": "Point", "coordinates": [ 18.432251286795278, -34.192672444775511 ] } },
{ "type": "Feature", "properties": { "OBJECTID": 817, "FCLT_NAME": "Three Anchor Bay Public Toilet", "FLCT_CTGR": "Public Toilet", "FLCT_RSPL_DSLN": "Recreational", "FCLT_ACS_ADR": "Beach Road and Stanley Road", "PNT_X": -55674.8867, "PNT_Y": -3753351.0636499999 }, "geometry": { "type": "Point", "coordinates": [ 18.398028169735642, -33.905577125491845 ] } },
{ "type": "Feature", "properties": { "OBJECTID": 818, "FCLT_NAME": "Llandudno Public Toilet 2", "FLCT_CTGR": "Public Toilet", "FLCT_RSPL_DSLN": "Recreational", "FCLT_ACS_ADR": "Hargrave Avenue ", "PNT_X": -60827.440725, "PNT_Y": -3764634.194075 }, "geometry": { "type": "Point", "coordinates": [ 18.341537354482121, -34.007007233414605 ] } },
{ "type": "Feature", "properties": { "OBJECTID": 819, "FCLT_NAME": "Hout Bay Main Beach Public Toilet (Chappies)", "FLCT_CTGR": "Public Toilet", "FLCT_RSPL_DSLN": "Recreational", "FCLT_ACS_ADR": "Chapman's Peak Drive", "PNT_X": -58994.97425, "PNT_Y": -3769115.4307 }, "geometry": { "type": "Point", "coordinates": [ 18.361070167110253, -34.047508868734731 ] } },
{ "type": "Feature", "properties": { "OBJECTID": 820, "FCLT_NAME": "Parade Public Toilet", "FLCT_CTGR": "Public Toilet", "FLCT_RSPL_DSLN": "Recreational", "FCLT_ACS_ADR": "Lower Plein Street and Castle Street ", "PNT_X": -53242.06635, "PNT_Y": -3755362.5252499999 }, "geometry": { "type": "Point", "coordinates": [ 18.424209340402374, -33.92383614703833 ] } },
{ "type": "Feature", "properties": { "OBJECTID": 821, "FCLT_NAME": "Putt Putt Public Toilet", "FLCT_CTGR": "Public Toilet", "FLCT_RSPL_DSLN": "Recreational", "FCLT_ACS_ADR": "Beach Road opposite van Tromp Street", "PNT_X": -16930.118975000001, "PNT_Y": -3775253.6572750001 }, "geometry": { "type": "Point", "coordinates": [ 18.816518842924335, -34.104369528127314 ] } },
{ "type": "Feature", "properties": { "OBJECTID": 822, "FCLT_NAME": "Monwabisi Braai Area Toilet 2", "FLCT_CTGR": "Public Toilet", "FLCT_RSPL_DSLN": "Recreational", "FCLT_ACS_ADR": "Baden Powell", "PNT_X": -29502.627425, "PNT_Y": -3771837.7340250001 }, "geometry": { "type": "Point", "coordinates": [ 18.680380757121473, -34.073295758881962 ] } },
{ "type": "Feature", "properties": { "OBJECTID": 823, "FCLT_NAME": "Kismet Public Toilet", "FLCT_CTGR": "Public Toilet", "FLCT_RSPL_DSLN": "Recreational", "FCLT_ACS_ADR": "16 Lower Klipfontein Road", "PNT_X": -45652.45745, "PNT_Y": -3759464.746425 }, "geometry": { "type": "Point", "coordinates": [ 18.506071347241228, -33.961174319848091 ] } },
{ "type": "Feature", "properties": { "OBJECTID": 824, "FCLT_NAME": "Strandfontein Pavilion Public Toilets no.3", "FLCT_CTGR": "Public Toilet", "FLCT_RSPL_DSLN": "Recreational", "FCLT_ACS_ADR": "Baden Powel Drive Pavillion Road", "PNT_X": -41157.9158, "PNT_Y": -3773577.8656500001 }, "geometry": { "type": "Point", "coordinates": [ 18.554032849750019, -34.088589653259255 ] } },
{ "type": "Feature", "properties": { "OBJECTID": 825, "FCLT_NAME": "Strandfontein Pavilion Public Toilets no. 2", "FLCT_CTGR": "Public Toilet", "FLCT_RSPL_DSLN": "Recreational", "FCLT_ACS_ADR": "Baden Powel Drive Pavillion Road", "PNT_X": -41084.283425000001, "PNT_Y": -3773512.55645 }, "geometry": { "type": "Point", "coordinates": [ 18.55483375474908, -34.088003789945937 ] } },
{ "type": "Feature", "properties": { "OBJECTID": 826, "FCLT_NAME": "Strandfontein Pavilion Public Toilets no. 1", "FLCT_CTGR": "Public Toilet", "FLCT_RSPL_DSLN": "Recreational", "FCLT_ACS_ADR": "Baden Powel Drive Pavillion Road", "PNT_X": -41028.654025000003, "PNT_Y": -3773485.3305000002 }, "geometry": { "type": "Point", "coordinates": [ 18.555437790647204, -34.08776053279194 ] } },
{ "type": "Feature", "properties": { "OBJECTID": 827, "FCLT_NAME": "Snake Park Public Toilet", "FLCT_CTGR": "Public Toilet", "FLCT_RSPL_DSLN": "Recreational", "FCLT_ACS_ADR": "Pavillion Road", "PNT_X": -40940.066925, "PNT_Y": -3773381.2538000001 }, "geometry": { "type": "Point", "coordinates": [ 18.556402536053806, -34.086825759536239 ] } },
{ "type": "Feature", "properties": { "OBJECTID": 829, "FCLT_NAME": "Lentegeur Public Toilet", "FLCT_CTGR": "Public Toilet", "FLCT_RSPL_DSLN": "Recreational", "FCLT_ACS_ADR": "Melkbos Weg", "PNT_X": -35976.6667, "PNT_Y": -3767529.342 }, "geometry": { "type": "Point", "coordinates": [ 18.610422707366297, -34.034253077760283 ] } },
{ "type": "Feature", "properties": { "OBJECTID": 830, "FCLT_NAME": "Fish Hoek Beach Public Toilet", "FLCT_CTGR": "Public Toilet", "FLCT_RSPL_DSLN": "Recreational", "FCLT_ACS_ADR": "Peter Creese Way", "PNT_X": -52365.393125000002, "PNT_Y": -3779283.40845 }, "geometry": { "type": "Point", "coordinates": [ 18.432255184917789, -34.13952264327547 ] } },
{ "type": "Feature", "properties": { "OBJECTID": 831, "FCLT_NAME": "Miller's Point Public Toilet ", "FLCT_CTGR": "Public Toilet", "FLCT_RSPL_DSLN": "Recreational", "FCLT_ACS_ADR": "Main Road 529", "PNT_X": -48277.1378, "PNT_Y": -3789587.5001249998 }, "geometry": { "type": "Point", "coordinates": [ 18.476004220607493, -34.232607494991747 ] } },
{ "type": "Feature", "properties": { "OBJECTID": 832, "FCLT_NAME": "Miller's Point Tidal Pool Public Toilet", "FLCT_CTGR": "Public Toilet", "FLCT_RSPL_DSLN": "Recreational", "FCLT_ACS_ADR": "Main Road 529", "PNT_X": -48292.912324999998, "PNT_Y": -3789501.0766500002 }, "geometry": { "type": "Point", "coordinates": [ 18.475837839054662, -34.231827690814399 ] } },
{ "type": "Feature", "properties": { "OBJECTID": 833, "FCLT_NAME": "Miller's Point Slipway Public Toilet", "FLCT_CTGR": "Public Toilet", "FLCT_RSPL_DSLN": "Recreational", "FCLT_ACS_ADR": "Main Road 529", "PNT_X": -48408.39585, "PNT_Y": -3789356.8054 }, "geometry": { "type": "Point", "coordinates": [ 18.474592526524862, -34.230521780185029 ] } },
{ "type": "Feature", "properties": { "OBJECTID": 834, "FCLT_NAME": "Froggy Pond Public Toilet", "FLCT_CTGR": "Public Toilet", "FLCT_RSPL_DSLN": "Recreational", "FCLT_ACS_ADR": "Main Road off Dorries Drive erf 4459-RE", "PNT_X": -49961.3039, "PNT_Y": -3786573.00655 }, "geometry": { "type": "Point", "coordinates": [ 18.457899225600983, -34.205353610238447 ] } },
{ "type": "Feature", "properties": { "OBJECTID": 835, "FCLT_NAME": "Long Beach Public Toilet (Simon's Town)", "FLCT_CTGR": "Public Toilet", "FLCT_RSPL_DSLN": "Recreational", "FCLT_ACS_ADR": "Cnr Main Road Driegebroedrs Weg", "PNT_X": -52913.4681, "PNT_Y": -3784635.9571750001 }, "geometry": { "type": "Point", "coordinates": [ 18.425986742944243, -34.187746208848424 ] } },
{ "type": "Feature", "properties": { "OBJECTID": 836, "FCLT_NAME": "Fisherman's Public Toilet", "FLCT_CTGR": "Public Toilet", "FLCT_RSPL_DSLN": "Recreational", "FCLT_ACS_ADR": "Peter Creese Way", "PNT_X": -52327.719975, "PNT_Y": -3779126.3464500001 }, "geometry": { "type": "Point", "coordinates": [ 18.432673081504834, -34.138108669867705 ] } },
{ "type": "Feature", "properties": { "OBJECTID": 837, "FCLT_NAME": "Queen's Beach Public Toilet", "FLCT_CTGR": "Public Toilet", "FLCT_RSPL_DSLN": "Recreational", "FCLT_ACS_ADR": "Beach Road opposite President Hotel", "PNT_X": -57537.385575, "PNT_Y": -3755180.5373499999 }, "geometry": { "type": "Point", "coordinates": [ 18.377771500267638, -33.921969605958964 ] } },
{ "type": "Feature", "properties": { "OBJECTID": 838, "FCLT_NAME": "Newlands Forest Public Toilet", "FLCT_CTGR": "Public Toilet", "FLCT_RSPL_DSLN": "Recreational", "FCLT_ACS_ADR": "Compassberg Road", "PNT_X": -51019.668275000004, "PNT_Y": -3760564.9102750001 }, "geometry": { "type": "Point", "coordinates": [ 18.447939926281791, -33.970845518092439 ] } },
{ "type": "Feature", "properties": { "OBJECTID": 839, "FCLT_NAME": "Strand Concourse Public Toilet", "FLCT_CTGR": "Public Toilet", "FLCT_RSPL_DSLN": "Recreational", "FCLT_ACS_ADR": "Cnr Adderly Street Strand Street", "PNT_X": -53280.4763, "PNT_Y": -3755175.1345500001 }, "geometry": { "type": "Point", "coordinates": [ 18.423805344794168, -33.922144883010432 ] } },
{ "type": "Feature", "properties": { "OBJECTID": 840, "FCLT_NAME": "Retreat Road Public Toilets (Transport)", "FLCT_CTGR": "Public Toilet", "FLCT_RSPL_DSLN": "Recreational", "FCLT_ACS_ADR": "Cnr Retreat Road Second Avenue", "PNT_X": -49096.566675000002, "PNT_Y": -3770278.9488499998 }, "geometry": { "type": "Point", "coordinates": [ 18.468202360420513, -34.058508206310812 ] } },
{ "type": "Feature", "properties": { "OBJECTID": 841, "FCLT_NAME": "Elsie River Taxi (Bus Rank) Public Toilet", "FLCT_CTGR": "Public Toilet", "FLCT_RSPL_DSLN": "Recreational", "FCLT_ACS_ADR": "Cnr Consani Road 1st Avenue", "PNT_X": -39949.477825000002, "PNT_Y": -3753862.4351 }, "geometry": { "type": "Point", "coordinates": [ 18.568027192162681, -33.910900781236819 ] } },
{ "type": "Feature", "properties": { "OBJECTID": 842, "FCLT_NAME": "Gazebo Public Toilet", "FLCT_CTGR": "Public Toilet", "FLCT_RSPL_DSLN": "Recreational", "FCLT_ACS_ADR": "50 Beach Road ", "PNT_X": -12127.534375, "PNT_Y": -3781304.4120499999 }, "geometry": { "type": "Point", "coordinates": [ 18.868482533145642, -34.158984374131379 ] } },
{ "type": "Feature", "properties": { "OBJECTID": 843, "FCLT_NAME": "Maitland Park Public Toilet", "FLCT_CTGR": "Public Toilet", "FLCT_RSPL_DSLN": "Recreational", "FCLT_ACS_ADR": "Cnr Ferndale Road Station Road", "PNT_X": -47437.195325000001, "PNT_Y": -3755396.6317750001 }, "geometry": { "type": "Point", "coordinates": [ 18.486982406897891, -33.924421128046113 ] } },
{ "type": "Feature", "properties": { "OBJECTID": 844, "FCLT_NAME": "Outspan Public Toilet", "FLCT_CTGR": "Public Toilet", "FLCT_RSPL_DSLN": "Recreational", "FCLT_ACS_ADR": "Cnr Voortrekker Road Camp Road", "PNT_X": -48271.885025000003, "PNT_Y": -3755432.3079249999 }, "geometry": { "type": "Point", "coordinates": [ 18.47795387721219, -33.92470481614393 ] } },
{ "type": "Feature", "properties": { "OBJECTID": 845, "FCLT_NAME": "Radloff Park Public Toilet", "FLCT_CTGR": "Public Toilet", "FLCT_RSPL_DSLN": "Recreational", "FCLT_ACS_ADR": "Cnr Hillcrest Road Lourensford Road", "PNT_X": -11834.4916, "PNT_Y": -3772680.1654750002 }, "geometry": { "type": "Point", "coordinates": [ 18.871777841987949, -34.081239175362853 ] } },
{ "type": "Feature", "properties": { "OBJECTID": 846, "FCLT_NAME": "Durbanville Rose Garden Public Toilet", "FLCT_CTGR": "Public Toilet", "FLCT_RSPL_DSLN": "Horticultural", "FCLT_ACS_ADR": "Drakenstein Weg Durbanville Avenue", "PNT_X": 18.64287412, "PNT_Y": -33.8507757 }, "geometry": { "type": "Point", "coordinates": [ 18.642874123963757, -33.850775697200582 ] } },
{ "type": "Feature", "properties": { "OBJECTID": 847, "FCLT_NAME": "Lighthouse (Woodbridge) Public Toilet ", "FLCT_CTGR": "Public Toilet", "FLCT_RSPL_DSLN": "Recreational", "FCLT_ACS_ADR": "13 Loxton Road", "PNT_X": -47455.70795, "PNT_Y": -3750631.515325 }, "geometry": { "type": "Point", "coordinates": [ 18.4870395496398, -33.881462328377907 ] } },
{ "type": "Feature", "properties": { "OBJECTID": 848, "FCLT_NAME": "Mnandi Law Enforcement Public Toilet 3", "FLCT_CTGR": "Public Toilet", "FLCT_RSPL_DSLN": "Recreational", "FCLT_ACS_ADR": "Weltevreden ", "PNT_X": -35030.86365, "PNT_Y": -3772052.2531 }, "geometry": { "type": "Point", "coordinates": [ 18.620482574127241, -34.075059297660047 ] } },
{ "type": "Feature", "properties": { "OBJECTID": 849, "FCLT_NAME": "Mnandi Blue Flag Public Toilet 1", "FLCT_CTGR": "Public Toilet", "FLCT_RSPL_DSLN": "Recreational", "FCLT_ACS_ADR": "Weltevreden ", "PNT_X": -34888.490225000001, "PNT_Y": -3771984.8168500001 }, "geometry": { "type": "Point", "coordinates": [ 18.622027690322795, -34.074456113142482 ] } },
{ "type": "Feature", "properties": { "OBJECTID": 850, "FCLT_NAME": "Mnandi Braai Area Public Toilet 2", "FLCT_CTGR": "Public Toilet", "FLCT_RSPL_DSLN": "Recreational", "FCLT_ACS_ADR": "Weltevreden Road", "PNT_X": -35421.856025000001, "PNT_Y": -3771931.7520249998 }, "geometry": { "type": "Point", "coordinates": [ 18.616251622101984, -34.073959826031341 ] } },
{ "type": "Feature", "properties": { "OBJECTID": 851, "FCLT_NAME": "Mnandi Swimming Pool Toilet", "FLCT_CTGR": "Public Toilet", "FLCT_RSPL_DSLN": "Recreational", "FCLT_ACS_ADR": "Weltevreden Road", "PNT_X": -35223.5945, "PNT_Y": -3771911.3377499999 }, "geometry": { "type": "Point", "coordinates": [ 18.618400303540028, -34.073782479468456 ] } },
{ "type": "Feature", "properties": { "OBJECTID": 854, "FCLT_NAME": "Welmoed Cemetery Public Toilet", "FLCT_CTGR": "Public Toilet", "FLCT_RSPL_DSLN": "Horticultural", "FCLT_ACS_ADR": "Welmoed Road", "PNT_X": 18.72451343, "PNT_Y": -33.98843986 }, "geometry": { "type": "Point", "coordinates": [ 18.724513429503844, -33.988439856530483 ] } },
{ "type": "Feature", "properties": { "OBJECTID": 855, "FCLT_NAME": "Atlantis Cemetery Public Toilet (Run Down - Not in use)", "FLCT_CTGR": "Public Toilet", "FLCT_RSPL_DSLN": "Horticultural", "FCLT_ACS_ADR": "Charel Uys Road", "PNT_X": 18.49199508, "PNT_Y": -33.54134858 }, "geometry": { "type": "Point", "coordinates": [ 18.491995079123168, -33.541348575626948 ] } },
{ "type": "Feature", "properties": { "OBJECTID": 856, "FCLT_NAME": "Langa Cemetery Public Toilet", "FLCT_CTGR": "Public Toilet", "FLCT_RSPL_DSLN": "Horticultural", "FCLT_ACS_ADR": "Brinton Road", "PNT_X": 18.52212649, "PNT_Y": -33.94047075 }, "geometry": { "type": "Point", "coordinates": [ 18.522126491001888, -33.940470754195879 ] } },
{ "type": "Feature", "properties": { "OBJECTID": 857, "FCLT_NAME": "Rocklands Park Public Toilet", "FLCT_CTGR": "Public Toilet", "FLCT_RSPL_DSLN": "Horticultural", "FCLT_ACS_ADR": "Beach Road", "PNT_X": 18.39193416, "PNT_Y": -33.90942803 }, "geometry": { "type": "Point", "coordinates": [ 18.391934158799472, -33.909428027145083 ] } },
{ "type": "Feature", "properties": { "OBJECTID": 858, "FCLT_NAME": "Maynardville Park Public Toilet", "FLCT_CTGR": "Public Toilet", "FLCT_RSPL_DSLN": "Horticultural", "FCLT_ACS_ADR": "Claren Road", "PNT_X": 18.46392125, "PNT_Y": -34.00539413 }, "geometry": { "type": "Point", "coordinates": [ 18.463921254160873, -34.005394133841769 ] } },
{ "type": "Feature", "properties": { "OBJECTID": 859, "FCLT_NAME": "Klip Cemetery Public Toilet", "FLCT_CTGR": "Public Toilet", "FLCT_RSPL_DSLN": "Horticultural", "FCLT_ACS_ADR": "Klip Road", "PNT_X": 18.49540926, "PNT_Y": -34.03999075 }, "geometry": { "type": "Point", "coordinates": [ 18.495409259176299, -34.039990745226 ] } },
{ "type": "Feature", "properties": { "OBJECTID": 860, "FCLT_NAME": "Manyanani Peace Park Public Toilet", "FLCT_CTGR": "Public Toilet", "FLCT_RSPL_DSLN": "Horticultural", "FCLT_ACS_ADR": "Luleka St & Linga St & Qandani Street", "PNT_X": 18.65725176, "PNT_Y": -34.04139568 }, "geometry": { "type": "Point", "coordinates": [ 18.65725175533974, -34.041395678302557 ] } }
]
}
