{
"type": "FeatureCollection",
"name": "SL_TCT_PT_RAIL_STNS",
"crs": { "type": "name", "properties": { "name": "urn:ogc:def:crs:OGC:1.3:CRS84" } },
"features": [
{"type":"Feature","properties":{"OBJECTID":1,"NAME":"Netreg"},"geometry":{"type":"Point","coordinates":[18.56369559500007,-33.952653534999968]}},
{"type":"Feature","properties":{"OBJECTID":2,"NAME":"Mandalay"},"geometry":{"type":"Point","coordinates":[18.62455204500003,-34.018938573999947]}},
{"type":"Feature","properties":{"OBJECTID":3,"NAME":"Nolungile"},"geometry":{"type":"Point","coordinates":[18.64903216600004,-34.016966445999969]}},
{"type":"Feature","properties":{"OBJECTID":4,"NAME":"Nonkqubela"},"geometry":{"type":"Point","coordinates":[18.663098509000065,-34.026953419999984]}},
{"type":"Feature","properties":{"OBJECTID":5,"NAME":"Khayelitsha"},"geometry":{"type":"Point","coordinates":[18.67070011800007,-34.047886175999963]}},
{"type":"Feature","properties":{"OBJECTID":6,"NAME":"Philippi"},"geometry":{"type":"Point","coordinates":[18.585369850000063,-34.013306503999956]}},
{"type":"Feature","properties":{"OBJECTID":7,"NAME":"Lentegeur"},"geometry":{"type":"Point","coordinates":[18.61139044500004,-34.034231314999943]}},
{"type":"Feature","properties":{"OBJECTID":8,"NAME":"Mitchell's Plain"},"geometry":{"type":"Point","coordinates":[18.619157920000077,-34.050274495999929]}},
{"type":"Feature","properties":{"OBJECTID":9,"NAME":"Kapteinsklip"},"geometry":{"type":"Point","coordinates":[18.620819727000026,-34.066842281999982]}},
{"type":"Feature","properties":{"OBJECTID":10,"NAME":"Firgrove"},"geometry":{"type":"Point","coordinates":[18.792501644000026,-34.055483715999969]}},
{"type":"Feature","properties":{"OBJECTID":11,"NAME":"Parow"},"geometry":{"type":"Point","coordinates":[18.586256953000031,-33.909544769999968]}},
{"type":"Feature","properties":{"OBJECTID":12,"NAME":"Langa"},"geometry":{"type":"Point","coordinates":[18.52981498500003,-33.939015388999962]}},
{"type":"Feature","properties":{"OBJECTID":13,"NAME":"Bonteheuwel"},"geometry":{"type":"Point","coordinates":[18.549800020000077,-33.941993130999947]}},
{"type":"Feature","properties":{"OBJECTID":14,"NAME":"Heideveld"},"geometry":{"type":"Point","coordinates":[18.561896138000066,-33.969647153999972]}},
{"type":"Feature","properties":{"OBJECTID":15,"NAME":"Nyanga"},"geometry":{"type":"Point","coordinates":[18.559951764000061,-33.992630171999963]}},
{"type":"Feature","properties":{"OBJECTID":16,"NAME":"Monte Vista"},"geometry":{"type":"Point","coordinates":[18.548922929000071,-33.891555292999954]}},
{"type":"Feature","properties":{"OBJECTID":17,"NAME":"De Grendel"},"geometry":{"type":"Point","coordinates":[18.578748231000077,-33.893394875999945]}},
{"type":"Feature","properties":{"OBJECTID":18,"NAME":"Avondale"},"geometry":{"type":"Point","coordinates":[18.593052146000048,-33.897721770999965]}},
{"type":"Feature","properties":{"OBJECTID":19,"NAME":"Oosterzee"},"geometry":{"type":"Point","coordinates":[18.60727279300005,-33.899829696999973]}},
{"type":"Feature","properties":{"OBJECTID":20,"NAME":"Tygerberg"},"geometry":{"type":"Point","coordinates":[18.600932646000047,-33.907413838999958]}},
{"type":"Feature","properties":{"OBJECTID":21,"NAME":"Stikland"},"geometry":{"type":"Point","coordinates":[18.657185737000077,-33.904428494999934]}},
{"type":"Feature","properties":{"OBJECTID":22,"NAME":"Brackenfell"},"geometry":{"type":"Point","coordinates":[18.688636535000057,-33.880828620999978]}},
{"type":"Feature","properties":{"OBJECTID":23,"NAME":"Sarepta"},"geometry":{"type":"Point","coordinates":[18.661279550000074,-33.926534267999955]}},
{"type":"Feature","properties":{"OBJECTID":24,"NAME":"Kuils River"},"geometry":{"type":"Point","coordinates":[18.677642853000066,-33.933529317999955]}},
{"type":"Feature","properties":{"OBJECTID":25,"NAME":"Pentech"},"geometry":{"type":"Point","coordinates":[18.646038773000043,-33.934757399999967]}},
{"type":"Feature","properties":{"OBJECTID":26,"NAME":"Unibell"},"geometry":{"type":"Point","coordinates":[18.628509959000041,-33.93698059899998]}},
{"type":"Feature","properties":{"OBJECTID":27,"NAME":"Belhar"},"geometry":{"type":"Point","coordinates":[18.609293967000042,-33.939414620999969]}},
{"type":"Feature","properties":{"OBJECTID":28,"NAME":"Lavistown"},"geometry":{"type":"Point","coordinates":[18.584020379000037,-33.943421432999969]}},
{"type":"Feature","properties":{"OBJECTID":29,"NAME":"Vasco"},"geometry":{"type":"Point","coordinates":[18.558470328000055,-33.911101948999942]}},
{"type":"Feature","properties":{"OBJECTID":30,"NAME":"Goodwood"},"geometry":{"type":"Point","coordinates":[18.547408253000071,-33.914426531999936]}},
{"type":"Feature","properties":{"OBJECTID":31,"NAME":"Thornton"},"geometry":{"type":"Point","coordinates":[18.532553499000073,-33.918834150999942]}},
{"type":"Feature","properties":{"OBJECTID":32,"NAME":"Blackheath"},"geometry":{"type":"Point","coordinates":[18.701434813000049,-33.964257948999943]}},
{"type":"Feature","properties":{"OBJECTID":33,"NAME":"Melton Rose"},"geometry":{"type":"Point","coordinates":[18.720778773000063,-33.989273176999973]}},
{"type":"Feature","properties":{"OBJECTID":34,"NAME":"Eerste River"},"geometry":{"type":"Point","coordinates":[18.73087799700005,-34.00039856099994]}},
{"type":"Feature","properties":{"OBJECTID":35,"NAME":"Faure"},"geometry":{"type":"Point","coordinates":[18.747481201000028,-34.026206694999928]}},
{"type":"Feature","properties":{"OBJECTID":36,"NAME":"Kraaifontein"},"geometry":{"type":"Point","coordinates":[18.724206227000025,-33.846843237999963]}},
{"type":"Feature","properties":{"OBJECTID":37,"NAME":"Eikenfontein"},"geometry":{"type":"Point","coordinates":[18.711443699000029,-33.85697683799998]}},
{"type":"Feature","properties":{"OBJECTID":38,"NAME":"Woodstock"},"geometry":{"type":"Point","coordinates":[18.446052856000051,-33.925302442999964]}},
{"type":"Feature","properties":{"OBJECTID":39,"NAME":"Esplanade"},"geometry":{"type":"Point","coordinates":[18.446078101000069,-33.923731517999954]}},
{"type":"Feature","properties":{"OBJECTID":40,"NAME":"Paarden Eiland"},"geometry":{"type":"Point","coordinates":[18.46699708400007,-33.922305903999984]}},
{"type":"Feature","properties":{"OBJECTID":41,"NAME":"Salt River"},"geometry":{"type":"Point","coordinates":[18.464921086000061,-33.927232561999972]}},
{"type":"Feature","properties":{"OBJECTID":42,"NAME":"Koeberg Weg"},"geometry":{"type":"Point","coordinates":[18.478829678000068,-33.925636501999975]}},
{"type":"Feature","properties":{"OBJECTID":43,"NAME":"Observatory"},"geometry":{"type":"Point","coordinates":[18.471466134000025,-33.937865855999974]}},
{"type":"Feature","properties":{"OBJECTID":44,"NAME":"Mowbray"},"geometry":{"type":"Point","coordinates":[18.473910076000038,-33.946658364999962]}},
{"type":"Feature","properties":{"OBJECTID":45,"NAME":"Rosebank"},"geometry":{"type":"Point","coordinates":[18.473156041000038,-33.954653320999967]}},
{"type":"Feature","properties":{"OBJECTID":46,"NAME":"Rondebosch"},"geometry":{"type":"Point","coordinates":[18.472254384000053,-33.962912997999979]}},
{"type":"Feature","properties":{"OBJECTID":47,"NAME":"Maitland"},"geometry":{"type":"Point","coordinates":[18.487098059000061,-33.924620187999949]}},
{"type":"Feature","properties":{"OBJECTID":48,"NAME":"Ysterplaat"},"geometry":{"type":"Point","coordinates":[18.476844066000069,-33.919918572999961]}},
{"type":"Feature","properties":{"OBJECTID":49,"NAME":"Kentemade"},"geometry":{"type":"Point","coordinates":[18.497799382000039,-33.912972306999961]}},
{"type":"Feature","properties":{"OBJECTID":50,"NAME":"Ndabeni"},"geometry":{"type":"Point","coordinates":[18.495104925000078,-33.928667292999933]}},
{"type":"Feature","properties":{"OBJECTID":51,"NAME":"Pinelands"},"geometry":{"type":"Point","coordinates":[18.49062600700006,-33.939379600999985]}},
{"type":"Feature","properties":{"OBJECTID":52,"NAME":"Hazendal"},"geometry":{"type":"Point","coordinates":[18.502617900000075,-33.953334788999939]}},
{"type":"Feature","properties":{"OBJECTID":53,"NAME":"Athlone"},"geometry":{"type":"Point","coordinates":[18.501716422000072,-33.96304968499993]}},
{"type":"Feature","properties":{"OBJECTID":54,"NAME":"Woltemade"},"geometry":{"type":"Point","coordinates":[18.507253045000027,-33.922100967999938]}},
{"type":"Feature","properties":{"OBJECTID":55,"NAME":"Mutual (Juntion)"},"geometry":{"type":"Point","coordinates":[18.512755871000024,-33.921944954999958]}},
{"type":"Feature","properties":{"OBJECTID":56,"NAME":"Lansdowne"},"geometry":{"type":"Point","coordinates":[18.503773140000078,-33.987201443999936]}},
{"type":"Feature","properties":{"OBJECTID":57,"NAME":"Claremont"},"geometry":{"type":"Point","coordinates":[18.467137410000078,-33.981679267999937]}},
{"type":"Feature","properties":{"OBJECTID":58,"NAME":"Harfield Road"},"geometry":{"type":"Point","coordinates":[18.471299060000035,-33.988262378999934]}},
{"type":"Feature","properties":{"OBJECTID":59,"NAME":"Wynberg"},"geometry":{"type":"Point","coordinates":[18.47132130500006,-34.004749326999956]}},
{"type":"Feature","properties":{"OBJECTID":60,"NAME":"Wittebome"},"geometry":{"type":"Point","coordinates":[18.470780691000073,-34.013994220999962]}},
{"type":"Feature","properties":{"OBJECTID":61,"NAME":"Ottery"},"geometry":{"type":"Point","coordinates":[18.494861623000077,-34.01416130299998]}},
{"type":"Feature","properties":{"OBJECTID":62,"NAME":"Wetton"},"geometry":{"type":"Point","coordinates":[18.501159654000048,-34.001914135999982]}},
{"type":"Feature","properties":{"OBJECTID":63,"NAME":"Kenilworth"},"geometry":{"type":"Point","coordinates":[18.473036724000053,-33.995513241999959]}},
{"type":"Feature","properties":{"OBJECTID":64,"NAME":"Newlands"},"geometry":{"type":"Point","coordinates":[18.467830056000025,-33.973513971999978]}},
{"type":"Feature","properties":{"OBJECTID":65,"NAME":"Kalk Bay"},"geometry":{"type":"Point","coordinates":[18.450093231000039,-34.126249782999935]}},
{"type":"Feature","properties":{"OBJECTID":66,"NAME":"Southfield"},"geometry":{"type":"Point","coordinates":[18.481875455000022,-34.032860023999945]}},
{"type":"Feature","properties":{"OBJECTID":67,"NAME":"Steurhof"},"geometry":{"type":"Point","coordinates":[18.468904630000054,-34.02894256899998]}},
{"type":"Feature","properties":{"OBJECTID":68,"NAME":"Diep River"},"geometry":{"type":"Point","coordinates":[18.466994370000066,-34.03558011299998]}},
{"type":"Feature","properties":{"OBJECTID":69,"NAME":"Heathfield"},"geometry":{"type":"Point","coordinates":[18.465616708000027,-34.045845347999943]}},
{"type":"Feature","properties":{"OBJECTID":70,"NAME":"Retreat"},"geometry":{"type":"Point","coordinates":[18.463070676000029,-34.059718683999961]}},
{"type":"Feature","properties":{"OBJECTID":71,"NAME":"Steenberg"},"geometry":{"type":"Point","coordinates":[18.463677397000026,-34.076436203999947]}},
{"type":"Feature","properties":{"OBJECTID":72,"NAME":"Lakeside"},"geometry":{"type":"Point","coordinates":[18.462495282000077,-34.088335848999975]}},
{"type":"Feature","properties":{"OBJECTID":73,"NAME":"False Bay"},"geometry":{"type":"Point","coordinates":[18.468774893000045,-34.102391496999928]}},
{"type":"Feature","properties":{"OBJECTID":74,"NAME":"Muizenberg"},"geometry":{"type":"Point","coordinates":[18.468368804000022,-34.108830970999975]}},
{"type":"Feature","properties":{"OBJECTID":75,"NAME":"St James"},"geometry":{"type":"Point","coordinates":[18.458310730000051,-34.119399578999946]}},
{"type":"Feature","properties":{"OBJECTID":76,"NAME":"Clovelly"},"geometry":{"type":"Point","coordinates":[18.441180375000044,-34.132171231999962]}},
{"type":"Feature","properties":{"OBJECTID":77,"NAME":"Fish Hoek"},"geometry":{"type":"Point","coordinates":[18.432739174000062,-34.136946193999961]}},
{"type":"Feature","properties":{"OBJECTID":78,"NAME":"Sunny Cove"},"geometry":{"type":"Point","coordinates":[18.437301730000058,-34.144470446999946]}},
{"type":"Feature","properties":{"OBJECTID":79,"NAME":"Glencairn"},"geometry":{"type":"Point","coordinates":[18.43207417800005,-34.163429581999935]}},
{"type":"Feature","properties":{"OBJECTID":80,"NAME":"Simon's Town"},"geometry":{"type":"Point","coordinates":[18.425400380000042,-34.186489822999931]}},
{"type":"Feature","properties":{"OBJECTID":81,"NAME":"Plumstead"},"geometry":{"type":"Point","coordinates":[18.469807378000041,-34.021791912999959]}},
{"type":"Feature","properties":{"OBJECTID":82,"NAME":"Crawford"},"geometry":{"type":"Point","coordinates":[18.501365580000027,-33.976262046999977]}},
{"type":"Feature","properties":{"OBJECTID":83,"NAME":"Acacia Park"},"geometry":{"type":"Point","coordinates":[18.52860985500007,-33.894555260999937]}},
{"type":"Feature","properties":{"OBJECTID":84,"NAME":"Stock Road"},"geometry":{"type":"Point","coordinates":[18.606281859000035,-34.014159248999931]}},
{"type":"Feature","properties":{"OBJECTID":85,"NAME":"Somerset West"},"geometry":{"type":"Point","coordinates":[18.84115089900007,-34.083972015999962]}},
{"type":"Feature","properties":{"OBJECTID":86,"NAME":"Strand"},"geometry":{"type":"Point","coordinates":[18.832656581000037,-34.11476480999994]}},
{"type":"Feature","properties":{"OBJECTID":87,"NAME":"Muldersvlei"},"geometry":{"type":"Point","coordinates":[18.829869239000061,-33.828639832999954]}},
{"type":"Feature","properties":{"OBJECTID":88,"NAME":"Klapmuts"},"geometry":{"type":"Point","coordinates":[18.869224259000077,-33.80644981599994]}},
{"type":"Feature","properties":{"OBJECTID":89,"NAME":"Paarl"},"geometry":{"type":"Point","coordinates":[18.964876717000038,-33.765156288999947]}},
{"type":"Feature","properties":{"OBJECTID":90,"NAME":"Koelenhof"},"geometry":{"type":"Point","coordinates":[18.818958250000037,-33.871471922999945]}},
{"type":"Feature","properties":{"OBJECTID":91,"NAME":"Du Toit"},"geometry":{"type":"Point","coordinates":[18.854139030000056,-33.923602608999943]}},
{"type":"Feature","properties":{"OBJECTID":92,"NAME":"Stellenbosch"},"geometry":{"type":"Point","coordinates":[18.849653,-33.938804]}},
{"type":"Feature","properties":{"OBJECTID":93,"NAME":"Vlottenberg"},"geometry":{"type":"Point","coordinates":[18.799245977000055,-33.96213426199995]}},
{"type":"Feature","properties":{"OBJECTID":94,"NAME":"Lynedoch"},"geometry":{"type":"Point","coordinates":[18.771697306000078,-33.981138656999974]}},
{"type":"Feature","properties":{"OBJECTID":95,"NAME":"Hugenot"},"geometry":{"type":"Point","coordinates":[18.976643078000052,-33.73043024499998]}},
{"type":"Feature","properties":{"OBJECTID":96,"NAME":"Mbekweni"},"geometry":{"type":"Point","coordinates":[18.985542430000066,-33.673375042999965]}},
{"type":"Feature","properties":{"OBJECTID":97,"NAME":"Wellington"},"geometry":{"type":"Point","coordinates":[18.992774019000024,-33.634510938999938]}},
{"type":"Feature","properties":{"OBJECTID":98,"NAME":"Elsiesriver"},"geometry":{"type":"Point","coordinates":[18.569048889000044,-33.910441670999944]}},
{"type":"Feature","properties":{"OBJECTID":99,"NAME":"Dal Josafat"},"geometry":{"type":"Point","coordinates":[18.980537801000025,-33.706153832999973]}},
{"type":"Feature","properties":{"OBJECTID":100,"NAME":"Van Der Stel"},"geometry":{"type":"Point","coordinates":[18.852604395000071,-34.094846834999942]}},
{"type":"Feature","properties":{"OBJECTID":101,"NAME":"Bellville (Junction)"},"geometry":{"type":"Point","coordinates":[18.627341673000046,-33.906242730999963]}},
{"type":"Feature","properties":{"OBJECTID":102,"NAME":"Cape Town (Junction)"},"geometry":{"type":"Point","coordinates":[18.427958981000074,-33.922915008999951]}},
{"type":"Feature","properties":{"OBJECTID":103,"NAME":"Kuyasa"},"geometry":{"type":"Point","coordinates":[18.688069637000069,-34.054929561999984]}},
{"type":"Feature","properties":{"OBJECTID":104,"NAME":"Chris Hani"},"geometry":{"type":"Point","coordinates":[18.706119989000058,-34.054721883999946]}},
{"type":"Feature","properties":{"OBJECTID":105,"NAME":"Century City"},"geometry":{"type":"Point","coordinates":[18.512728422000066,-33.900566614999946]}},
{"type":"Feature","properties":{"OBJECTID":106,"NAME":"Fisantekraal"},"geometry":{"type":"Point","coordinates":[18.711122223000075,-33.784761110999966]}},
{"type":"Feature","properties":{"OBJECTID":107,"NAME":"Mellish"},"geometry":{"type":"Point","coordinates":[18.717780556000037,-33.7623]}},
{"type":"Feature","properties":{"OBJECTID":108,"NAME":"Mikpunt"},"geometry":{"type":"Point","coordinates":[18.707569444000058,-33.722447221999971]}},
{"type":"Feature","properties":{"OBJECTID":109,"NAME":"Wintervogel"},"geometry":{"type":"Point","coordinates":[18.669761111000071,-33.628813888999957]}},
{"type":"Feature","properties":{"OBJECTID":110,"NAME":"Kalbaskraal"},"geometry":{"type":"Point","coordinates":[18.647544444000062,-33.572261110999932]}},
{"type":"Feature","properties":{"OBJECTID":111,"NAME":"Abbotsdale"},"geometry":{"type":"Point","coordinates":[18.684597222000036,-33.48985]}},
{"type":"Feature","properties":{"OBJECTID":112,"NAME":"Malmesbury"},"geometry":{"type":"Point","coordinates":[18.721961111000041,-33.468258333999984]}},
{"type":"Feature","properties":{"OBJECTID":113,"NAME":"Klipheuwel"},"geometry":{"type":"Point","coordinates":[18.700580556000034,-33.69905]}},
{"type":"Feature","properties":{"OBJECTID":114,"NAME":" "},"geometry":{"type":"Point","coordinates":[18.457311420000053,-33.599574171999961]}}
]
}
