{"type":"FeatureCollection","features":[{"type":"Feature","properties":{"name":"Government Avenue","kind":"pedestrian"},"geometry":{"type":"Point","coordinates":[18.41651888181818,-33.928208909090905]}},{"type":"Feature","properties":{"name":"Shortmarket Street","kind":"pedestrian"},"geometry":{"type":"Point","coordinates":[18.420850225000002,-33.922909475]}},{"type":"Feature","properties":{"name":"Grand Parade","kind":"square"},"geometry":{"type":"Point","coordinates":[18.424428666666667,-33.924772983333334]}},{"type":"Feature","properties":{"name":"Saint George's Mall","kind":"pedestrian"},"geometry":{"type":"Point","coordinates":[18.4209842,-33.92298147142857]}},{"type":"Feature","properties":{"name":"Company's Garden","kind":"garden"},"geometry":{"type":"Point","coordinates":[18.41690008181818,-33.9278247969697]}},{"type":"Feature","properties":{"name":"Neiderlands Lane","kind":"pedestrian"},"geometry":{"type":"Point","coordinates":[18.4138984,-33.922611849999996]}},{"type":"Feature","properties":{"name":"Schiebe Street","kind":"pedestrian"},"geometry":{"type":"Point","coordinates":[18.418804899999998,-33.91513645]}},{"type":"Feature","properties":{"name":"Lower Burg Street","kind":"pedestrian"},"geometry":{"type":"Point","coordinates":[18.42333456,-33.91961508]}},{"type":"Feature","properties":{"name":"Burg Street","kind":"pedestrian"},"geometry":{"type":"Point","coordinates":[18.42019954,-33.92258726]}},{"type":"Feature","properties":{"name":"Longmarket Street","kind":"pedestrian"},"geometry":{"type":"Point","coordinates":[18.42435435,-33.9262077]}},{"type":"Feature","properties":{"name":"Longmarket Street","kind":"pedestrian"},"geometry":{"type":"Point","coordinates":[18.425067733333332,-33.92673323333333]}},{"type":"Feature","properties":{"name":"Mckenzie Road Park","kind":"park"},"geometry":{"type":"Point","coordinates":[18.426111974999998,-33.93142725]}},{"type":"Feature","properties":{"name":"Pier Place","kind":"pedestrian"},"geometry":{"type":"Point","coordinates":[18.42615161111111,-33.918105983333334]}},{"type":"Feature","properties":{"name":"Waterkant Street","kind":"pedestrian"},"geometry":{"type":"Point","coordinates":[18.422662333333335,-33.920652600000004]}},{"type":"Feature","properties":{"name":"The Paddocks","kind":"garden"},"geometry":{"type":"Point","coordinates":[18.415560622222223,-33.929650244444446]}},{"type":"Feature","properties":{"name":"The Rose Garden","kind":"garden"},"geometry":{"type":"Point","coordinates":[18.416563059999998,-33.927749719999994]}},{"type":"Feature","properties":{"name":"Shortmarket Street","kind":"living_street"},"geometry":{"type":"Point","coordinates":[18.41931225,-33.9217796]}},{"type":"Feature","properties":{"name":"Parliament Street","kind":"pedestrian"},"geometry":{"type":"Point","coordinates":[18.4228252,-33.9235404]}},{"type":"Feature","properties":{"name":"Convention Square","kind":"pedestrian"},"geometry":{"type":"Point","coordinates":[18.426447056249998,-33.915351525]}},{"type":"Feature","properties":{"name":"Heerengracht","kind":"pedestrian"},"geometry":{"type":"Point","coordinates":[18.429473791666666,-33.91613104166667]}},{"type":"Feature","properties":{"name":"D.F. Malan Street","kind":"footway"},"geometry":{"type":"Point","coordinates":[18.4278666,-33.920124933333334]}},{"type":"Feature","properties":{"name":"Nassau Bastion","kind":"pedestrian"},"geometry":{"type":"Point","coordinates":[18.42849540625,-33.92642769375]}},{"type":"Feature","properties":{"name":"Buuren Bastion","kind":"pedestrian"},"geometry":{"type":"Point","coordinates":[18.427445964516128,-33.925035912903226]}},{"type":"Feature","properties":{"name":"Catzenellenbogen Bastion","kind":"pedestrian"},"geometry":{"type":"Point","coordinates":[18.428605546875,-33.925438646875]}},{"type":"Feature","properties":{"name":"Leerdam Bastion","kind":"pedestrian"},"geometry":{"type":"Point","coordinates":[18.42669256,-33.92581313714286]}},{"type":"Feature","properties":{"name":"Oranje Bastion","kind":"pedestrian"},"geometry":{"type":"Point","coordinates":[18.427334675757574,-33.9266621030303]}},{"type":"Feature","properties":{"name":"Saint George's Mall","kind":"living_street"},"geometry":{"type":"Point","coordinates":[18.42409284,-33.92006248]}},{"type":"Feature","properties":{"name":"Prestwich Lane","kind":"footway"},"geometry":{"type":"Point","coordinates":[18.421055166666665,-33.9177568]}},{"type":"Feature","properties":{"name":"Prestwich Street","kind":"pedestrian"},"geometry":{"type":"Point","coordinates":[18.42373326923077,-33.919560861538464]}},{"type":"Feature","properties":{"name":"Parliament Lane","kind":"pedestrian"},"geometry":{"type":"Point","coordinates":[18.4201953,-33.925161875]}},{"type":"Feature","properties":{"name":"Saint George's Mall","kind":"pedestrian"},"geometry":{"type":"Point","coordinates":[18.423105516666666,-33.9209865]}},{"type":"Feature","properties":{"name":"Church Square","kind":"square"},"geometry":{"type":"Point","coordinates":[18.4213995,-33.92506276666667]}},{"type":"Feature","properties":{"name":"Rooftop Garden","kind":"garden"},"geometry":{"type":"Point","coordinates":[18.4183212,-33.91751662]}},{"type":"Feature","properties":{"name":"Castle Street","kind":"footway"},"geometry":{"type":"Point","coordinates":[18.42231085,-33.9222388]}},{"type":"Feature","properties":{"name":"Church Street","kind":"pedestrian"},"geometry":{"type":"Point","coordinates":[18.41896585,-33.92316115]}},{"type":"Feature","properties":{"name":"Neiderlands Lane","kind":"pedestrian"},"geometry":{"type":"Point","coordinates":[18.4142459,-33.922926399999994]}},{"type":"Feature","properties":{"name":"Shortmarket Street","kind":"living_street"},"geometry":{"type":"Point","coordinates":[18.41831905,-33.9210896]}},{"type":"Feature","properties":{"name":"Longmarket Street","kind":"pedestrian"},"geometry":{"type":"Point","coordinates":[18.423410966666665,-33.925521866666664]}},{"type":"Feature","properties":{"name":"Shortmarket Street","kind":"pedestrian"},"geometry":{"type":"Point","coordinates":[18.419871699999998,-33.92218366]}},{"type":"Feature","properties":{"name":"Greenmarket Square","kind":"pedestrian"},"geometry":{"type":"Point","coordinates":[18.42038475,-33.92290575]}},{"type":"Feature","properties":{"name":"Greenmarket Square","kind":"pedestrian"},"geometry":{"type":"Point","coordinates":[18.4197957,-33.92247275]}},{"type":"Feature","properties":{"name":"Riebeek Square","kind":"square"},"geometry":{"type":"Point","coordinates":[18.417447459999998,-33.92106574]}},{"type":"Feature","properties":{"name":"Streetscape Roeland Street Garden","kind":"garden"},"geometry":{"type":"Point","coordinates":[18.424116525,-33.92985215]}},{"type":"Feature","properties":{"name":"Herman Steeg","kind":"pedestrian"},"geometry":{"type":"Point","coordinates":[18.423203675,-33.928499575]}},{"type":"Feature","properties":{"name":"Cornelia Avenue","kind":"pedestrian"},"geometry":{"type":"Point","coordinates":[18.423031583333334,-33.92871595]}},{"type":"Feature","properties":{"name":"Barrack Street","kind":"pedestrian"},"geometry":{"type":"Point","coordinates":[18.42400755,-33.92876435]}},{"type":"Feature","properties":{"name":"Shortmarket Street","kind":"living_street"},"geometry":{"type":"Point","coordinates":[18.4186476,-33.921314025]}},{"type":"Feature","properties":{"name":"Pink Route","kind":"footway"},"geometry":{"type":"Point","coordinates":[18.418375325,-33.915803125]}},{"type":"Feature","properties":{"name":"Pink Route","kind":"footway"},"geometry":{"type":"Point","coordinates":[18.417903300000003,-33.91639175]}},{"type":"Feature","properties":{"name":"Pink Route","kind":"footway"},"geometry":{"type":"Point","coordinates":[18.418518375,-33.91569425]}},{"type":"Feature","properties":{"name":"Pink Route","kind":"footway"},"geometry":{"type":"Point","coordinates":[18.41812405,-33.914923449999996]}},{"type":"Feature","properties":{"name":"Pink Route","kind":"footway"},"geometry":{"type":"Point","coordinates":[18.418764633333335,-33.917580466666664]}},{"type":"Feature","properties":{"name":"Pink Route","kind":"footway"},"geometry":{"type":"Point","coordinates":[18.418322433333334,-33.917203]}},{"type":"Feature","properties":{"name":"Pink Route","kind":"footway"},"geometry":{"type":"Point","coordinates":[18.418751333333333,-33.918007366666664]}},{"type":"Feature","properties":{"name":"Pink Route","kind":"footway"},"geometry":{"type":"Point","coordinates":[18.418952899999997,-33.9178282]}},{"type":"Feature","properties":{"name":"Strand Street Quarry Sports Field","kind":"park"},"geometry":{"type":"Point","coordinates":[18.415579176470587,-33.91721160588235]}},{"type":"Feature","properties":{"name":"De Smit Street Park","kind":"park"},"geometry":{"type":"Point","coordinates":[18.415552083333335,-33.915298283333335]}}]}
