{"type":"FeatureCollection","features":[{"type":"Feature","properties":{"type":"park"},"geometry":{"type":"Polygon","coordinates":[[[18.4223572,-33.9155874],[18.4224631,-33.9157199],[18.4224952,-33.915744],[18.4227527,-33.9155802],[18.4231819,-33.9153665],[18.4236625,-33.9151885],[18.4243234,-33.9149677],[18.4237731,-33.9145318],[18.4237381,-33.9145482],[18.4234136,-33.9147469],[18.4230703,-33.9149819],[18.4227527,-33.9152383],[18.4223572,-33.9155874]]]}},{"type":"Feature","properties":{"type":"park"},"geometry":{"type":"Polygon","coordinates":[[[18.4220736,-33.9158021],[18.421859,-33.9159945],[18.4216098,-33.9162601],[18.421423,-33.9165236],[18.4209315,-33.9170904],[18.4212257,-33.9168675],[18.4217021,-33.9164684],[18.4222452,-33.9159945],[18.4220736,-33.9158021]]]}},{"type":"Feature","properties":{"type":"park"},"geometry":{"type":"Polygon","coordinates":[[[18.4304759,-33.9187822],[18.4305452,-33.9188315],[18.4304876,-33.9188872],[18.4308926,-33.9191759],[18.4309473,-33.9192151],[18.431079,-33.9190874],[18.431178,-33.9191548],[18.4310297,-33.9193024],[18.4315024,-33.9196452],[18.4324264,-33.918757],[18.4324048,-33.9187413],[18.4313238,-33.917971],[18.4312669,-33.9180267],[18.4304759,-33.9187822]]]}},{"type":"Feature","properties":{"type":"garden"},"geometry":{"type":"Polygon","coordinates":[[[18.4163733,-33.9293789],[18.4167653,-33.9289944],[18.4167341,-33.9289713],[18.4167867,-33.9289204],[18.4168048,-33.9289229],[18.4168189,-33.9289204],[18.4168276,-33.9289137],[18.416831,-33.9289045],[18.4168303,-33.9288959],[18.4168246,-33.9288845],[18.4169503,-33.9287685],[18.4170147,-33.9287045],[18.4170274,-33.9287078],[18.4170372,-33.9287087],[18.4170502,-33.9287045],[18.4170569,-33.9286964],[18.4170586,-33.9286856],[18.4170509,-33.9286683],[18.4171518,-33.9285745],[18.4169416,-33.9284269],[18.4172916,-33.9280747],[18.4174083,-33.9279712],[18.4175062,-33.9278766],[18.4177127,-33.9280152],[18.4187396,-33.927043],[18.418154,-33.9266194],[18.418992,-33.9258216],[18.4187632,-33.9256661],[18.4187149,-33.9256616],[18.4186488,-33.9256441],[18.4186113,-33.9256293],[18.4185714,-33.9256104],[18.4185308,-33.9255826],[18.4184939,-33.925547],[18.4184755,-33.925517],[18.4184708,-33.9254797],[18.4184705,-33.9254546],[18.4181773,-33.9252325],[18.4179806,-33.9254197],[18.4179259,-33.9254718],[18.4178958,-33.9255005],[18.4159318,-33.9273876],[18.4153497,-33.927959],[18.4152377,-33.928063],[18.4155506,-33.928295],[18.4155677,-33.9282886],[18.4155861,-33.9282878],[18.4156059,-33.9282917],[18.4156354,-33.92826],[18.415688,-33.9283045],[18.4157443,-33.9283495],[18.4157185,-33.9283746],[18.4157249,-33.9283788],[18.4157189,-33.9283851],[18.4157266,-33.9283904],[18.4156726,-33.9284583],[18.415909,-33.9286247],[18.4159013,-33.9286341],[18.4158966,-33.9286578],[18.4158972,-33.9286747],[18.4159053,-33.9286859],[18.4158986,-33.9286917],[18.4159063,-33.9286984],[18.4159961,-33.9287674],[18.4157917,-33.9289579],[18.4163733,-33.9293789]]]}},{"type":"Feature","properties":{"type":"pitch"},"geometry":{"type":"Polygon","coordinates":[[[18.4141872,-33.9306108],[18.4147916,-33.9300224],[18.4158858,-33.9308924],[18.4153585,-33.9314421],[18.4141872,-33.9306108]]]}},{"type":"Feature","properties":{"type":"garden"},"geometry":{"type":"Polygon","coordinates":[[[18.4123308,-33.9320646],[18.4122678,-33.9320255],[18.412299,-33.9319843],[18.4121629,-33.9318991],[18.412098,-33.9319536],[18.4119759,-33.9319661],[18.4116305,-33.9317572],[18.4116205,-33.9316652],[18.411686,-33.9315957],[18.4115796,-33.9315266],[18.4115621,-33.9315466],[18.4115494,-33.9315398],[18.4115401,-33.9315352],[18.4115345,-33.9315106],[18.4115054,-33.9314775],[18.4114733,-33.9314666],[18.4114317,-33.9314697],[18.4114001,-33.9314868],[18.4113841,-33.9315207],[18.4113888,-33.931552],[18.4113845,-33.9315574],[18.4113386,-33.9316066],[18.4112043,-33.9315231],[18.4111052,-33.9316316],[18.4106552,-33.9313485],[18.410637,-33.9313356],[18.4107886,-33.9311648],[18.4106942,-33.9311071],[18.4108939,-33.9308773],[18.4121558,-33.9315981],[18.4121664,-33.9315862],[18.4128698,-33.9307954],[18.4131376,-33.9311893],[18.4123308,-33.9320646]]]}},{"type":"Feature","properties":{"type":"grass"},"geometry":{"type":"Polygon","coordinates":[[[18.4237199,-33.9305338],[18.4236356,-33.9305924],[18.4235983,-33.9305984],[18.4235645,-33.9305867],[18.4230006,-33.9301004],[18.4229855,-33.9300627],[18.423002,-33.9300266],[18.423327,-33.9297643],[18.4235111,-33.9299784],[18.4233265,-33.9301094],[18.4237199,-33.9305338]]]}},{"type":"Feature","properties":{"type":"grass"},"geometry":{"type":"Polygon","coordinates":[[[18.4238908,-33.929296],[18.4238615,-33.9292957],[18.4234186,-33.9296704],[18.4233885,-33.9297163],[18.4235842,-33.9299106],[18.4236198,-33.9299011],[18.4237127,-33.9299977],[18.4238893,-33.9298861],[18.4241965,-33.9296703],[18.4241718,-33.9295838],[18.4238908,-33.929296]]]}},{"type":"Feature","properties":{"type":"park"},"geometry":{"type":"Polygon","coordinates":[[[18.4266008,-33.9307878],[18.4271004,-33.9312862],[18.4270861,-33.9313712],[18.4256571,-33.9319422],[18.4254381,-33.9317018],[18.42525,-33.9318218],[18.4251625,-33.9317192],[18.4266008,-33.9307878]]]}},{"type":"Feature","properties":{"type":"grass"},"geometry":{"type":"Polygon","coordinates":[[[18.4278723,-33.93095],[18.4271438,-33.9303766],[18.426845,-33.9306452],[18.4272808,-33.9311412],[18.4274613,-33.9311877],[18.4278723,-33.93095]]]}},{"type":"Feature","properties":{"type":"grass"},"geometry":{"type":"Polygon","coordinates":[[[18.4274062,-33.9292412],[18.4278488,-33.9288134],[18.4274145,-33.928504],[18.4273482,-33.9285679],[18.4272729,-33.9285142],[18.4268964,-33.9288781],[18.4274062,-33.9292412]]]}},{"type":"Feature","properties":{"type":"garden"},"geometry":{"type":"Polygon","coordinates":[[[18.4163733,-33.9293789],[18.4157917,-33.9289579],[18.4154252,-33.9293079],[18.4148686,-33.929834],[18.4148884,-33.9298551],[18.4150312,-33.9299697],[18.4154443,-33.9302721],[18.4158496,-33.9298977],[18.4163733,-33.9293789]]]}},{"type":"Feature","properties":{"type":"garden"},"geometry":{"type":"Polygon","coordinates":[[[18.4165599,-33.9275195],[18.4162227,-33.9278589],[18.4165678,-33.928095],[18.416905,-33.9277557],[18.4165599,-33.9275195]]]}},{"type":"Feature","properties":{"type":"park"},"geometry":{"type":"Polygon","coordinates":[[[18.4182889,-33.9302181],[18.4185296,-33.9303915],[18.4189195,-33.9300269],[18.4193214,-33.9291323],[18.4192966,-33.9291177],[18.4182889,-33.9302181]]]}},{"type":"Feature","properties":{"type":"garden"},"geometry":{"type":"Polygon","coordinates":[[[18.4278437,-33.9175862],[18.4278045,-33.9175145],[18.4277981,-33.9174369],[18.427824,-33.9173622],[18.4278793,-33.9172993],[18.4279571,-33.917256],[18.4280482,-33.9172375],[18.4281413,-33.917246],[18.4282162,-33.9172738],[18.4281408,-33.917346],[18.428106,-33.917331],[18.428057,-33.9173268],[18.4280064,-33.9173368],[18.4279609,-33.917359],[18.4279285,-33.9173939],[18.4279088,-33.9174335],[18.4279082,-33.9174718],[18.4279253,-33.9175082],[18.4278437,-33.9175862]]]}},{"type":"Feature","properties":{"type":"garden"},"geometry":{"type":"Polygon","coordinates":[[[18.4282592,-33.9173049],[18.428184,-33.9173769],[18.4282128,-33.9174124],[18.4282198,-33.9174528],[18.4282156,-33.9174972],[18.4281954,-33.9175306],[18.4281549,-33.9175621],[18.4281155,-33.9175816],[18.4280738,-33.9175865],[18.4280192,-33.9175782],[18.4279324,-33.9176611],[18.4280293,-33.9176819],[18.4281239,-33.9176787],[18.4282113,-33.9176486],[18.4282808,-33.9175952],[18.4283237,-33.9175251],[18.4283347,-33.9174471],[18.4283125,-33.9173707],[18.4282592,-33.9173049]]]}},{"type":"Feature","properties":{"type":"village_green"},"geometry":{"type":"Polygon","coordinates":[[[18.422716,-33.915955],[18.423081,-33.9157417],[18.4232,-33.9158923],[18.423189,-33.9158247],[18.4231865,-33.9157493],[18.4231952,-33.9156904],[18.4232089,-33.915646],[18.4231149,-33.9156787],[18.4227249,-33.9159017],[18.4227136,-33.9159318],[18.422716,-33.915955]]]}},{"type":"Feature","properties":{"type":"village_green"},"geometry":{"type":"Polygon","coordinates":[[[18.4240704,-33.9152585],[18.4240791,-33.915212],[18.4241189,-33.915179],[18.424358,-33.915086],[18.4244115,-33.9150829],[18.4245198,-33.9151097],[18.4249605,-33.9154311],[18.4250751,-33.915492],[18.4248883,-33.915479],[18.4247056,-33.9153473],[18.4246402,-33.9154097],[18.4246172,-33.9154296],[18.4245123,-33.9153552],[18.4244471,-33.9153697],[18.424392,-33.9153821],[18.4241963,-33.9154293],[18.4241209,-33.9153867],[18.4241339,-33.9153443],[18.4241102,-33.9152699],[18.4240704,-33.9152585]]]}},{"type":"Feature","properties":{"type":"village_green"},"geometry":{"type":"Polygon","coordinates":[[[18.4273934,-33.918847],[18.4281003,-33.9193556],[18.4278925,-33.9195545],[18.4271856,-33.9190459],[18.4273934,-33.918847]]]}},{"type":"Feature","properties":{"type":"village_green"},"geometry":{"type":"Polygon","coordinates":[[[18.4282675,-33.9197723],[18.428115,-33.919659],[18.4281201,-33.9196353],[18.4280534,-33.9195878],[18.4281546,-33.9194898],[18.4282233,-33.919538],[18.4282512,-33.9195327],[18.4284031,-33.9196418],[18.4282675,-33.9197723]]]}},{"type":"Feature","properties":{"type":"scrub"},"geometry":{"type":"Polygon","coordinates":[[[18.4282451,-33.9205754],[18.4282866,-33.9206054],[18.4284435,-33.9204557],[18.428402,-33.9204258],[18.4282451,-33.9205754]]]}},{"type":"Feature","properties":{"type":"scrub"},"geometry":{"type":"Polygon","coordinates":[[[18.4282464,-33.9203148],[18.4281945,-33.9203649],[18.4281732,-33.9203497],[18.4281198,-33.9204012],[18.4280999,-33.920387],[18.4280485,-33.9204366],[18.4280159,-33.9204133],[18.4281727,-33.9202621],[18.4282464,-33.9203148]]]}},{"type":"Feature","properties":{"type":"village_green"},"geometry":{"type":"Polygon","coordinates":[[[18.4279825,-33.9190846],[18.4286057,-33.9195246],[18.4287047,-33.9194735],[18.4286404,-33.9194701],[18.4280279,-33.9190383],[18.4279825,-33.9190846]]]}},{"type":"Feature","properties":{"type":"scrub"},"geometry":{"type":"Polygon","coordinates":[[[18.4296236,-33.9197132],[18.4296437,-33.9196971],[18.4296851,-33.9196973],[18.4297057,-33.9197137],[18.4296848,-33.9197298],[18.4296434,-33.9197295],[18.4296236,-33.9197132]]]}},{"type":"Feature","properties":{"type":"scrub"},"geometry":{"type":"Polygon","coordinates":[[[18.4294423,-33.9197303],[18.4294624,-33.9197142],[18.4295038,-33.9197144],[18.4295245,-33.9197308],[18.4295035,-33.9197469],[18.4294621,-33.9197466],[18.4294423,-33.9197303]]]}},{"type":"Feature","properties":{"type":"scrub"},"geometry":{"type":"Polygon","coordinates":[[[18.4295362,-33.9197963],[18.4295562,-33.9197802],[18.4295976,-33.9197805],[18.4296183,-33.9197969],[18.4295973,-33.919813],[18.4295559,-33.9198127],[18.4295362,-33.9197963]]]}},{"type":"Feature","properties":{"type":"scrub"},"geometry":{"type":"Polygon","coordinates":[[[18.4294082,-33.9195592],[18.4294283,-33.9195431],[18.4294697,-33.9195434],[18.4294903,-33.9195597],[18.4294694,-33.9195758],[18.429428,-33.9195756],[18.4294082,-33.9195592]]]}},{"type":"Feature","properties":{"type":"scrub"},"geometry":{"type":"Polygon","coordinates":[[[18.4295362,-33.9196471],[18.4295562,-33.919631],[18.4295976,-33.9196313],[18.4296183,-33.9196476],[18.4295973,-33.9196637],[18.4295559,-33.9196635],[18.4295362,-33.9196471]]]}},{"type":"Feature","properties":{"type":"scrub"},"geometry":{"type":"Polygon","coordinates":[[[18.4293179,-33.9196455],[18.429338,-33.9196294],[18.4293794,-33.9196297],[18.4294,-33.9196461],[18.4293791,-33.9196622],[18.4293377,-33.9196619],[18.4293179,-33.9196455]]]}},{"type":"Feature","properties":{"type":"scrub"},"geometry":{"type":"Polygon","coordinates":[[[18.4298673,-33.9201274],[18.4298515,-33.9201435],[18.4298266,-33.9201457],[18.4298071,-33.9201326],[18.4298045,-33.9201119],[18.4298203,-33.9200958],[18.4298452,-33.9200936],[18.4298647,-33.9201067],[18.4298673,-33.9201274]]]}},{"type":"Feature","properties":{"type":"scrub"},"geometry":{"type":"Polygon","coordinates":[[[18.4297744,-33.9200425],[18.4297763,-33.9200639],[18.4297594,-33.9200802],[18.4297336,-33.9200818],[18.429714,-33.9200678],[18.4297121,-33.9200464],[18.429729,-33.9200301],[18.4297548,-33.9200285],[18.4297744,-33.9200425]]]}},{"type":"Feature","properties":{"type":"village_green"},"geometry":{"type":"Polygon","coordinates":[[[18.4299755,-33.9193204],[18.4299178,-33.9192795],[18.430048,-33.9191524],[18.4301061,-33.9191936],[18.4299755,-33.9193204]]]}},{"type":"Feature","properties":{"type":"village_green"},"geometry":{"type":"Polygon","coordinates":[[[18.4302967,-33.9186551],[18.431063,-33.9179206],[18.4311566,-33.9179878],[18.4303903,-33.9187224],[18.4302967,-33.9186551]]]}},{"type":"Feature","properties":{"type":"village_green"},"geometry":{"type":"Polygon","coordinates":[[[18.4304324,-33.918835],[18.4304019,-33.9188648],[18.4303677,-33.9188406],[18.4303981,-33.9188109],[18.4304324,-33.918835]]]}},{"type":"Feature","properties":{"type":"village_green"},"geometry":{"type":"Polygon","coordinates":[[[18.4302353,-33.9189697],[18.4303002,-33.9190157],[18.4303429,-33.9189742],[18.4302779,-33.9189281],[18.4302353,-33.9189697]]]}},{"type":"Feature","properties":{"type":"village_green"},"geometry":{"type":"Polygon","coordinates":[[[18.4298582,-33.9192374],[18.4297784,-33.9191808],[18.4301925,-33.9187783],[18.4302714,-33.9188343],[18.4299877,-33.9191111],[18.4298582,-33.9192374]]]}},{"type":"Feature","properties":{"type":"grass"},"geometry":{"type":"Polygon","coordinates":[[[18.4297595,-33.9202503],[18.4297406,-33.9202367],[18.4295971,-33.9201962],[18.4295729,-33.9202224],[18.4296829,-33.9203034],[18.4296983,-33.9203058],[18.4297092,-33.9203005],[18.4297595,-33.9202503]]]}},{"type":"Feature","properties":{"type":"village_green"},"geometry":{"type":"Polygon","coordinates":[[[18.4310326,-33.9213157],[18.4309864,-33.9213567],[18.4309413,-33.9213531],[18.4303167,-33.9207953],[18.4304296,-33.92068],[18.4304906,-33.920724],[18.4304963,-33.9207737],[18.4305064,-33.9208327],[18.430529,-33.9209012],[18.4305652,-33.9209546],[18.4306454,-33.9210464],[18.4308239,-33.9211712],[18.4310326,-33.9213157]]]}},{"type":"Feature","properties":{"type":"village_green"},"geometry":{"type":"Polygon","coordinates":[[[18.4298038,-33.9203834],[18.4300949,-33.9205952],[18.4302016,-33.9204941],[18.4299106,-33.9202824],[18.4298038,-33.9203834]]]}},{"type":"Feature","properties":{"type":"grass"},"geometry":{"type":"Polygon","coordinates":[[[18.4243118,-33.921523],[18.4245118,-33.9215179],[18.4243509,-33.9216725],[18.4242986,-33.9215381],[18.4243118,-33.921523]]]}},{"type":"Feature","properties":{"type":"grass"},"geometry":{"type":"Polygon","coordinates":[[[18.4245814,-33.9214546],[18.4243887,-33.9214521],[18.4245872,-33.9212607],[18.4246348,-33.9214044],[18.4245814,-33.9214546]]]}},{"type":"Feature","properties":{"type":"park"},"geometry":{"type":"Polygon","coordinates":[[[18.4250368,-33.9199963],[18.4248511,-33.9198621],[18.4250075,-33.9197126],[18.4250368,-33.9199963]]]}},{"type":"Feature","properties":{"type":"park"},"geometry":{"type":"Polygon","coordinates":[[[18.4313535,-33.9228689],[18.4314703,-33.9228659],[18.4316733,-33.9226615],[18.4316839,-33.9226147],[18.4316698,-33.9225582],[18.4316229,-33.9225095],[18.4309282,-33.9220343],[18.4308742,-33.9220343],[18.4308214,-33.9220567],[18.430765,-33.9221064],[18.4312485,-33.9224482],[18.4313084,-33.9225154],[18.4313424,-33.9225933],[18.4313535,-33.9228689]]]}},{"type":"Feature","properties":{"type":"village_green"},"geometry":{"type":"Polygon","coordinates":[[[18.4311553,-33.9217898],[18.4310957,-33.9218461],[18.4310861,-33.9218294],[18.4310857,-33.9218071],[18.4310948,-33.9217913],[18.4311065,-33.9217831],[18.4311162,-33.9217786],[18.4311272,-33.9217771],[18.4311381,-33.9217786],[18.4311479,-33.921783],[18.4311553,-33.9217898]]]}},{"type":"Feature","properties":{"type":"grass"},"geometry":{"type":"Polygon","coordinates":[[[18.4311225,-33.9218758],[18.4318236,-33.922382],[18.431839,-33.9223677],[18.4311868,-33.9218129],[18.4311225,-33.9218758]]]}},{"type":"Feature","properties":{"type":"village_green"},"geometry":{"type":"Polygon","coordinates":[[[18.4307747,-33.9214551],[18.4308868,-33.9215594],[18.4308434,-33.9215773],[18.4307973,-33.9215788],[18.4307359,-33.9215639],[18.4307052,-33.9215429],[18.4307404,-33.9215219],[18.4307603,-33.9214941],[18.4307747,-33.9214551]]]}},{"type":"Feature","properties":{"type":"village_green"},"geometry":{"type":"Polygon","coordinates":[[[18.4258538,-33.9201791],[18.4258657,-33.9201093],[18.4259518,-33.9200379],[18.4260245,-33.9199554],[18.4260694,-33.919879],[18.4261723,-33.9198727],[18.4262439,-33.919883],[18.4263654,-33.9198872],[18.4263178,-33.9199594],[18.4262917,-33.9199837],[18.4262758,-33.9199986],[18.4262482,-33.9200243],[18.4262246,-33.920007],[18.4261867,-33.9200424],[18.4261649,-33.9200263],[18.4260826,-33.920103],[18.4259676,-33.9202103],[18.4259894,-33.9202264],[18.4259412,-33.9202714],[18.4259683,-33.9202914],[18.4259356,-33.9203219],[18.4258774,-33.9203762],[18.4258131,-33.9203458],[18.4258132,-33.9203191],[18.4258226,-33.9202602],[18.4258538,-33.9201791]]]}},{"type":"Feature","properties":{"type":"grass"},"geometry":{"type":"Polygon","coordinates":[[[18.4329046,-33.9216372],[18.4328508,-33.9216959],[18.4328407,-33.9217309],[18.4328576,-33.9217737],[18.4328896,-33.9217915],[18.4329167,-33.9217926],[18.433422,-33.9212973],[18.4334236,-33.9212605],[18.4333991,-33.9212318],[18.4333559,-33.921223],[18.4329046,-33.9216372]]]}},{"type":"Feature","properties":{"type":"grass"},"geometry":{"type":"Polygon","coordinates":[[[18.4335471,-33.9210204],[18.4335363,-33.9210327],[18.4335322,-33.9210454],[18.4335317,-33.9210598],[18.4335379,-33.9210751],[18.4335463,-33.9210879],[18.4335622,-33.9210991],[18.4335879,-33.9211076],[18.4336071,-33.921106],[18.4336334,-33.9210991],[18.4341056,-33.9206416],[18.4341061,-33.920626],[18.4340938,-33.9206111],[18.4340809,-33.9206005],[18.434058,-33.9205923],[18.4340338,-33.9205962],[18.4336124,-33.920998],[18.4335471,-33.9210204]]]}},{"type":"Feature","properties":{"type":"grass"},"geometry":{"type":"Polygon","coordinates":[[[18.4342137,-33.9203759],[18.4342105,-33.9203952],[18.4342203,-33.9204185],[18.434239,-33.9204347],[18.4342639,-33.9204461],[18.4342894,-33.9204496],[18.4343153,-33.9204435],[18.4345365,-33.9202315],[18.4344363,-33.9201634],[18.4342137,-33.9203759]]]}},{"type":"Feature","properties":{"type":"grass"},"geometry":{"type":"Polygon","coordinates":[[[18.4322435,-33.9222886],[18.4322954,-33.9222273],[18.4326768,-33.9218604],[18.432744,-33.9219088],[18.4327452,-33.9219257],[18.4327429,-33.9219385],[18.4327374,-33.9219513],[18.4327305,-33.9219634],[18.4327182,-33.9219782],[18.4326634,-33.9220225],[18.4324644,-33.9221698],[18.432241,-33.9223854],[18.4322023,-33.9223551],[18.4322219,-33.9223229],[18.4322435,-33.9222886]]]}},{"type":"Feature","properties":{"type":"grass"},"geometry":{"type":"Polygon","coordinates":[[[18.4345942,-33.9194954],[18.4345704,-33.9194854],[18.4345825,-33.9195777],[18.4341386,-33.9193307],[18.4341185,-33.9192305],[18.4340669,-33.9192004],[18.4339997,-33.919161],[18.4339508,-33.9191387],[18.4339432,-33.9191467],[18.4339368,-33.9191582],[18.434103,-33.9193551],[18.4341226,-33.9193759],[18.4345204,-33.9195992],[18.4345701,-33.9196054],[18.4346092,-33.9195892],[18.4346288,-33.9195629],[18.4346288,-33.9195279],[18.4345942,-33.9194954]]]}},{"type":"Feature","properties":{"type":"grass"},"geometry":{"type":"Polygon","coordinates":[[[18.4329661,-33.9180605],[18.435119,-33.9192495],[18.4349314,-33.9194424],[18.4348418,-33.9191626],[18.4329465,-33.9180861],[18.4329661,-33.9180605]]]}},{"type":"Feature","properties":{"type":"village_green"},"geometry":{"type":"Polygon","coordinates":[[[18.4338383,-33.9193204],[18.4341925,-33.9198264],[18.4342648,-33.9199077],[18.4342949,-33.919954],[18.4342866,-33.9200209],[18.4339362,-33.9197704],[18.4338727,-33.9197291],[18.4336068,-33.9195447],[18.4338383,-33.9193204]]]}},{"type":"Feature","properties":{"type":"village_green"},"geometry":{"type":"Polygon","coordinates":[[[18.4326938,-33.9221641],[18.4328536,-33.922585],[18.4328324,-33.9225904],[18.43312,-33.9233599],[18.433147,-33.923353],[18.4331797,-33.9234417],[18.4330831,-33.9234769],[18.4328621,-33.9231526],[18.4326733,-33.9229231],[18.432426,-33.9226681],[18.4323606,-33.9225905],[18.4323489,-33.9225504],[18.4323644,-33.9224894],[18.4326938,-33.9221641]]]}},{"type":"Feature","properties":{"type":"park"},"geometry":{"type":"Polygon","coordinates":[[[18.4325733,-33.9238063],[18.4324189,-33.9233912],[18.4323092,-33.923189],[18.4322334,-33.9230846],[18.4319562,-33.9230818],[18.4317919,-33.9232229],[18.4318398,-33.9232289],[18.4318939,-33.923253],[18.4322716,-33.923877],[18.4325733,-33.9238063]]]}},{"type":"Feature","properties":{"type":"grass"},"geometry":{"type":"Polygon","coordinates":[[[18.4324781,-33.9249671],[18.4324933,-33.9249435],[18.4325268,-33.9249343],[18.4325907,-33.9249486],[18.4326699,-33.9249806],[18.4327582,-33.9249974],[18.4328606,-33.9249823],[18.4328772,-33.925062],[18.4326083,-33.9249958],[18.4326149,-33.924978],[18.4325489,-33.9249612],[18.4325362,-33.9249954],[18.4324781,-33.9249671]]]}},{"type":"Feature","properties":{"type":"village_green"},"geometry":{"type":"Polygon","coordinates":[[[18.4322334,-33.9230846],[18.4321804,-33.9230293],[18.4321397,-33.923003],[18.432093,-33.9229906],[18.4320316,-33.9229819],[18.4319682,-33.9229807],[18.431917,-33.922984],[18.4319185,-33.9230112],[18.4318637,-33.9230263],[18.4318185,-33.9230457],[18.4317698,-33.9230775],[18.4316658,-33.9231777],[18.4316694,-33.9231865],[18.4316784,-33.9232309],[18.4316928,-33.9232267],[18.4317377,-33.9232229],[18.4317919,-33.9232229],[18.4319562,-33.9230818],[18.4322334,-33.9230846]]]}},{"type":"Feature","properties":{"type":"grass"},"geometry":{"type":"Polygon","coordinates":[[[18.4319613,-33.9247269],[18.4318669,-33.9246656],[18.4317394,-33.9245678],[18.4317614,-33.9245465],[18.4316974,-33.924501],[18.4316755,-33.9245222],[18.4315758,-33.9244511],[18.4315979,-33.9244297],[18.4315339,-33.9243842],[18.4315118,-33.9244056],[18.4314083,-33.9243318],[18.4314317,-33.9243092],[18.4313677,-33.9242637],[18.4313444,-33.9242863],[18.4312414,-33.9242129],[18.4312552,-33.9241995],[18.4312756,-33.9241973],[18.4313732,-33.924206],[18.4314144,-33.9242536],[18.4314543,-33.9242742],[18.4314786,-33.9243104],[18.4315233,-33.9243516],[18.4316765,-33.924467],[18.4319924,-33.9246909],[18.4320874,-33.9247457],[18.4324263,-33.9249082],[18.4324063,-33.9249347],[18.4321672,-33.9248344],[18.4319613,-33.9247269]]]}},{"type":"Feature","properties":{"type":"grass"},"geometry":{"type":"Polygon","coordinates":[[[18.4314814,-33.9242067],[18.431507,-33.9242093],[18.4315344,-33.9242034],[18.4315608,-33.9241866],[18.4311312,-33.923878],[18.4314814,-33.9242067]]]}},{"type":"Feature","properties":{"type":"grass"},"geometry":{"type":"Polygon","coordinates":[[[18.4322716,-33.923877],[18.4325733,-33.9238063],[18.4327899,-33.9246511],[18.4326691,-33.9246919],[18.4325536,-33.9244352],[18.4323477,-33.9240079],[18.4322716,-33.923877]]]}},{"type":"Feature","properties":{"type":"grass"},"geometry":{"type":"Polygon","coordinates":[[[18.431745,-33.9241057],[18.4323015,-33.9244885],[18.4324527,-33.9245356],[18.4325719,-33.9247279],[18.4325055,-33.9247524],[18.4324132,-33.9247356],[18.432145,-33.9246425],[18.4320761,-33.9245927],[18.431591,-33.9242391],[18.431745,-33.9241057]]]}},{"type":"Feature","properties":{"type":"village_green"},"geometry":{"type":"Polygon","coordinates":[[[18.4328236,-33.9232801],[18.4327644,-33.9231909],[18.4326007,-33.9229706],[18.4323674,-33.9227111],[18.4323215,-33.922672],[18.4322991,-33.9226957],[18.4323513,-33.9227358],[18.4325721,-33.9229891],[18.4326689,-33.9231579],[18.4327384,-33.9233103],[18.4328236,-33.9232801]]]}},{"type":"Feature","properties":{"type":"village_green"},"geometry":{"type":"Polygon","coordinates":[[[18.4328236,-33.9232801],[18.4327384,-33.9233103],[18.4329759,-33.9238294],[18.4330449,-33.9236391],[18.4328236,-33.9232801]]]}},{"type":"Feature","properties":{"type":"village_green"},"geometry":{"type":"Polygon","coordinates":[[[18.4323996,-33.923057],[18.432283,-33.922882],[18.4321453,-33.9227276],[18.4321875,-33.9226874],[18.4323525,-33.9228233],[18.4325039,-33.9230169],[18.4323996,-33.923057]]]}},{"type":"Feature","properties":{"type":"village_green"},"geometry":{"type":"Polygon","coordinates":[[[18.4325039,-33.9230169],[18.4325957,-33.9231734],[18.4326689,-33.9233453],[18.4328416,-33.9237566],[18.4327078,-33.9237814],[18.4326515,-33.9235667],[18.4325758,-33.9233597],[18.4325064,-33.923231],[18.4323996,-33.923057],[18.4325039,-33.9230169]]]}},{"type":"Feature","properties":{"type":"grass"},"geometry":{"type":"Polygon","coordinates":[[[18.4282914,-33.925936],[18.4279996,-33.9259367],[18.4279906,-33.9259195],[18.4283087,-33.9257558],[18.4282914,-33.925936]]]}},{"type":"Feature","properties":{"type":"grass"},"geometry":{"type":"Polygon","coordinates":[[[18.4277519,-33.9260606],[18.4279124,-33.9263478],[18.4282523,-33.9262778],[18.4282894,-33.9259527],[18.4279578,-33.9259549],[18.4278117,-33.9260241],[18.4277905,-33.9260217],[18.4277697,-33.9260314],[18.427764,-33.9260467],[18.4277519,-33.9260606]]]}},{"type":"Feature","properties":{"type":"garden"},"geometry":{"type":"Polygon","coordinates":[[[18.4272416,-33.9251573],[18.4272042,-33.925211],[18.4270848,-33.9251532],[18.4271305,-33.9250414],[18.4271794,-33.9249222],[18.4271903,-33.9248956],[18.4272007,-33.9248702],[18.4272385,-33.9247756],[18.4273836,-33.9248337],[18.4272416,-33.9251573]]]}},{"type":"Feature","properties":{"type":"grass"},"geometry":{"type":"Polygon","coordinates":[[[18.4270122,-33.9253767],[18.4270473,-33.9254001],[18.4270741,-33.9254181],[18.4270912,-33.9254293],[18.4271191,-33.9254495],[18.4271305,-33.9254578],[18.4273555,-33.9252423],[18.4272416,-33.9251573],[18.4272042,-33.925211],[18.4270848,-33.9251532],[18.4271594,-33.9252406],[18.4270122,-33.9253767]]]}},{"type":"Feature","properties":{"type":"grass"},"geometry":{"type":"Polygon","coordinates":[[[18.4266232,-33.9262601],[18.4259494,-33.9257864],[18.4267,-33.925442],[18.4268258,-33.92547],[18.4269279,-33.9253758],[18.4269768,-33.9254097],[18.426844,-33.9255321],[18.4267092,-33.9255015],[18.4260918,-33.9257846],[18.4266008,-33.9261424],[18.426711,-33.9262885],[18.4266232,-33.9262601]]]}},{"type":"Feature","properties":{"type":"grass"},"geometry":{"type":"Polygon","coordinates":[[[18.4270131,-33.9271077],[18.4271468,-33.9271578],[18.4276328,-33.9268947],[18.4279036,-33.9267481],[18.4279288,-33.9267378],[18.427955,-33.9267403],[18.428822,-33.9268297],[18.4288295,-33.9267797],[18.4279436,-33.9266886],[18.4279177,-33.9266859],[18.4278923,-33.9266971],[18.4271052,-33.9271104],[18.4268765,-33.92651],[18.4267322,-33.9263171],[18.4270131,-33.9271077]]]}},{"type":"Feature","properties":{"type":"grass"},"geometry":{"type":"Polygon","coordinates":[[[18.4264429,-33.9249995],[18.426865,-33.9250303],[18.4268379,-33.9250581],[18.4267988,-33.9250912],[18.4267515,-33.9251286],[18.4267179,-33.925152],[18.4266785,-33.9251317],[18.4266546,-33.9251579],[18.4266818,-33.925175],[18.4266417,-33.925201],[18.4265885,-33.9252305],[18.4265343,-33.9252585],[18.4264429,-33.9249995]]]}},{"type":"Feature","properties":{"type":"grass"},"geometry":{"type":"Polygon","coordinates":[[[18.4267179,-33.925152],[18.4267337,-33.9251634],[18.4269244,-33.9253154],[18.4269631,-33.9253431],[18.4270295,-33.9252818],[18.4270773,-33.9252375],[18.427013,-33.9251625],[18.4270695,-33.9250242],[18.4271182,-33.9249049],[18.4271395,-33.924853],[18.4271806,-33.9247526],[18.4271417,-33.9247355],[18.4269989,-33.9247305],[18.4269192,-33.9247848],[18.4269026,-33.9249545],[18.4268928,-33.9249745],[18.426865,-33.9250303],[18.4268379,-33.9250581],[18.4267988,-33.9250912],[18.4267515,-33.9251286],[18.4267179,-33.925152]]]}},{"type":"Feature","properties":{"type":"grass"},"geometry":{"type":"Polygon","coordinates":[[[18.4264652,-33.9252753],[18.4264807,-33.9252715],[18.4265343,-33.9252585],[18.4264429,-33.9249995],[18.426865,-33.9250303],[18.4268928,-33.9249745],[18.426345,-33.9249343],[18.4264652,-33.9252753]]]}},{"type":"Feature","properties":{"type":"grass"},"geometry":{"type":"Polygon","coordinates":[[[18.4271305,-33.9250414],[18.4270695,-33.9250242],[18.427013,-33.9251625],[18.4270773,-33.9252375],[18.4270295,-33.9252818],[18.4269631,-33.9253431],[18.4270122,-33.9253767],[18.4271594,-33.9252406],[18.4270848,-33.9251532],[18.4271305,-33.9250414]]]}},{"type":"Feature","properties":{"type":"grass"},"geometry":{"type":"Polygon","coordinates":[[[18.4271196,-33.9268679],[18.4271944,-33.926842],[18.4271176,-33.9265358],[18.4269889,-33.9266016],[18.4270309,-33.9267163],[18.4270598,-33.9267084],[18.4270984,-33.9268018],[18.4271196,-33.9268679]]]}},{"type":"Feature","properties":{"type":"village_green"},"geometry":{"type":"Polygon","coordinates":[[[18.4301964,-33.9263349],[18.4302116,-33.9260899],[18.4301201,-33.9260829],[18.4300378,-33.9260799],[18.4300197,-33.9264165],[18.4299742,-33.9264148],[18.429973,-33.9264378],[18.4299687,-33.9265245],[18.429965,-33.9265998],[18.4299612,-33.9266783],[18.4299568,-33.9267659],[18.4300655,-33.9266675],[18.4301324,-33.9265766],[18.430172,-33.9264949],[18.4301964,-33.9263349]]]}},{"type":"Feature","properties":{"type":"grass"},"geometry":{"type":"Polygon","coordinates":[[[18.4265668,-33.9245242],[18.4265088,-33.924505],[18.4264459,-33.9245015],[18.4264012,-33.9245165],[18.4263619,-33.9245448],[18.4263309,-33.9245818],[18.4262285,-33.9246986],[18.4261767,-33.9247578],[18.4261632,-33.9247736],[18.4262296,-33.924741],[18.4262906,-33.9247326],[18.426908,-33.9247843],[18.4269192,-33.9247848],[18.4269989,-33.9247305],[18.4271417,-33.9247355],[18.4271806,-33.9247526],[18.4272385,-33.9247756],[18.4273836,-33.9248337],[18.4273987,-33.9247993],[18.4269763,-33.9246625],[18.4265668,-33.9245242]]]}},{"type":"Feature","properties":{"type":"grass"},"geometry":{"type":"Polygon","coordinates":[[[18.4287803,-33.9263083],[18.4295713,-33.9263458],[18.4295449,-33.9267668],[18.429689,-33.9267736],[18.4297032,-33.926798],[18.4297296,-33.9268148],[18.42976,-33.9268216],[18.4297874,-33.9268123],[18.4298027,-33.9267803],[18.4299309,-33.9267857],[18.4297418,-33.926931],[18.4296728,-33.9269277],[18.429485,-33.9269748],[18.4288316,-33.9269335],[18.4288234,-33.9270295],[18.4278726,-33.926974],[18.4276328,-33.9268947],[18.4279036,-33.9267481],[18.427955,-33.9267403],[18.428822,-33.9268297],[18.4288295,-33.9267797],[18.4279436,-33.9266886],[18.4279177,-33.9266859],[18.4278923,-33.9266971],[18.4271052,-33.9271104],[18.4268765,-33.92651],[18.4269559,-33.9266184],[18.4269889,-33.9266016],[18.4270309,-33.9267163],[18.4270598,-33.9267084],[18.4270984,-33.9268018],[18.4271196,-33.9268679],[18.4271491,-33.9269601],[18.4271526,-33.9269713],[18.42716,-33.9269812],[18.4271707,-33.9269887],[18.4271836,-33.9269931],[18.4271976,-33.926994],[18.4272112,-33.9269913],[18.4272232,-33.9269853],[18.4276079,-33.9267789],[18.4278783,-33.9266337],[18.4279296,-33.9266255],[18.4283727,-33.9266695],[18.4283797,-33.9266126],[18.4283854,-33.9265658],[18.4287261,-33.9265965],[18.4286106,-33.9262311],[18.4286621,-33.9262339],[18.4287567,-33.9262361],[18.4287803,-33.9263083]]]}},{"type":"Feature","properties":{"type":"grass"},"geometry":{"type":"Polygon","coordinates":[[[18.4288489,-33.9252891],[18.4273987,-33.9247993],[18.4277274,-33.9250573],[18.4276696,-33.9251728],[18.4283282,-33.9253997],[18.428391,-33.9252702],[18.4288489,-33.9252891]]]}},{"type":"Feature","properties":{"type":"village_green"},"geometry":{"type":"Polygon","coordinates":[[[18.4301657,-33.9258116],[18.4301193,-33.9257632],[18.4300553,-33.9257169],[18.4299731,-33.9256849],[18.4289594,-33.9253195],[18.4290904,-33.9253731],[18.4291197,-33.9253851],[18.4293562,-33.9254963],[18.4294896,-33.9255708],[18.4301657,-33.9258116]]]}},{"type":"Feature","properties":{"type":"grass"},"geometry":{"type":"Polygon","coordinates":[[[18.4288234,-33.9270295],[18.4291684,-33.9270531],[18.429274,-33.9270464],[18.4294191,-33.9270169],[18.4296799,-33.9269495],[18.4297418,-33.926931],[18.4296728,-33.9269277],[18.429485,-33.9269748],[18.4288316,-33.9269335],[18.4288234,-33.9270295]]]}},{"type":"Feature","properties":{"type":"grass"},"geometry":{"type":"Polygon","coordinates":[[[18.4264963,-33.9263669],[18.4264635,-33.9263949],[18.426271,-33.9264598],[18.426183,-33.9265408],[18.425518,-33.9260653],[18.4255096,-33.926041],[18.4255152,-33.9260144],[18.4257299,-33.9257569],[18.425749,-33.9257491],[18.4257486,-33.9257931],[18.4257584,-33.9258372],[18.4257829,-33.9258772],[18.4264963,-33.9263669]]]}},{"type":"Feature","properties":{"type":"grass"},"geometry":{"type":"Polygon","coordinates":[[[18.4270896,-33.9254967],[18.4270782,-33.9254884],[18.4270517,-33.9254721],[18.4270162,-33.9254964],[18.4269992,-33.9254839],[18.4270309,-33.9254593],[18.4270206,-33.9254529],[18.4270082,-33.9254519],[18.4270056,-33.9254418],[18.4270163,-33.9254366],[18.4269768,-33.9254097],[18.426844,-33.9255321],[18.4267092,-33.9255015],[18.4260918,-33.9257846],[18.4266008,-33.9261424],[18.4265839,-33.9261171],[18.4265946,-33.9261117],[18.4267507,-33.9260319],[18.4263837,-33.9257979],[18.4267741,-33.9256042],[18.4268866,-33.9256849],[18.4270896,-33.9254967]]]}},{"type":"Feature","properties":{"type":"grass"},"geometry":{"type":"Polygon","coordinates":[[[18.4265843,-33.9268264],[18.4266544,-33.9267274],[18.4268003,-33.9268342],[18.4268623,-33.9268269],[18.4269628,-33.9270953],[18.4265843,-33.9268264]]]}},{"type":"Feature","properties":{"type":"grass"},"geometry":{"type":"Polygon","coordinates":[[[18.4265843,-33.9268264],[18.4262634,-33.9265983],[18.4263349,-33.9265347],[18.4265116,-33.9264448],[18.4265379,-33.9264286],[18.4266544,-33.9267274],[18.4265843,-33.9268264]]]}},{"type":"Feature","properties":{"type":"grass"},"geometry":{"type":"Polygon","coordinates":[[[18.4231259,-33.9188714],[18.4231427,-33.9188659],[18.4231601,-33.9188696],[18.4231716,-33.9188811],[18.4231728,-33.918896],[18.4231631,-33.9189087],[18.4231463,-33.9189142],[18.4231289,-33.9189105],[18.4231174,-33.9188989],[18.4231163,-33.918884],[18.4231259,-33.9188714]]]}},{"type":"Feature","properties":{"type":"pitch"},"geometry":{"type":"Polygon","coordinates":[[[18.4128099,-33.9310212],[18.4131032,-33.931207],[18.4128627,-33.9314684],[18.4125694,-33.9312826],[18.4128099,-33.9310212]]]}},{"type":"Feature","properties":{"type":"grass"},"geometry":{"type":"Polygon","coordinates":[[[18.4131182,-33.9250506],[18.4133173,-33.9248639],[18.413335,-33.9248769],[18.4131358,-33.9250635],[18.4131182,-33.9250506]]]}},{"type":"Feature","properties":{"type":"grass"},"geometry":{"type":"Polygon","coordinates":[[[18.4129364,-33.9248955],[18.4131128,-33.9247296],[18.4131309,-33.924728],[18.4131725,-33.9247575],[18.4129868,-33.9249315],[18.4129364,-33.9248955]]]}},{"type":"Feature","properties":{"type":"village_green"},"geometry":{"type":"Polygon","coordinates":[[[18.4239063,-33.9218243],[18.4236827,-33.9220349],[18.4236781,-33.9221163],[18.4240967,-33.9224223],[18.4242186,-33.9222501],[18.424138,-33.9221904],[18.4242556,-33.9220796],[18.4239063,-33.9218243]]]}},{"type":"Feature","properties":{"type":"pitch"},"geometry":{"type":"Polygon","coordinates":[[[18.4130336,-33.9208792],[18.4131926,-33.9208114],[18.413326,-33.9210264],[18.4131671,-33.9210943],[18.4130336,-33.9208792]]]}},{"type":"Feature","properties":{"type":"grass"},"geometry":{"type":"Polygon","coordinates":[[[18.4280909,-33.9288981],[18.4281515,-33.9288352],[18.4282042,-33.9288647],[18.428438,-33.9285496],[18.4282268,-33.9283954],[18.4279891,-33.9286188],[18.4275928,-33.9283291],[18.4276107,-33.9283122],[18.4275587,-33.9282742],[18.4277334,-33.9281098],[18.4277813,-33.9281449],[18.4278267,-33.9281021],[18.4277626,-33.9280568],[18.42745,-33.9283469],[18.4275241,-33.9283993],[18.4274733,-33.928446],[18.4280909,-33.9288981]]]}},{"type":"Feature","properties":{"type":"grass"},"geometry":{"type":"Polygon","coordinates":[[[18.4282235,-33.9290913],[18.4281712,-33.9291597],[18.4282643,-33.9292077],[18.4283182,-33.929139],[18.4282235,-33.9290913]]]}},{"type":"Feature","properties":{"type":"grass"},"geometry":{"type":"Polygon","coordinates":[[[18.4289879,-33.9294031],[18.4290126,-33.9293674],[18.4291633,-33.9291582],[18.4286875,-33.9289222],[18.4285368,-33.9291314],[18.4289595,-33.9293421],[18.4289362,-33.9293758],[18.4285132,-33.9291721],[18.4284367,-33.9290925],[18.428695,-33.9287344],[18.429236,-33.9291258],[18.4292555,-33.9291559],[18.4292493,-33.9291896],[18.4291134,-33.9293753],[18.4290498,-33.9293443],[18.4290018,-33.9294109],[18.4289879,-33.9294031]]]}},{"type":"Feature","properties":{"type":"grass"},"geometry":{"type":"Polygon","coordinates":[[[18.4276541,-33.927977],[18.4277102,-33.9280183],[18.4274044,-33.9283128],[18.4273394,-33.9282666],[18.4272907,-33.9283116],[18.4265671,-33.9277993],[18.4266647,-33.9277001],[18.4267404,-33.9277534],[18.4269299,-33.9278868],[18.4269554,-33.9278623],[18.4271947,-33.9280408],[18.4272008,-33.928035],[18.4272161,-33.9280463],[18.4274492,-33.9282187],[18.4275742,-33.9281007],[18.4275441,-33.9280788],[18.4276541,-33.927977]]]}},{"type":"Feature","properties":{"type":"grass"},"geometry":{"type":"Polygon","coordinates":[[[18.428735,-33.9293562],[18.4285702,-33.9292758],[18.4285639,-33.9292724],[18.4285537,-33.9292869],[18.4285326,-33.9292759],[18.4285209,-33.9292919],[18.4284984,-33.9292801],[18.4284868,-33.9292959],[18.4284664,-33.9292854],[18.4284543,-33.9293012],[18.4284414,-33.9292945],[18.4284386,-33.9292977],[18.4284662,-33.9293109],[18.428533,-33.9293458],[18.4285624,-33.9293088],[18.4287136,-33.9293866],[18.428735,-33.9293562]]]}},{"type":"Feature","properties":{"type":"grass"},"geometry":{"type":"Polygon","coordinates":[[[18.4287788,-33.9297745],[18.4287259,-33.9298482],[18.4286678,-33.9298195],[18.4286617,-33.9297995],[18.4285953,-33.9297667],[18.4285112,-33.9298868],[18.4284338,-33.9299022],[18.4283669,-33.9298634],[18.4283699,-33.9298576],[18.4284623,-33.9297358],[18.4285248,-33.9296497],[18.4287788,-33.9297745]]]}},{"type":"Feature","properties":{"type":"garden"},"geometry":{"type":"Polygon","coordinates":[[[18.4182869,-33.9174254],[18.4181899,-33.9175111],[18.4183726,-33.9176535],[18.4184697,-33.9175677],[18.4182869,-33.9174254]]]}},{"type":"Feature","properties":{"type":"garden"},"geometry":{"type":"Polygon","coordinates":[[[18.4242948,-33.9297715],[18.4241965,-33.9296703],[18.4238893,-33.9298861],[18.4239818,-33.9299859],[18.4240743,-33.9299226],[18.4240857,-33.9299151],[18.424115,-33.9298942],[18.4242948,-33.9297715]]]}},{"type":"Feature","properties":{"type":"park"},"geometry":{"type":"Polygon","coordinates":[[[18.4339951,-33.9295929],[18.4339964,-33.9295073],[18.4340246,-33.9294895],[18.4340246,-33.9294639],[18.4340085,-33.9294372],[18.4339777,-33.9294216],[18.4339374,-33.9294205],[18.4334466,-33.9293949],[18.4334144,-33.9294016],[18.4333996,-33.9294182],[18.4333903,-33.929436],[18.4334131,-33.9294628],[18.433405,-33.9295729],[18.4334774,-33.9295763],[18.4334801,-33.9295573],[18.4339951,-33.9295929]]]}},{"type":"Feature","properties":{"type":"pitch"},"geometry":{"type":"Polygon","coordinates":[[[18.4243192,-33.9310325],[18.4245323,-33.9312715],[18.4243768,-33.9313669],[18.4241638,-33.9311278],[18.4243192,-33.9310325]]]}},{"type":"Feature","properties":{"type":"grass"},"geometry":{"type":"Polygon","coordinates":[[[18.4316297,-33.93042],[18.4316461,-33.9304181],[18.4316699,-33.9304157],[18.4316878,-33.9304169],[18.4317035,-33.9304212],[18.4317139,-33.9304058],[18.4317407,-33.9304151],[18.4317534,-33.9303934],[18.4317713,-33.9303996],[18.4317847,-33.9303743],[18.4317727,-33.9303637],[18.4314315,-33.9302315],[18.4314159,-33.9302315],[18.4314047,-33.9302376],[18.4313853,-33.9302519],[18.4313719,-33.9302685],[18.4313585,-33.9302945],[18.4313198,-33.9303625],[18.4313034,-33.9303897],[18.4313048,-33.930407],[18.4313108,-33.930428],[18.431319,-33.9304416],[18.431325,-33.9304503],[18.4314151,-33.9304849],[18.4316297,-33.93042]]]}},{"type":"Feature","properties":{"type":"grass"},"geometry":{"type":"Polygon","coordinates":[[[18.4301879,-33.9307765],[18.4301557,-33.9307787],[18.4301179,-33.9307781],[18.4300793,-33.9307698],[18.4300417,-33.9307598],[18.4300055,-33.9307442],[18.429961,-33.9307203],[18.4300217,-33.9306503],[18.4299032,-33.9305876],[18.4297581,-33.9307828],[18.4297817,-33.9307945],[18.4297586,-33.930809],[18.4297693,-33.9308312],[18.429778,-33.930849],[18.4298176,-33.9308813],[18.4298974,-33.9309253],[18.4300007,-33.9309714],[18.4300959,-33.9309893],[18.4302387,-33.9309831],[18.4301879,-33.9307765]]]}},{"type":"Feature","properties":{"type":"grass"},"geometry":{"type":"Polygon","coordinates":[[[18.4302322,-33.9307676],[18.4302872,-33.9307498],[18.4303341,-33.930722],[18.4303623,-33.9306953],[18.4303824,-33.9306652],[18.4303958,-33.930643],[18.4304054,-33.9306282],[18.4304206,-33.930634],[18.4305103,-33.9306684],[18.4305686,-33.9306927],[18.4304546,-33.9308913],[18.4304251,-33.9309342],[18.4303855,-33.9309531],[18.4303342,-33.9309673],[18.4302889,-33.9309745],[18.4302322,-33.9307676]]]}},{"type":"Feature","properties":{"type":"grass"},"geometry":{"type":"Polygon","coordinates":[[[18.4281883,-33.9310636],[18.4283665,-33.9311588],[18.4283878,-33.9311313],[18.4283727,-33.9311238],[18.4284756,-33.9309842],[18.4287011,-33.9309395],[18.4289684,-33.9305913],[18.4289521,-33.9305809],[18.4289425,-33.9305809],[18.4289148,-33.9305663],[18.4289084,-33.9305386],[18.4287197,-33.9304447],[18.42834,-33.9309447],[18.4281883,-33.9310636]]]}},{"type":"Feature","properties":{"type":"grass"},"geometry":{"type":"Polygon","coordinates":[[[18.4280542,-33.9311704],[18.4282653,-33.9312848],[18.4280718,-33.9315334],[18.4280973,-33.9316254],[18.4284993,-33.9318193],[18.4289127,-33.9319839],[18.4295509,-33.9320472],[18.4295831,-33.9319938],[18.4298473,-33.9320806],[18.4299009,-33.9321863],[18.4299251,-33.932233],[18.4299371,-33.9322642],[18.4299519,-33.9322798],[18.4298875,-33.9323666],[18.4298607,-33.9323821],[18.4298258,-33.9323844],[18.4282594,-33.931838],[18.4279885,-33.9317034],[18.4276532,-33.9314731],[18.4276653,-33.9313963],[18.4279349,-33.9312605],[18.4280542,-33.9311704]]]}},{"type":"Feature","properties":{"type":"grass"},"geometry":{"type":"Polygon","coordinates":[[[18.4301035,-33.9297326],[18.4301799,-33.9297148],[18.4301947,-33.9296947],[18.4295711,-33.9293554],[18.4293873,-33.9295913],[18.4294182,-33.9296013],[18.4294933,-33.9295601],[18.4295536,-33.9295467],[18.4295684,-33.9295534],[18.4297065,-33.9295345],[18.430078,-33.9297281],[18.4301035,-33.9297326]]]}},{"type":"Feature","properties":{"type":"grass"},"geometry":{"type":"Polygon","coordinates":[[[18.4288749,-33.9302477],[18.4290269,-33.9303281],[18.4290314,-33.9303491],[18.4289936,-33.9303968],[18.429429,-33.9306102],[18.429459,-33.9305803],[18.4294866,-33.9305735],[18.4295713,-33.9306173],[18.4296356,-33.9306064],[18.4296884,-33.9305357],[18.4297198,-33.9305327],[18.4297436,-33.9305427],[18.4297839,-33.9305364],[18.4298077,-33.9305568],[18.4296773,-33.9307374],[18.4296356,-33.9307485],[18.4295983,-33.9307657],[18.4295745,-33.9307781],[18.4287863,-33.9303639],[18.4288749,-33.9302477]]]}},{"type":"Feature","properties":{"type":"pitch"},"geometry":{"type":"Polygon","coordinates":[[[18.4246736,-33.9307917],[18.4248794,-33.9310124],[18.4247508,-33.931095],[18.4245449,-33.9308744],[18.4246736,-33.9307917]]]}},{"type":"Feature","properties":{"type":"pitch"},"geometry":{"type":"Polygon","coordinates":[[[18.4244886,-33.9311397],[18.4246396,-33.9310416],[18.4246983,-33.9311038],[18.4245474,-33.9312019],[18.4244886,-33.9311397]]]}},{"type":"Feature","properties":{"type":"pitch"},"geometry":{"type":"Polygon","coordinates":[[[18.4244579,-33.9311097],[18.4246115,-33.9310113],[18.4245531,-33.9309485],[18.4243995,-33.9310469],[18.4244579,-33.9311097]]]}},{"type":"Feature","properties":{"type":"garden"},"geometry":{"type":"Polygon","coordinates":[[[18.4203097,-33.930477],[18.4205049,-33.9302148],[18.4205277,-33.9302268],[18.4206898,-33.9303119],[18.4208596,-33.9300863],[18.4208966,-33.9300371],[18.4203101,-33.9296401],[18.4202929,-33.9296289],[18.4201917,-33.9298736],[18.4201604,-33.9298649],[18.4199735,-33.9303857],[18.4203097,-33.930477]]]}},{"type":"Feature","properties":{"type":"pitch"},"geometry":{"type":"Polygon","coordinates":[[[18.4171196,-33.9266115],[18.417149,-33.9266299],[18.4171257,-33.9266556],[18.4170963,-33.9266372],[18.4171196,-33.9266115]]]}},{"type":"Feature","properties":{"type":"pitch"},"geometry":{"type":"Polygon","coordinates":[[[18.4184118,-33.9292002],[18.4182,-33.9294152],[18.4180673,-33.9293252],[18.4182791,-33.9291102],[18.4184118,-33.9292002]]]}},{"type":"Feature","properties":{"type":"grass"},"geometry":{"type":"Polygon","coordinates":[[[18.4299677,-33.9303576],[18.430023,-33.9302892],[18.4300446,-33.9302456],[18.4300501,-33.9301988],[18.4300175,-33.930169],[18.4297438,-33.9302298],[18.4299677,-33.9303576]]]}},{"type":"Feature","properties":{"type":"grass"},"geometry":{"type":"Polygon","coordinates":[[[18.4301321,-33.9303841],[18.4301514,-33.9304569],[18.4301657,-33.9304564],[18.4302039,-33.930467],[18.4302327,-33.9304832],[18.4302522,-33.930501],[18.4302605,-33.9305195],[18.4303241,-33.9305011],[18.4302865,-33.9304245],[18.4302,-33.9303645],[18.430179,-33.9303696],[18.4301321,-33.9303841]]]}},{"type":"Feature","properties":{"type":"grass"},"geometry":{"type":"Polygon","coordinates":[[[18.4302691,-33.9305558],[18.4303723,-33.9305264],[18.4304206,-33.930634],[18.4304054,-33.9306282],[18.4302696,-33.9305761],[18.4302691,-33.9305558]]]}},{"type":"Feature","properties":{"type":"grass"},"geometry":{"type":"Polygon","coordinates":[[[18.4301616,-33.9297791],[18.4303026,-33.9297491],[18.4303115,-33.9297534],[18.4302204,-33.9299843],[18.4302139,-33.9299514],[18.4301967,-33.9298945],[18.4301616,-33.9297791]]]}},{"type":"Feature","properties":{"type":"grass"},"geometry":{"type":"Polygon","coordinates":[[[18.4313823,-33.9310712],[18.4315224,-33.930794],[18.4316028,-33.9308247],[18.4315848,-33.9308565],[18.4317918,-33.9309386],[18.4317754,-33.9309687],[18.4317096,-33.9309449],[18.4316664,-33.9310171],[18.4314835,-33.9309494],[18.4314111,-33.9310814],[18.4313823,-33.9310712]]]}},{"type":"Feature","properties":{"type":"grass"},"geometry":{"type":"Polygon","coordinates":[[[18.4159603,-33.9281888],[18.4159334,-33.9281902],[18.415834,-33.9282826],[18.4158362,-33.9283041],[18.4160811,-33.9284799],[18.4162095,-33.928371],[18.4159603,-33.9281888]]]}},{"type":"Feature","properties":{"type":"grass"},"geometry":{"type":"Polygon","coordinates":[[[18.4162024,-33.9279601],[18.4161766,-33.927961],[18.4160822,-33.928049],[18.4160783,-33.928074],[18.4163226,-33.9282517],[18.4164462,-33.9281414],[18.4162024,-33.9279601]]]}},{"type":"Feature","properties":{"type":"grass"},"geometry":{"type":"Polygon","coordinates":[[[18.4159133,-33.9279543],[18.4159397,-33.9279543],[18.416038,-33.9278615],[18.4160412,-33.9278455],[18.4157964,-33.927686],[18.41577,-33.9276908],[18.4156871,-33.9277692],[18.4156884,-33.9277916],[18.4159133,-33.9279543]]]}},{"type":"Feature","properties":{"type":"grass"},"geometry":{"type":"Polygon","coordinates":[[[18.4273633,-33.9274728],[18.4274365,-33.9275344],[18.4277623,-33.9274487],[18.427788,-33.9274475],[18.4278059,-33.9274455],[18.4278639,-33.9273915],[18.4278242,-33.927362],[18.427809,-33.9273506],[18.4277856,-33.9273381],[18.4277705,-33.9273321],[18.4277453,-33.9273276],[18.4277206,-33.9273272],[18.4277012,-33.9273292],[18.4273803,-33.9274564],[18.4273706,-33.9274628],[18.4273633,-33.9274728]]]}},{"type":"Feature","properties":{"type":"grass"},"geometry":{"type":"Polygon","coordinates":[[[18.4277284,-33.9275058],[18.4275563,-33.9276856],[18.427437,-33.9276096],[18.4274923,-33.927565],[18.4275286,-33.9275867],[18.427629,-33.927505],[18.4277284,-33.9275058]]]}},{"type":"Feature","properties":{"type":"grass"},"geometry":{"type":"Polygon","coordinates":[[[18.4273483,-33.9274905],[18.4274569,-33.9275718],[18.4274268,-33.9275984],[18.4273308,-33.9275316],[18.427327,-33.9275211],[18.427327,-33.9275095],[18.4273337,-33.9275006],[18.4273483,-33.9274905]]]}},{"type":"Feature","properties":{"type":"grass"},"geometry":{"type":"Polygon","coordinates":[[[18.4280166,-33.9274056],[18.4284804,-33.9277449],[18.4285997,-33.9276545],[18.4288849,-33.9273613],[18.4288872,-33.9273342],[18.4288812,-33.9273103],[18.428862,-33.9272937],[18.4288405,-33.9272875],[18.4281722,-33.9272642],[18.4281447,-33.9272734],[18.4280166,-33.9274056]]]}},{"type":"Feature","properties":{"type":"grass"},"geometry":{"type":"Polygon","coordinates":[[[18.4190879,-33.9171222],[18.4191246,-33.9170952],[18.4193312,-33.9172437],[18.4193508,-33.9172853],[18.4193731,-33.9173315],[18.4193603,-33.9173371],[18.419478,-33.9175637],[18.4193328,-33.917607],[18.4190879,-33.9171222]]]}},{"type":"Feature","properties":{"type":"grass"},"geometry":{"type":"Polygon","coordinates":[[[18.4194274,-33.9177912],[18.4195548,-33.9177129],[18.4196596,-33.9179195],[18.4197779,-33.9178744],[18.4198174,-33.9178943],[18.4196848,-33.9180113],[18.4195671,-33.9180226],[18.4195192,-33.9179877],[18.4194274,-33.9177912]]]}},{"type":"Feature","properties":{"type":"grass"},"geometry":{"type":"Polygon","coordinates":[[[18.4199303,-33.9173107],[18.420007,-33.917312],[18.420296,-33.9170925],[18.4202704,-33.9170355],[18.4202924,-33.9170254],[18.420553,-33.9172211],[18.4205547,-33.9172337],[18.4202728,-33.9174867],[18.4202524,-33.9174964],[18.4202293,-33.9175009],[18.4202029,-33.9174999],[18.4201776,-33.9174938],[18.4199303,-33.9173107]]]}},{"type":"Feature","properties":{"type":"grass"},"geometry":{"type":"Polygon","coordinates":[[[18.4319942,-33.9281143],[18.431955,-33.928611],[18.4319672,-33.9286212],[18.4325729,-33.9286559],[18.4325921,-33.9286342],[18.4326261,-33.9281505],[18.4326034,-33.9281287],[18.4320126,-33.9280947],[18.4319942,-33.9281143]]]}},{"type":"Feature","properties":{"type":"grass"},"geometry":{"type":"Polygon","coordinates":[[[18.4324771,-33.9290359],[18.4322149,-33.929155],[18.4320522,-33.9292579],[18.4320003,-33.9292673],[18.4319754,-33.9293154],[18.4319859,-33.929368],[18.4320123,-33.9293986],[18.4320733,-33.9294305],[18.432117,-33.9294248],[18.4324275,-33.9295836],[18.4324395,-33.929618],[18.4324877,-33.9296099],[18.4325262,-33.9295843],[18.432539,-33.9295524],[18.4325789,-33.929051],[18.4325661,-33.9290229],[18.4325367,-33.929006],[18.4324892,-33.929006],[18.4324771,-33.9290359]]]}},{"type":"Feature","properties":{"type":"pitch"},"geometry":{"type":"Polygon","coordinates":[[[18.4122852,-33.9182621],[18.41263,-33.9181193],[18.4127164,-33.918263],[18.4123716,-33.9184058],[18.4122852,-33.9182621]]]}},{"type":"Feature","properties":{"type":"pitch"},"geometry":{"type":"Polygon","coordinates":[[[18.4118807,-33.918736],[18.4120432,-33.918446],[18.4122186,-33.9185137],[18.4120562,-33.9188037],[18.4118807,-33.918736]]]}},{"type":"Feature","properties":{"type":"park"},"geometry":{"type":"Polygon","coordinates":[[[18.4151463,-33.9172376],[18.4152107,-33.917414],[18.4153894,-33.9175931],[18.415544,-33.9177535],[18.4157083,-33.9179686],[18.4162478,-33.9174929],[18.4160432,-33.9173258],[18.4159531,-33.917112],[18.4158242,-33.9170185],[18.4157566,-33.9168955],[18.4157196,-33.9167953],[18.415631,-33.9167886],[18.4154957,-33.9168688],[18.4154732,-33.916957],[18.4153105,-33.9170345],[18.4152461,-33.917104],[18.4151463,-33.9172376]]]}},{"type":"Feature","properties":{"type":"park"},"geometry":{"type":"Polygon","coordinates":[[[18.4157735,-33.915619],[18.4155595,-33.9155047],[18.4154906,-33.915502],[18.4152367,-33.9151708],[18.4151422,-33.9150152],[18.4153612,-33.9149119],[18.4154243,-33.9150338],[18.415596,-33.9149732],[18.4156989,-33.9152286],[18.4157395,-33.915398],[18.4158291,-33.9156032],[18.4157735,-33.915619]]]}},{"type":"Feature","properties":{"type":"grass"},"geometry":{"type":"Polygon","coordinates":[[[18.4313673,-33.9216554],[18.4313799,-33.9216709],[18.4314022,-33.9217295],[18.4314132,-33.921744],[18.4320133,-33.9221799],[18.4319753,-33.9222149],[18.4319424,-33.9222008],[18.4313344,-33.9216873],[18.4313673,-33.9216554]]]}},{"type":"Feature","properties":{"type":"garden"},"geometry":{"type":"Polygon","coordinates":[[[18.4182695,-33.9271231],[18.4184144,-33.9269812],[18.4184195,-33.9269829],[18.4184277,-33.9269832],[18.4184324,-33.9269815],[18.4184363,-33.9269786],[18.4184591,-33.9269947],[18.4184639,-33.9269966],[18.4184725,-33.9269971],[18.4184797,-33.9269959],[18.418486,-33.9269936],[18.4185037,-33.9269764],[18.418508,-33.926979],[18.4185189,-33.9269758],[18.4185847,-33.9270237],[18.4185572,-33.9270499],[18.4185552,-33.9270539],[18.4185549,-33.9270585],[18.418557,-33.927063],[18.4185608,-33.9270681],[18.4185806,-33.9270826],[18.4185782,-33.9270867],[18.4185768,-33.9270914],[18.4185777,-33.9270958],[18.4185816,-33.9271012],[18.4184586,-33.9272202],[18.4184533,-33.9272187],[18.4184473,-33.9272179],[18.4184407,-33.9272194],[18.4184361,-33.927224],[18.4184149,-33.9272104],[18.4184084,-33.9272085],[18.4184025,-33.9272079],[18.4183947,-33.9272097],[18.4183895,-33.9272138],[18.4183725,-33.9272297],[18.4183658,-33.9272272],[18.4183594,-33.9272269],[18.4183535,-33.9272281],[18.4183482,-33.9272309],[18.4182752,-33.927179],[18.4182797,-33.9271722],[18.4182821,-33.9271634],[18.4182824,-33.9271556],[18.4182813,-33.9271461],[18.4182782,-33.9271352],[18.4182742,-33.9271286],[18.4182695,-33.9271231]]]}},{"type":"Feature","properties":{"type":"garden"},"geometry":{"type":"Polygon","coordinates":[[[18.4182501,-33.9271101],[18.4183967,-33.9269695],[18.4183939,-33.9269655],[18.4183923,-33.9269589],[18.4183936,-33.9269547],[18.4183965,-33.9269511],[18.4183738,-33.9269349],[18.4183708,-33.9269312],[18.4183689,-33.9269243],[18.4183692,-33.9269182],[18.4183709,-33.9269126],[18.4183886,-33.9268955],[18.418385,-33.9268923],[18.4183871,-33.9268829],[18.4183199,-33.9268363],[18.4182929,-33.926863],[18.4182885,-33.9268652],[18.418283,-33.9268662],[18.4182774,-33.9268652],[18.4182706,-33.9268628],[18.4182504,-33.9268488],[18.4181043,-33.9269891],[18.4181238,-33.9270044],[18.418127,-33.9270095],[18.4181287,-33.9270142],[18.4181277,-33.9270209],[18.4181236,-33.9270257],[18.4181073,-33.9270422],[18.4181113,-33.9270473],[18.4181126,-33.9270524],[18.4181121,-33.9270575],[18.4181096,-33.9270622],[18.4181827,-33.9271141],[18.4181902,-33.9271094],[18.4182002,-33.927106],[18.4182095,-33.9271046],[18.418221,-33.927104],[18.4182344,-33.9271048],[18.4182429,-33.9271071],[18.4182501,-33.9271101]]]}},{"type":"Feature","properties":{"type":"garden"},"geometry":{"type":"Polygon","coordinates":[[[18.4181882,-33.9272027],[18.4180416,-33.9273433],[18.4180444,-33.9273473],[18.418046,-33.9273539],[18.4180447,-33.9273581],[18.4180418,-33.9273617],[18.4180646,-33.9273779],[18.4180675,-33.9273816],[18.4180695,-33.9273885],[18.4180692,-33.9273946],[18.4180675,-33.9274002],[18.4180497,-33.9274173],[18.4180534,-33.9274205],[18.4180513,-33.9274299],[18.4181185,-33.9274765],[18.4181454,-33.9274498],[18.4181498,-33.9274476],[18.4181553,-33.9274467],[18.418161,-33.9274477],[18.4181677,-33.92745],[18.418188,-33.927464],[18.4181925,-33.9274614],[18.4181979,-33.9274595],[18.4182033,-33.9274596],[18.4182103,-33.9274619],[18.418333,-33.9273427],[18.4183304,-33.9273386],[18.4183286,-33.9273338],[18.4183293,-33.9273282],[18.4183341,-33.9273237],[18.4183146,-33.9273084],[18.4183114,-33.9273033],[18.4183097,-33.9272986],[18.4183107,-33.9272919],[18.4183148,-33.9272871],[18.418331,-33.9272707],[18.418327,-33.9272656],[18.4183257,-33.9272604],[18.4183262,-33.9272553],[18.4183287,-33.9272506],[18.4182557,-33.9271987],[18.4182482,-33.9272035],[18.4182381,-33.9272068],[18.4182289,-33.9272082],[18.4182174,-33.9272088],[18.418204,-33.927208],[18.4181955,-33.9272057],[18.4181882,-33.9272027]]]}},{"type":"Feature","properties":{"type":"garden"},"geometry":{"type":"Polygon","coordinates":[[[18.4181662,-33.927186],[18.4180213,-33.9273279],[18.4180161,-33.9273262],[18.418008,-33.9273259],[18.4180032,-33.9273276],[18.4179994,-33.9273305],[18.4179766,-33.9273144],[18.4179718,-33.9273126],[18.4179632,-33.927312],[18.417956,-33.9273132],[18.4179496,-33.9273155],[18.4179319,-33.9273327],[18.4179276,-33.9273302],[18.4179168,-33.9273333],[18.4178509,-33.9272854],[18.4178785,-33.9272592],[18.4178804,-33.9272553],[18.4178808,-33.9272506],[18.4178787,-33.9272461],[18.4178749,-33.927241],[18.4178551,-33.9272265],[18.4180009,-33.9270849],[18.4180208,-33.9270987],[18.4180273,-33.9271006],[18.4180332,-33.9271012],[18.418041,-33.9270994],[18.4180461,-33.9270953],[18.4180632,-33.9270794],[18.4180699,-33.9270819],[18.4180763,-33.9270822],[18.4180822,-33.927081],[18.4180874,-33.9270782],[18.4181605,-33.9271301],[18.418156,-33.927137],[18.4181536,-33.9271457],[18.4181533,-33.9271535],[18.4181544,-33.927163],[18.4181574,-33.9271739],[18.4181614,-33.9271805],[18.4181662,-33.927186]]]}}]}
