{
  "type": "FeatureCollection",
  "name": "climateExplorer_valid_lidar_footprint",
  "crs": {
    "type": "name",
    "properties": {
      "name": "urn:ogc:def:crs:OGC:1.3:CRS84"
    }
  },
  "features": [
    {
      "type": "Feature",
      "properties": {
        "source": "data/derived/company_gardens_hybrid_dem_2m.tif",
        "mask_semantics": "valid DTM pixels",
        "valid_area_m2": 2225516.0,
        "simplification_m": 2.0
      },
      "geometry": {
        "type": "Polygon",
        "coordinates": [
          [
            [
              18.425495892483543,
              -33.91498669210697
            ],
            [
              18.424457239762848,
              -33.91507199552937
            ],
            [
              18.42430561532926,
              -33.9151073479542
            ],
            [
              18.424045011623324,
              -33.91526840430955
            ],
            [
              18.424001759543167,
              -33.91526820204037
            ],
            [
              18.42397989087301,
              -33.91530416082
            ],
            [
              18.423936638775288,
              -33.91530395852777
            ],
            [
              18.42391477006859,
              -33.91533991729525
            ],
            [
              18.423871517953298,
              -33.91533971497996
            ],
            [
              18.42384964921006,
              -33.91537567373529
            ],
            [
              18.4238063970772,
              -33.91537547139695
            ],
            [
              18.42378452829742,
              -33.91541143014013
            ],
            [
              18.42374127614699,
              -33.91541122777873
            ],
            [
              18.423719407330672,
              -33.915447186509766
            ],
            [
              18.423676155162678,
              -33.91544698412532
            ],
            [
              18.423632538827757,
              -33.91550087160058
            ],
            [
              18.423589286633295,
              -33.915500669185356
            ],
            [
              18.423567417730126,
              -33.915536627887974
            ],
            [
              18.4235241655181,
              -33.91553642544967
            ],
            [
              18.423502296578388,
              -33.91557238414014
            ],
            [
              18.423459044348792,
              -33.9155721816788
            ],
            [
              18.42343717537254,
              -33.91560814035711
            ],
            [
              18.423393923125378,
              -33.915607937872714
            ],
            [
              18.423372054112587,
              -33.915643896538874
            ],
            [
              18.423328801847852,
              -33.915643694031424
            ],
            [
              18.42330693279852,
              -33.91567965268542
            ],
            [
              18.42300319464859,
              -33.91582247429687
            ],
            [
              18.423002830078225,
              -33.91587656416246
            ],
            [
              18.42287258673648,
              -33.915948076020314
            ],
            [
              18.422829455882304,
              -33.91592984338149
            ],
            [
              18.42274720625711,
              -33.91529838953989
            ],
            [
              18.42266058049364,
              -33.91531601403025
            ],
            [
              18.42203172101459,
              -33.91556549193419
            ],
            [
              18.421966842692417,
              -33.9155651874619
            ],
            [
              18.42187997298809,
              -33.91561887130285
            ],
            [
              18.4218150946272,
              -33.91561856675022
            ],
            [
              18.42131635323562,
              -33.915814560163874
            ],
            [
              18.421251474732895,
              -33.91581425531282
            ],
            [
              18.42112123005148,
              -33.915885765305
            ],
            [
              18.42105635149703,
              -33.915885460350594
            ],
            [
              18.42092610654649,
              -33.91595697013278
            ],
            [
              18.420861227940314,
              -33.915956665075036
            ],
            [
              18.42073098272064,
              -33.916028174647195
            ],
            [
              18.420514354386004,
              -33.91608124715068
            ],
            [
              18.42034073410641,
              -33.91617058273596
            ],
            [
              18.420275855345075,
              -33.916170277368195
            ],
            [
              18.420058859943424,
              -33.91627743889712
            ],
            [
              18.419993981104348,
              -33.91627713338002
            ],
            [
              18.41919148459118,
              -33.916615931410725
            ],
            [
              18.419126605505557,
              -33.916615625434055
            ],
            [
              18.418909729947906,
              -33.91670475496383
            ],
            [
              18.41867049289534,
              -33.91690196165993
            ],
            [
              18.418670248013598,
              -33.9169380215364
            ],
            [
              18.41838763427445,
              -33.917153053433445
            ],
            [
              18.418387389271246,
              -33.91718911330662
            ],
            [
              18.418104773992805,
              -33.91740414452968
            ],
            [
              18.41806103059283,
              -33.91747605990227
            ],
            [
              18.417996273453742,
              -33.91745772338885
            ],
            [
              18.417910380190552,
              -33.91736716489227
            ],
            [
              18.417867127096976,
              -33.91736696045776
            ],
            [
              18.417608957872464,
              -33.91716740425984
            ],
            [
              18.417586963366404,
              -33.917221391793966
            ],
            [
              18.417391343096416,
              -33.917364710675784
            ],
            [
              18.417391097671583,
              -33.91740077054133
            ],
            [
              18.41691248880189,
              -33.91781320732199
            ],
            [
              18.41704138922027,
              -33.91794003110419
            ],
            [
              18.417149522663028,
              -33.91794054289449
            ],
            [
              18.417300050346675,
              -33.918067468756064
            ],
            [
              18.41738557549743,
              -33.918212117459866
            ],
            [
              18.417471837133032,
              -33.91824858652193
            ],
            [
              18.41760073903491,
              -33.91837540972535
            ],
            [
              18.417643992635984,
              -33.91837561425873
            ],
            [
              18.417772894984115,
              -33.91850243728403
            ],
            [
              18.4178161486507,
              -33.91850264175761
            ],
            [
              18.41790216554483,
              -33.91857517038331
            ],
            [
              18.417901920324002,
              -33.91861123024504
            ],
            [
              18.41768454780874,
              -33.91877247724191
            ],
            [
              18.41768430249442,
              -33.918808537101086
            ],
            [
              18.417466929068304,
              -33.91896978369911
            ],
            [
              18.41746668366049,
              -33.91900584355574
            ],
            [
              18.417249309323516,
              -33.919167089754936
            ],
            [
              18.417249063822197,
              -33.91920314960901
            ],
            [
              18.41703168857436,
              -33.91936439540937
            ],
            [
              18.417031442979543,
              -33.91940045526087
            ],
            [
              18.416814066820827,
              -33.919561700662385
            ],
            [
              18.416813821132507,
              -33.91959776051134
            ],
            [
              18.416596444062908,
              -33.91975900551398
            ],
            [
              18.416596198281084,
              -33.919795065360375
            ],
            [
              18.41637882030059,
              -33.91995630996416
            ],
            [
              18.416378574425263,
              -33.919992369808
            ],
            [
              18.416161195533864,
              -33.9201536140129
            ],
            [
              18.41616094956503,
              -33.92018967385418
            ],
            [
              18.41594356976272,
              -33.9203509176602
            ],
            [
              18.41594332370038,
              -33.92038697749893
            ],
            [
              18.415725942987148,
              -33.92054822090604
            ],
            [
              18.415725696831295,
              -33.92058428074222
            ],
            [
              18.415508315207138,
              -33.920745523750426
            ],
            [
              18.41550806895777,
              -33.92078158358405
            ],
            [
              18.41496417974187,
              -33.921247794061806
            ],
            [
              18.415050073688874,
              -33.92133835456457
            ],
            [
              18.415113724199706,
              -33.92151896186202
            ],
            [
              18.414983342496658,
              -33.921608495064376
            ],
            [
              18.41498309601812,
              -33.92164455488955
            ],
            [
              18.414874464888342,
              -33.921716160796414
            ],
            [
              18.414830593260657,
              -33.921806104831205
            ],
            [
              18.41472196179822,
              -33.92187771059815
            ],
            [
              18.414828127793673,
              -33.92216670305185
            ],
            [
              18.41434947972506,
              -33.922579129142434
            ],
            [
              18.41439224195216,
              -33.92265145447104
            ],
            [
              18.41443549768934,
              -33.922651660153896
            ],
            [
              18.41480119894767,
              -33.92294188638185
            ],
            [
              18.414627312159734,
              -33.9230672734187
            ],
            [
              18.41462706551766,
              -33.923103333233016
            ],
            [
              18.414453178146694,
              -33.92322872001454
            ],
            [
              18.41445293142975,
              -33.92326477982679
            ],
            [
              18.41427904347576,
              -33.92339016635301
            ],
            [
              18.41427879668395,
              -33.92342622616319
            ],
            [
              18.414104908146914,
              -33.92355161243407
            ],
            [
              18.414104661280238,
              -33.92358767224218
            ],
            [
              18.413930772160167,
              -33.92371305825773
            ],
            [
              18.413930525218614,
              -33.92374911806376
            ],
            [
              18.4137566355155,
              -33.92387450382398
            ],
            [
              18.41375638849908,
              -33.92391056362795
            ],
            [
              18.413582498212914,
              -33.924035949132836
            ],
            [
              18.413582251121625,
              -33.92407200893472
            ],
            [
              18.41343011208616,
              -33.924179467304434
            ],
            [
              18.413429864929327,
              -33.924215527104494
            ],
            [
              18.41325597354528,
              -33.924340912130496
            ],
            [
              18.413255726313572,
              -33.92437697192848
            ],
            [
              18.413081834346464,
              -33.924502356699136
            ],
            [
              18.413081587039876,
              -33.92453841649505
            ],
            [
              18.4129076944897,
              -33.92466380101035
            ],
            [
              18.41290744710824,
              -33.924699860804196
            ],
            [
              18.41273355397499,
              -33.92482524506414
            ],
            [
              18.412733306518653,
              -33.92486130485591
            ],
            [
              18.41255941280233,
              -33.92498668886048
            ],
            [
              18.41255916527111,
              -33.92502274865018
            ],
            [
              18.412385270971704,
              -33.92514813239939
            ],
            [
              18.412385023365605,
              -33.92518419218702
            ],
            [
              18.41221112848312,
              -33.92530957568085
            ],
            [
              18.412210880802135,
              -33.9253456354664
            ],
            [
              18.412036985336556,
              -33.92547101870487
            ],
            [
              18.412036737580696,
              -33.925507078488344
            ],
            [
              18.411840965080195,
              -33.925668417953425
            ],
            [
              18.411969993450118,
              -33.925777217037876
            ],
            [
              18.41201325074838,
              -33.925777423588144
            ],
            [
              18.412120650825173,
              -33.92588611924338
            ],
            [
              18.412163908179654,
              -33.9258863257413
            ],
            [
              18.41224980371461,
              -33.92597688814722
            ],
            [
              18.412293061115975,
              -33.92597709460026
            ],
            [
              18.412400461798658,
              -33.926085790014334
            ],
            [
              18.412443719256242,
              -33.92608599641505
            ],
            [
              18.412529615287514,
              -33.92617655862813
            ],
            [
              18.412572872791984,
              -33.92617676498395
            ],
            [
              18.412658769050967,
              -33.926267327108
            ],
            [
              18.41270202660232,
              -33.926267533418944
            ],
            [
              18.412809428168845,
              -33.926376228480585
            ],
            [
              18.412852685776414,
              -33.92637643473918
            ],
            [
              18.412938582531726,
              -33.92646699667039
            ],
            [
              18.412981840186184,
              -33.9264672028841
            ],
            [
              18.413304294753836,
              -33.926757227283346
            ],
            [
              18.413347552557845,
              -33.92675743337014
            ],
            [
              18.413691514898474,
              -33.927065589697094
            ],
            [
              18.41373477286136,
              -33.927065795649504
            ],
            [
              18.413863805749475,
              -33.927174592772744
            ],
            [
              18.413883829297863,
              -33.92740908432241
            ],
            [
              18.413926469991427,
              -33.92749943966952
            ],
            [
              18.41392498811353,
              -33.92771579836909
            ],
            [
              18.41385911263752,
              -33.92785972865695
            ],
            [
              18.413814248579143,
              -33.92809391131651
            ],
            [
              18.414008294384956,
              -33.928184987264956
            ],
            [
              18.414072564873376,
              -33.928275445481276
            ],
            [
              18.414137452739713,
              -33.92827575421304
            ],
            [
              18.414266487947515,
              -33.928384550917706
            ],
            [
              18.414287500177746,
              -33.92847480325028
            ],
            [
              18.41439490650728,
              -33.92858349694078
            ],
            [
              18.414393425753367,
              -33.92879985562036
            ],
            [
              18.414501449492715,
              -33.928818399769455
            ],
            [
              18.414653842222467,
              -33.92867488044806
            ],
            [
              18.414654088904978,
              -33.92863882066626
            ],
            [
              18.414827863796383,
              -33.928531463715544
            ],
            [
              18.41504415736438,
              -33.92853249136867
            ],
            [
              18.415216452892658,
              -33.92864149257519
            ],
            [
              18.415280601793917,
              -33.92874998006401
            ],
            [
              18.41529878142165,
              -33.929254919742775
            ],
            [
              18.41525502947,
              -33.929326833892105
            ],
            [
              18.415146388713723,
              -33.92939843984939
            ],
            [
              18.41514614223163,
              -33.929434499629934
            ],
            [
              18.414928613506845,
              -33.92961377102455
            ],
            [
              18.414928243642876,
              -33.92966786069127
            ],
            [
              18.414971256372596,
              -33.92970412600086
            ],
            [
              18.415165676779406,
              -33.92974111048588
            ],
            [
              18.4152517025518,
              -33.92981364092638
            ],
            [
              18.415337235657628,
              -33.929958290865045
            ],
            [
              18.415402124814804,
              -33.929958598943806
            ],
            [
              18.415552917061962,
              -33.93004946711053
            ],
            [
              18.41561694427575,
              -33.93017598430453
            ],
            [
              18.41570346337666,
              -33.93017639487439
            ],
            [
              18.41605187780863,
              -33.92983546860851
            ],
            [
              18.41616027232157,
              -33.929799921640154
            ],
            [
              18.41652797693206,
              -33.929801664502946
            ],
            [
              18.416853528148344,
              -33.92964093235761
            ],
            [
              18.416983306017453,
              -33.92964154687788
            ],
            [
              18.41715585190735,
              -33.92971448560936
            ],
            [
              18.417241510957442,
              -33.92984110436474
            ],
            [
              18.417240896948517,
              -33.92993125384287
            ],
            [
              18.41728391080144,
              -33.92996751835477
            ],
            [
              18.417392059446502,
              -33.929968030090826
            ],
            [
              18.417784216394363,
              -33.92955518390657
            ],
            [
              18.417935991743374,
              -33.929501809991
            ],
            [
              18.41806576942648,
              -33.92950242336829
            ],
            [
              18.418130535656864,
              -33.92952075990522
            ],
            [
              18.41819493411755,
              -33.92959318610722
            ],
            [
              18.41823819339301,
              -33.92959339049102
            ],
            [
              18.41832409908325,
              -33.929683948712196
            ],
            [
              18.41836735840559,
              -33.929684153051106
            ],
            [
              18.418561045177707,
              -33.929829311590076
            ],
            [
              18.418212027669,
              -33.930260394550274
            ],
            [
              18.41847048245033,
              -33.93042388969434
            ],
            [
              18.41851374214789,
              -33.930424093985735
            ],
            [
              18.418621278825686,
              -33.93051475413942
            ],
            [
              18.418686045942582,
              -33.930533090390455
            ],
            [
              18.418816682515295,
              -33.93040749370083
            ],
            [
              18.41881692745949,
              -33.93037143390242
            ],
            [
              18.418903569261037,
              -33.93035381232647
            ],
            [
              18.41894658403721,
              -33.93039007626469
            ],
            [
              18.419270542172328,
              -33.930463726426105
            ],
            [
              18.41931355716053,
              -33.93049999023769
            ],
            [
              18.419939723343305,
              -33.930665215806805
            ],
            [
              18.419982738718687,
              -33.930701479387444
            ],
            [
              18.42024193130238,
              -33.93075679143731
            ],
            [
              18.420284946852906,
              -33.930793054913686
            ],
            [
              18.42047949427433,
              -33.93081200114887
            ],
            [
              18.420652045564044,
              -33.93088493502321
            ],
            [
              18.420846471237308,
              -33.93092191058529
            ],
            [
              18.420889487129216,
              -33.930958173853035
            ],
            [
              18.421148681102984,
              -33.93101348400613
            ],
            [
              18.421191697170027,
              -33.931049747169574
            ],
            [
              18.42183937935355,
              -33.93123309472095
            ],
            [
              18.42201449051449,
              -33.93092739865276
            ],
            [
              18.422340766343268,
              -33.93065847251095
            ],
            [
              18.422341009804562,
              -33.93062241269151
            ],
            [
              18.422558647474894,
              -33.93042509818484
            ],
            [
              18.42255889084222,
              -33.93038903836264
            ],
            [
              18.422624023748828,
              -33.930353282816554
            ],
            [
              18.42262426708795,
              -33.93031722299351
            ],
            [
              18.42268939991263,
              -33.93028146741158
            ],
            [
              18.42268964322354,
              -33.93024540758771
            ],
            [
              18.422754775966297,
              -33.93020965196992
            ],
            [
              18.42282039516432,
              -33.930101776666014
            ],
            [
              18.422929030501717,
              -33.93003016388837
            ],
            [
              18.42292927370934,
              -33.92999410406151
            ],
            [
              18.42355993787141,
              -33.92949220440023
            ],
            [
              18.42356018080822,
              -33.92945614456621
            ],
            [
              18.423908197110595,
              -33.92916928542988
            ],
            [
              18.423994836696146,
              -33.92915166024449
            ],
            [
              18.424255725802784,
              -33.92895454495579
            ],
            [
              18.42429898480174,
              -33.92895474720716
            ],
            [
              18.42432085691271,
              -33.928918788485134
            ],
            [
              18.424364115894086,
              -33.928918990713434
            ],
            [
              18.424385987968495,
              -33.928883031979254
            ],
            [
              18.424429246932284,
              -33.92888323418448
            ],
            [
              18.424451118970126,
              -33.928847275438144
            ],
            [
              18.42449437791634,
              -33.92884747762031
            ],
            [
              18.42451624991762,
              -33.928811518861814
            ],
            [
              18.424559508846247,
              -33.9288117210209
            ],
            [
              18.424581380810963,
              -33.92877576225025
            ],
            [
              18.424624639722012,
              -33.92877596438629
            ],
            [
              18.424646511650163,
              -33.92874000560347
            ],
            [
              18.42468977054363,
              -33.928740207716444
            ],
            [
              18.424711642435216,
              -33.928704248921484
            ],
            [
              18.4247549013111,
              -33.928704451011384
            ],
            [
              18.424776773166123,
              -33.92866849220426
            ],
            [
              18.425080554336272,
              -33.92852566695777
            ],
            [
              18.425124176527927,
              -33.928471779142626
            ],
            [
              18.4252325656552,
              -33.92843622412295
            ],
            [
              18.42538481881514,
              -33.92831072124357
            ],
            [
              18.425428077497195,
              -33.928310923094955
            ],
            [
              18.42577620389538,
              -33.928006028584754
            ],
            [
              18.42577644588466,
              -33.927969968727965
            ],
            [
              18.426015577148885,
              -33.92779077866141
            ],
            [
              18.42601581903533,
              -33.92775471880184
            ],
            [
              18.426646569433935,
              -33.92723477285861
            ],
            [
              18.42697040185337,
              -33.92732643267863
            ],
            [
              18.427337975874654,
              -33.92734617308841
            ],
            [
              18.42805318252228,
              -33.92713313103643
            ],
            [
              18.429048119091085,
              -33.927137748074514
            ],
            [
              18.42952371799714,
              -33.927176013267115
            ],
            [
              18.429913521746915,
              -33.92710569646873
            ],
            [
              18.430109143852402,
              -33.926962357934606
            ],
            [
              18.43019686050822,
              -33.926782458833074
            ],
            [
              18.43024023850271,
              -33.926764629040164
            ],
            [
              18.430349583598865,
              -33.92658482988951
            ],
            [
              18.43051562439399,
              -33.92438587618864
            ],
            [
              18.430538452509378,
              -33.92420567666263
            ],
            [
              18.430625925445874,
              -33.92406183704725
            ],
            [
              18.43062628531066,
              -33.924007747181435
            ],
            [
              18.430670021639028,
              -33.92393582734701
            ],
            [
              18.4307786426052,
              -33.92386420742448
            ],
            [
              18.430778882449037,
              -33.92382814751188
            ],
            [
              18.430865755073675,
              -33.9237744574934
            ],
            [
              18.430865994879994,
              -33.92373839757973
            ],
            [
              18.430974615431683,
              -33.9236667774778
            ],
            [
              18.430974855191167,
              -33.9236307175628
            ],
            [
              18.431083475515166,
              -33.92355909736127
            ],
            [
              18.43108371522781,
              -33.92352303744496
            ],
            [
              18.431431801981194,
              -33.92321812630224
            ],
            [
              18.431432041543996,
              -33.923182066381756
            ],
            [
              18.431475417451466,
              -33.923164236121984
            ],
            [
              18.43149752458398,
              -33.9230922161239
            ],
            [
              18.43162813103223,
              -33.92296660538046
            ],
            [
              18.431650237983124,
              -33.92289458535084
            ],
            [
              18.431693613699675,
              -33.92287675501141
            ],
            [
              18.431781083315432,
              -33.92273291451071
            ],
            [
              18.43184620656596,
              -33.92269715394275
            ],
            [
              18.43189006087175,
              -33.92260720367902
            ],
            [
              18.43195518398116,
              -33.922571443051254
            ],
            [
              18.43199903810662,
              -33.922481492745064
            ],
            [
              18.43206416107491,
              -33.922445732057476
            ],
            [
              18.432108015020038,
              -33.92235578170882
            ],
            [
              18.432173137847204,
              -33.92232002096144
            ],
            [
              18.43217337708958,
              -33.92228396103105
            ],
            [
              18.432238499834853,
              -33.92224820024783
            ],
            [
              18.43223873904904,
              -33.9222121403166
            ],
            [
              18.432434585137315,
              -33.922032737887136
            ],
            [
              18.432434824266952,
              -33.92199667795341
            ],
            [
              18.43256518858511,
              -33.921907126097686
            ],
            [
              18.432565427658588,
              -33.921871066162424
            ],
            [
              18.432717538871458,
              -33.921763583821516
            ],
            [
              18.432717777879457,
              -33.92172752388445
            ],
            [
              18.432848141491828,
              -33.92163797171807
            ],
            [
              18.432848380443676,
              -33.921601911779454
            ],
            [
              18.432978743728157,
              -33.921512359469645
            ],
            [
              18.432978982623855,
              -33.921476299529466
            ],
            [
              18.433109345580448,
              -33.921386747076234
            ],
            [
              18.43310958441999,
              -33.921350687134506
            ],
            [
              18.4332399470487,
              -33.92126113453785
            ],
            [
              18.433240185832094,
              -33.92122507459457
            ],
            [
              18.433370548132924,
              -33.92113552185448
            ],
            [
              18.433370786860163,
              -33.92109946190964
            ],
            [
              18.433501148833113,
              -33.92100990902615
            ],
            [
              18.4335013875042,
              -33.92097384907975
            ],
            [
              18.43363174914927,
              -33.920884296052826
            ],
            [
              18.433631987764212,
              -33.92084823610489
            ],
            [
              18.433762349081405,
              -33.92075868293454
            ],
            [
              18.433762587640196,
              -33.92072262298505
            ],
            [
              18.433892948629513,
              -33.92063306967128
            ],
            [
              18.43389318713216,
              -33.920597009720254
            ],
            [
              18.434284744969734,
              -33.92025622901173
            ],
            [
              18.43437232666291,
              -33.92009435655925
            ],
            [
              18.434373398990928,
              -33.91993208675023
            ],
            [
              18.434330621100333,
              -33.91985976816815
            ],
            [
              18.43422272326388,
              -33.91982321148013
            ],
            [
              18.434179826367355,
              -33.91976892282523
            ],
            [
              18.434136571936744,
              -33.91976872409197
            ],
            [
              18.434093675122103,
              -33.9197144354074
            ],
            [
              18.434050420719668,
              -33.91971423664417
            ],
            [
              18.434007523986914,
              -33.91965994792996
            ],
            [
              18.43396426961266,
              -33.91965974913675
            ],
            [
              18.43392137296179,
              -33.91960546039289
            ],
            [
              18.43387811861571,
              -33.91960526156969
            ],
            [
              18.433835222046728,
              -33.91955097279619
            ],
            [
              18.433705816952006,
              -33.919496286256724
            ],
            [
              18.433641412715,
              -33.91942386799103
            ],
            [
              18.433598158462782,
              -33.919423669070454
            ],
            [
              18.43353375437143,
              -33.919351250749116
            ],
            [
              18.433490500156715,
              -33.91935105179111
            ],
            [
              18.43342609621102,
              -33.919278633414095
            ],
            [
              18.433275184094036,
              -33.919205816953095
            ],
            [
              18.43318927278137,
              -33.919115268953796
            ],
            [
              18.433146018688475,
              -33.91911506987602
            ],
            [
              18.43280177807099,
              -33.918843027053256
            ],
            [
              18.43256459847599,
              -33.9187337513363
            ],
            [
              18.432371032018796,
              -33.91857058459955
            ],
            [
              18.43232777820727,
              -33.9185703852372
            ],
            [
              18.43213421257185,
              -33.91840721813232
            ],
            [
              18.432090958844647,
              -33.91840701868764
            ],
            [
              18.432005049586213,
              -33.91831646987157
            ],
            [
              18.43196179590583,
              -33.91831627038199
            ],
            [
              18.431768231544062,
              -33.91815310270821
            ],
            [
              18.431724977948004,
              -33.91815290313629
            ],
            [
              18.431639069331577,
              -33.91806235406779
            ],
            [
              18.431595815782345,
              -33.918062154451
            ],
            [
              18.431402252694205,
              -33.91789898620832
            ],
            [
              18.431358999229303,
              -33.9178987865092
            ],
            [
              18.431273091254866,
              -33.91780823718827
            ],
            [
              18.43122983783679,
              -33.917808037444246
            ],
            [
              18.431165436962914,
              -33.91773561789844
            ],
            [
              18.43112218358234,
              -33.91773541811699
            ],
            [
              18.43107928969506,
              -33.91768112839462
            ],
            [
              18.430949889213046,
              -33.91762643898979
            ],
            [
              18.430885488712544,
              -33.917554019299295
            ],
            [
              18.430842235425832,
              -33.917553819420476
            ],
            [
              18.43077783507097,
              -33.917481399674315
            ],
            [
              18.430734581821756,
              -33.917481199758065
            ],
            [
              18.430670181612534,
              -33.917408779956254
            ],
            [
              18.430519275163036,
              -33.917335960154006
            ],
            [
              18.430433368641612,
              -33.91724541025398
            ],
            [
              18.43039011551423,
              -33.91724521021797
            ],
            [
              18.430325715773694,
              -33.917172790238105
            ],
            [
              18.430282462683813,
              -33.91717259016466
            ],
            [
              18.430218063088915,
              -33.91710017012913
            ],
            [
              18.43017481003654,
              -33.917099970018256
            ],
            [
              18.430110410587275,
              -33.9170275499271
            ],
            [
              18.430067157572402,
              -33.917027349778785
            ],
            [
              18.430002758268778,
              -33.916954929631984
            ],
            [
              18.429959505291407,
              -33.916954729446246
            ],
            [
              18.429895106133415,
              -33.916882309243796
            ],
            [
              18.429851853193547,
              -33.916882109020634
            ],
            [
              18.429787454181188,
              -33.91680968876253
            ],
            [
              18.429744201278826,
              -33.916809488501926
            ],
            [
              18.4296798024121,
              -33.91673706818819
            ],
            [
              18.42963654954724,
              -33.91673686789017
            ],
            [
              18.42955064456055,
              -33.916646317381414
            ],
            [
              18.429507391742515,
              -33.91664611703851
            ],
            [
              18.429442993198833,
              -33.91657369660235
            ],
            [
              18.4293997404183,
              -33.916573496222
            ],
            [
              18.42914154631369,
              -33.91637396392042
            ],
            [
              18.428946909269015,
              -33.916373061617556
            ],
            [
              18.428925523488147,
              -33.9163369013978
            ],
            [
              18.42875299412101,
              -33.91626397917504
            ],
            [
              18.428710102472056,
              -33.91620968863764
            ],
            [
              18.428666849880965,
              -33.916209488001805
            ],
            [
              18.428645464258963,
              -33.9161733277341
            ],
            [
              18.428602211686737,
              -33.91617312707577
            ],
            [
              18.428580826101058,
              -33.916136966797
            ],
            [
              18.42853757354769,
              -33.91613676611615
            ],
            [
              18.42851618799834,
              -33.916100605826315
            ],
            [
              18.428214383680253,
              -33.91595496081447
            ],
            [
              18.4281714925276,
              -33.91590067009188
            ],
            [
              18.428128240096704,
              -33.915900469268514
            ],
            [
              18.428106854778875,
              -33.91586430890861
            ],
            [
              18.42806360236684,
              -33.91586410806272
            ],
            [
              18.428042217085334,
              -33.91582794769177
            ],
            [
              18.42774041454529,
              -33.91568230153024
            ],
            [
              18.427697523829735,
              -33.91562801064472
            ],
            [
              18.427654271540177,
              -33.91562780965631
            ],
            [
              18.427632886490183,
              -33.915591649215294
            ],
            [
              18.42758963421949,
              -33.91559144820438
            ],
            [
              18.42756824920582,
              -33.9155552877523
            ],
            [
              18.427524996953984,
              -33.91555508671887
            ],
            [
              18.42750361197664,
              -33.91551892625573
            ],
            [
              18.427201811454243,
              -33.915373278787776
            ],
            [
              18.42715892123497,
              -33.91531898771709
            ],
            [
              18.42700778013922,
              -33.91528222359586
            ],
            [
              18.426792243931335,
              -33.91517303748567
            ],
            [
              18.426468336707263,
              -33.91509940746276
            ],
            [
              18.42644695228996,
              -33.91506324681927
            ],
            [
              18.42638195348971,
              -33.915080974644816
            ],
            [
              18.426014915903462,
              -33.914989112020855
            ],
            [
              18.425495892483543,
              -33.91498669210697
            ]
          ]
        ]
      }
    }
  ]
}
